{
  "version": 0.6,
  "generator": "Overpass API 0.7.56.1002 b121d216",
  "osm3s": {
    "timestamp_osm_base": "2020-04-22T15:47:02Z",
    "copyright": "The data included in this document is from www.openstreetmap.org. The data is made available under ODbL."
  },
  "elements": [

{
  "type": "node",
  "id": 148874198,
  "lat": 42.5407167,
  "lon": 1.5732033,
  "tags": {
    "ISO3166-1": "AD",
    "ISO3166-1:alpha2": "AD",
    "ISO3166-1:alpha3": "AND",
    "ISO3166-1:numeric": "020",
    "alt_name:el": "Ανδόρα",
    "capital_city": "Andorra la Vella",
    "country_code_iso3166_1_alpha_2": "AD",
    "is_in:continent": "Europe",
    "name": "Andorra",
    "name:ak": "Andora",
    "name:am": "አንዶራ",
    "name:ar": "أندورا",
    "name:be": "Андора",
    "name:be-tarask": "Андора",
    "name:bg": "Андора",
    "name:bm": "Andɔr",
    "name:bn": "এ্যান্ডোরা",
    "name:bo": "ཨེན་ཌོ་ར།",
    "name:br": "Andorra",
    "name:bs": "Andora",
    "name:ca": "Andorra",
    "name:chr": "ᎠᏂᏙᎳ",
    "name:cs": "Andorra",
    "name:de": "Andorra",
    "name:dz": "ཨཱན་དོ་ར",
    "name:ee": "Andorra nutome",
    "name:el": "Ανδόρρα",
    "name:en": "Andorra",
    "name:eo": "Andoro",
    "name:es": "Andorra",
    "name:fa": "آندورا",
    "name:ff": "Anndoora",
    "name:fi": "Andorra",
    "name:fr": "Andorre",
    "name:ga": "Andóra",
    "name:gu": "ઍંડોરા",
    "name:gv": "Andorra",
    "name:ha": "Andora",
    "name:haw": "‘Anakola",
    "name:he": "אנדורה",
    "name:hi": "अन्डोरा",
    "name:hr": "Andora",
    "name:hu": "Andorra",
    "name:hy": "Անդորրա",
    "name:ia": "Andorra",
    "name:id": "Andora",
    "name:io": "Andora",
    "name:is": "Andorra",
    "name:it": "Andorra",
    "name:ja": "アンドラ",
    "name:jbo": "andoras",
    "name:ka": "ანდორა",
    "name:kab": "Undura",
    "name:ki": "Andora",
    "name:kk": "Андорра",
    "name:km": "អង់ដូរ៉ា",
    "name:kn": "ಅಂಡೋರಾ",
    "name:ko": "안도라",
    "name:ks": "اٮ۪نڑورا",
    "name:ku": "Andorra",
    "name:lfn": "Andora",
    "name:lg": "Andora",
    "name:ln": "Andorɛ",
    "name:lo": "ອັນດໍລາ",
    "name:lt": "Andora",
    "name:lv": "Andora",
    "name:mk": "Андора",
    "name:ml": "അൻറോറ",
    "name:mn": "Андорра",
    "name:mr": "अँडोरा",
    "name:nds": "Andorra",
    "name:ne": "अन्डोर्रा",
    "name:nl": "Andorra",
    "name:no": "Andorra",
    "name:oc": "Andòrra",
    "name:or": "ଆଣ୍ଡୋରା",
    "name:pl": "Andora",
    "name:pt": "Andorra",
    "name:rn": "Andora",
    "name:ru": "Андорра",
    "name:sco": "Andorrae",
    "name:sg": "Andôro",
    "name:si": "ඇන්ඩෝරාව",
    "name:sk": "Andorra",
    "name:sl": "Andora",
    "name:sn": "Andora",
    "name:so": "Andora",
    "name:sq": "Andorrë",
    "name:sr": "Андора",
    "name:sv": "Andorra",
    "name:sw": "Andora",
    "name:ta": "அன்டோரா",
    "name:te": "అన్డోరా",
    "name:tg": "Андорра",
    "name:th": "ประเทศอันดอร์รา",
    "name:ti": "አንዶራ",
    "name:to": "ʻEnitola",
    "name:tok": "ma Antola",
    "name:tt": "Андорра",
    "name:tzl": "Anduora",
    "name:uk": "Андора",
    "name:ur": "انڈورا",
    "name:uz": "Andorra",
    "name:vi": "Andora",
    "name:vo": "Landorän",
    "name:yo": "Orílẹ́ède Ààndórà",
    "name:zh": "安道尔",
    "name:zh_pinyin": "Āndàoěr",
    "name:zu": "i-Andorra",
    "official_name": "Principat d'Andorra",
    "official_name:be": "Княства Андора",
    "official_name:be-tarask": "Княства Андора",
    "official_name:cy": "Tywysogaeth Andorra",
    "official_name:de": "Fürstentum Andorra",
    "official_name:el": "Πριγκηπάτο της Ανδόρρας",
    "official_name:eo": "Andora Princlando",
    "official_name:fi": "Andorran ruhtinaskunta",
    "official_name:fr": "Principauté d'Andorre",
    "official_name:id": "Kepangeranan Andorra",
    "official_name:is": "Furstadæmið Andorra",
    "official_name:it": "Principato d'Andorra",
    "official_name:ku": "Mîritiya Andorrayê",
    "official_name:la": "Principatus Andorrae",
    "official_name:lt": "Andoros Kunigaikštystė",
    "official_name:lv": "Andoras Firstiste",
    "official_name:no": "Fyrstedømmet Andorra",
    "official_name:pt": "Principado de Andorra",
    "official_name:ru": "Княжество Андорра",
    "official_name:sk": "Andorrské kniežatstvo",
    "official_name:sr": "Кнежевина Андора",
    "official_name:sv": "Furstendömet Andorra",
    "official_name:vi": "Công quốc Andora",
    "place": "country",
    "population": "83888",
    "source:name:oc": "ieo-bdtopoc",
    "source:population": "CIA World Factbook 2009",
    "source:sqkm": "CIA World Factbook",
    "sqkm": "468",
    "wikidata": "Q228",
    "wikipedia": "ca:Andorra"
  }
},
{
  "type": "node",
  "id": 249399277,
  "lat": 40.7696272,
  "lon": 44.6736646,
  "tags": {
    "ISO3166-1": "AM",
    "alt_name:eo": "Armenujo",
    "alt_name:lfn": "Armenia",
    "alt_name:vi": "Acmeni",
    "capital_city": "Yerevan",
    "country_code_fips": "AM",
    "country_code_iso3166_1_alpha_2": "AM",
    "geonames:id": "174982",
    "int_name": "Armenia",
    "is_in:continent": "Europe",
    "name": "Հայաստան",
    "name:ab": "Ермантәыла",
    "name:ace": "Armenia",
    "name:af": "Armenië",
    "name:ak": "Aamenia",
    "name:als": "Armenien",
    "name:am": "አርሜኒያ",
    "name:an": "Armenia",
    "name:ang": "Armenia",
    "name:ar": "أرمينيا",
    "name:arc": "ܐܪܡܢܝܐ",
    "name:arz": "أرمينيا",
    "name:ast": "Armenia",
    "name:av": "ЦIамухъ",
    "name:az": "Ermənistan",
    "name:ba": "Әрмәнстан",
    "name:bar": "Armenien",
    "name:bat-smg": "Armienėjė",
    "name:bcl": "Armenya",
    "name:be": "Арменія",
    "name:be-tarask": "Армэнія",
    "name:bg": "Армения",
    "name:bi": "Armenia",
    "name:bm": "Arimeni",
    "name:bn": "আর্মেনিয়া",
    "name:bo": "ཨར་མེ་ནི་ཡ།",
    "name:bpy": "আর্মেনিয়া",
    "name:br": "Armenia",
    "name:bs": "Armenija",
    "name:bxr": "Армени",
    "name:ca": "Armènia",
    "name:cdo": "Ā-mī-nà̤-ā",
    "name:ce": "Эрмалойчоь",
    "name:ceb": "Armenya",
    "name:chr": "ᎠᎵᎻᏂᎠ",
    "name:ckb": "ئەرمەنستان",
    "name:co": "Armenia",
    "name:crh": "Ermenistan",
    "name:cs": "Arménie",
    "name:csb": "Armenijô",
    "name:cu": "Армєнїꙗ",
    "name:cv": "Эрмени",
    "name:cy": "Armenia",
    "name:da": "Armenien",
    "name:de": "Armenien",
    "name:diq": "Ermenıstan",
    "name:dsb": "Armeńska",
    "name:dv": "އަރުމީނިއާ",
    "name:dz": "ཨར་མི་ནི་ཡ",
    "name:ee": "Armenia nutome",
    "name:el": "Αρμενία",
    "name:en": "Armenia",
    "name:eo": "Armenio",
    "name:es": "Armenia",
    "name:et": "Armeenia",
    "name:eu": "Armenia",
    "name:ext": "Arménia",
    "name:fa": "ارمنستان",
    "name:ff": "Armenii",
    "name:fi": "Armenia",
    "name:fiu-vro": "Armeeniä",
    "name:fo": "Armenia",
    "name:fr": "Arménie",
    "name:frp": "Armènie",
    "name:fur": "Armenie",
    "name:fy": "Armeenje",
    "name:ga": "An Airméin",
    "name:gag": "Armeniya",
    "name:gd": "Airmeinia",
    "name:gl": "Armenia",
    "name:glk": "Armөnөston",
    "name:gn": "Armenia",
    "name:gu": "આર્મેનિયા",
    "name:gv": "Yn Armeain",
    "name:ha": "Armeniya",
    "name:hak": "Â-mî-nì-â",
    "name:haw": "‘Āmēnia",
    "name:he": "ארמניה",
    "name:hi": "आर्मीनिया",
    "name:hif": "Armenia",
    "name:hr": "Armenija",
    "name:hsb": "Armenska",
    "name:ht": "Ameni",
    "name:hu": "Örményország",
    "name:hy": "Հայաստան",
    "name:ia": "Armenia",
    "name:id": "Armenia",
    "name:ie": "Armenia",
    "name:ilo": "Armenia",
    "name:io": "Armenia",
    "name:is": "Armenía",
    "name:it": "Armenia",
    "name:ja": "アルメニア",
    "name:jbo": "xaiastan",
    "name:jv": "Arménia",
    "name:ka": "სომხეთი",
    "name:kaa": "Armeniya",
    "name:kab": "Arminya",
    "name:kg": "Armenia",
    "name:ki": "Armenia",
    "name:kk": "Армения",
    "name:kl": "Armenia",
    "name:km": "អារមេនី",
    "name:kn": "ಅರ್ಮೇನಿಯಾ",
    "name:ko": "아르메니아",
    "name:krc": "Эрмения",
    "name:ks": "اَرمانِیا",
    "name:ksh": "Arrmeenije",
    "name:ku": "Ermenistan",
    "name:kv": "Армения",
    "name:kw": "Armeni",
    "name:ky": "Армения",
    "name:la": "Armenia",
    "name:lad": "Armenia",
    "name:lb": "Armenien",
    "name:lez": "Эрменистан",
    "name:lfn": "Haiastan",
    "name:lg": "Arameniya",
    "name:li": "Armenië",
    "name:lij": "Armenia",
    "name:lmo": "Armenia",
    "name:ln": "Amɛni",
    "name:lo": "ອາມິເນຍ",
    "name:lt": "Armėnija",
    "name:ltg": "Armeneja",
    "name:lv": "Armēnija",
    "name:mdf": "Армение",
    "name:mg": "Armenia",
    "name:mhr": "Армений",
    "name:mi": "Āmenia",
    "name:min": "Armenia",
    "name:mk": "Ерменија",
    "name:ml": "അർമേനിയ",
    "name:mn": "Армен",
    "name:mr": "आर्मेनिया",
    "name:ms": "Armenia",
    "name:mt": "Armenja",
    "name:mwl": "Arménia",
    "name:my": "အာမေနီးယား",
    "name:mzn": "ارمنستون",
    "name:na": "Arminiya",
    "name:nah": "Armenia",
    "name:nan": "Hayastan",
    "name:nds": "Armenien",
    "name:ne": "आर्मेनिया",
    "name:new": "आर्मेनिया",
    "name:nl": "Armenië",
    "name:nn": "Armenia",
    "name:no": "Armenia",
    "name:nov": "Armenia",
    "name:nv": "Aooméénii Bikéyah",
    "name:oc": "Armenia",
    "name:or": "ଆର୍ମେନିଆ",
    "name:os": "Сомихыстон",
    "name:pa": "ਅਰਮੀਨੀਆ",
    "name:pag": "Hayastan",
    "name:pam": "Armenia",
    "name:pcd": "Arménie",
    "name:pdc": "Armeni",
    "name:pih": "Aarmanya",
    "name:pl": "Armenia",
    "name:pms": "Armenia",
    "name:pnb": "آرمینیا",
    "name:pnt": "Αρμενία",
    "name:ps": "ارمنستان",
    "name:pt": "Armênia",
    "name:qu": "Arminya",
    "name:rm": "Armenia",
    "name:rn": "Arumeniya",
    "name:ro": "Armenia",
    "name:roa-rup": "Ermenia",
    "name:ru": "Армения",
    "name:rue": "Арменія",
    "name:rw": "Arumeniya",
    "name:sa": "आर्मीनिया",
    "name:sah": "Эрмээн Сирэ",
    "name:sc": "Armènia",
    "name:scn": "Armenia",
    "name:sco": "Armenie",
    "name:se": "Armenia",
    "name:sg": "Armenïi",
    "name:sh": "Jermenija",
    "name:si": "ආර්මේනියාව",
    "name:sk": "Arménsko",
    "name:sl": "Armenija",
    "name:sm": "Amenia",
    "name:sn": "Armenia",
    "name:so": "Armeeniya",
    "name:sq": "Armeni",
    "name:sr": "Јерменија",
    "name:ss": "I-Arimeniya",
    "name:stq": "Armenien",
    "name:su": "Arménia",
    "name:sv": "Armenien",
    "name:sw": "Armenia",
    "name:szl": "Armyńijo",
    "name:ta": "ஆர்மேனியா",
    "name:te": "ఆర్మేనియా",
    "name:tg": "Арманистон",
    "name:th": "ประเทศอาร์เมเนีย",
    "name:ti": "አርሜኒያ",
    "name:tk": "Ermenistan",
    "name:tl": "Armenya",
    "name:to": "ʻĀminia",
    "name:tok": "ma Aja",
    "name:tpi": "Armenia",
    "name:tr": "Ermenistan",
    "name:tt": "Әрмәнстан",
    "name:tzl": "Haiastan",
    "name:udm": "Армения",
    "name:ug": "ئەرمېنىيە",
    "name:uk": "Вірменія",
    "name:ur": "آرمینیا",
    "name:uz": "Armaniston",
    "name:vec": "Armenia",
    "name:vep": "Armenii",
    "name:vi": "Armenia",
    "name:vls": "Armenië",
    "name:vo": "Larmeniyän",
    "name:war": "Armenya",
    "name:wo": "Armeeni",
    "name:wuu": "亚美尼亚",
    "name:xal": "Хемшудин Орн",
    "name:xmf": "სომხეთი",
    "name:yi": "ארמעניע",
    "name:yo": "Orílẹ́ède Améníà",
    "name:yue": "亞美尼亞",
    "name:zea": "Armenië",
    "name:zh": "亚美尼亚",
    "name:zh_pinyin": "Yàměiníyà",
    "name:zu": "i-Armenia",
    "official_name": "Հայաստանի Հանրապետություն",
    "official_name:be": "Рэспубліка Арменія",
    "official_name:el": "Δημοκρατία της Αρμενίας",
    "official_name:eo": "Armena Respubliko",
    "official_name:fi": "Armenian tasavalta",
    "official_name:fr": "République d'Arménie",
    "official_name:id": "Republik Armenia",
    "official_name:it": "Repubblica di Armenia",
    "official_name:ku": "Komara Ermenistan",
    "official_name:lt": "Armėnijos Respublika",
    "official_name:lv": "Armēnijas Republika",
    "official_name:pl": "Republika Armenii",
    "official_name:ro": "Republica Armenia",
    "official_name:ru": "Республика Армения",
    "official_name:sv": "Republiken Armenien",
    "official_name:tl": "Republika ng Armenya",
    "official_name:vi": "Cộng hoà Armenia",
    "place": "country",
    "population": "2968586",
    "source": "CIA World Factbook (2009-07)",
    "source:sqkm": "CIA World Factbook",
    "sqkm": "29743",
    "wikidata": "Q399",
    "wikipedia": "en:Armenia"
  }
},
{
  "type": "node",
  "id": 249399300,
  "lat": 53.4250605,
  "lon": 27.6971358,
  "tags": {
    "ISO3166-1": "BY",
    "alt_name:en": "Belorussia;Byelorussia",
    "alt_name:eo": "Belorusujo;Belarusio;Belarusujo",
    "alt_name:fr": "Biélorussie",
    "alt_name:zh": "白俄罗斯/白俄羅斯",
    "alt_name:zh-Hans": "白俄罗斯",
    "alt_name:zh-Hant": "白俄羅斯",
    "capital_city": "Minsk",
    "country_code_fips": "BO",
    "country_code_iso3166_1_alpha_2": "BY",
    "geonames:id": "630336",
    "int_name": "Belaruś",
    "is_in:continent": "Europe",
    "name": "Беларусь",
    "name:ace": "Bèlarusia",
    "name:af": "Wit-Rusland",
    "name:ak": "Bɛlarus",
    "name:als": "Wiissrussland",
    "name:am": "ቤላሩስ",
    "name:an": "Belarrusia",
    "name:ang": "Belarus",
    "name:ar": "روسيا البيضاء",
    "name:arc": "ܒܠܪܘܣ",
    "name:ast": "Bielorrusia",
    "name:az": "Belarus",
    "name:bar": "Weißrussland",
    "name:bat-smg": "Baltarosėjė",
    "name:bcl": "Belarus",
    "name:be": "Беларусь",
    "name:be-tarask": "Беларусь",
    "name:bg": "Беларус",
    "name:bi": "Belarus",
    "name:bjn": "Bilarusia",
    "name:bm": "Belarusi",
    "name:bn": "বেলারুশ",
    "name:bo": "བྷེ་ལ་རསུ།",
    "name:bpy": "বেলারুস",
    "name:br": "Belarus",
    "name:bs": "Bjelorusija",
    "name:bxr": "Беларусь",
    "name:ca": "Bielorússia",
    "name:ce": "Белорусси",
    "name:ceb": "Biyelorusya",
    "name:chr": "ᏇᎳᎷᏍ",
    "name:ckb": "بیلاڕووس",
    "name:co": "Bielorussia",
    "name:crh": "Belarus",
    "name:cs": "Bělorusko",
    "name:csb": "Biôłorëskô",
    "name:cu": "Бѣла Роусь",
    "name:cv": "Беларуç",
    "name:cy": "Belarws",
    "name:da": "Hviderusland",
    "name:de": "Weißrussland",
    "name:de_CH": "Weissrussland",
    "name:diq": "Belarus",
    "name:dsb": "Běłoruska",
    "name:dv": "ބެލަރޫސް",
    "name:dz": "བེ་ལ་རུ་སུ།",
    "name:ee": "Belarus",
    "name:el": "Λευκορωσία",
    "name:en": "Belarus",
    "name:eo": "Belorusujo",
    "name:es": "Bielorrusia",
    "name:et": "Valgevene",
    "name:eu": "Bielorrusia",
    "name:ext": "Bielorrússia",
    "name:fa": "بلاروس",
    "name:ff": "Belaruusiya",
    "name:fi": "Valko-Venäjä",
    "name:fiu-vro": "Valgõvinne",
    "name:fo": "Hvítarussland",
    "name:fr": "Biélorussie",
    "name:frp": "Bièlorussie",
    "name:frr": "Witjruslun",
    "name:fur": "Bielorussie",
    "name:fy": "Wyt-Ruslân",
    "name:ga": "An Bhealarúis",
    "name:gag": "Biyaz Rusiya",
    "name:gd": "A' Bhealaruis",
    "name:gl": "Bielorrusia",
    "name:gn": "Vielorrusia",
    "name:gu": "બેલારુસ",
    "name:gv": "Yn Velaroosh",
    "name:ha": "Belarus",
    "name:hak": "Pha̍k-ngò-lò-sṳ̂",
    "name:haw": "Belarusa",
    "name:he": "בלארוס",
    "name:hi": "बेलारूस",
    "name:hif": "Belarus",
    "name:hr": "Bjelorusija",
    "name:hsb": "Běłoruska",
    "name:ht": "Byelorisi",
    "name:hu": "Fehéroroszország",
    "name:hy": "Բելառուս",
    "name:ia": "Bielorussia",
    "name:id": "Belarus",
    "name:ie": "Bielorussia",
    "name:ilo": "Belarus",
    "name:io": "Bielorusia",
    "name:is": "Hvíta-Rússland",
    "name:it": "Bielorussia",
    "name:ja": "ベラルーシ",
    "name:jbo": "belrus",
    "name:jv": "Bélarus",
    "name:ka": "ბელარუსი",
    "name:kaa": "Belorussiya",
    "name:kab": "Bilarus",
    "name:kbd": "Урысыху",
    "name:kg": "Belarusia",
    "name:ki": "Belarusi",
    "name:kk": "Беларусь",
    "name:kl": "Hvideruslandi",
    "name:km": "បេឡារុស្ស",
    "name:kn": "ಬೆಲಾರುಸ್",
    "name:ko": "벨라루스",
    "name:koi": "Беларусь",
    "name:krc": "Белоруссия",
    "name:ks": "بیلاروٗس",
    "name:ksh": "Wießrußland",
    "name:ku": "Belarûs",
    "name:kv": "Беларусь",
    "name:kw": "Belarussi",
    "name:ky": "Беларусия",
    "name:la": "Ruthenia Alba",
    "name:lad": "Bielorusia",
    "name:lb": "Wäissrussland",
    "name:lez": "Беларусия",
    "name:lfn": "Bielarus",
    "name:lg": "Belarusi",
    "name:li": "Wit-Rusland",
    "name:lij": "Bieloruscia",
    "name:lmo": "Bielurüssia",
    "name:ln": "Bielorusia",
    "name:lo": "ເບນລາຮັສ",
    "name:lt": "Baltarusija",
    "name:ltg": "Boltkrīveja",
    "name:lv": "Baltkrievija",
    "name:lzh": "白羅斯",
    "name:mdf": "Беларузмастор",
    "name:mg": "Belarosy",
    "name:mhr": "Белоруссий",
    "name:mi": "Pērara",
    "name:mk": "Белорусија",
    "name:ml": "ബെലാറുസ്",
    "name:mn": "Беларусь",
    "name:mr": "बेलारूस",
    "name:ms": "Belarus",
    "name:mt": "Belarus",
    "name:my": "ဘီလာရုဇ်နိုင်ငံ",
    "name:na": "Berarut",
    "name:nah": "Belarus",
    "name:nan": "Belarus",
    "name:nap": "Bielorussia",
    "name:nds": "Wittrussland",
    "name:nds-nl": "Wit-Ruslaand",
    "name:ne": "बेलारुस",
    "name:new": "बेलारुस",
    "name:nl": "Wit-Rusland",
    "name:nn": "Kviterussland",
    "name:no": "Hviterussland",
    "name:nov": "Belarus",
    "name:oc": "Bielorussia",
    "name:or": "ବେଲାଋଷ",
    "name:os": "Белорусси",
    "name:pam": "Bielorusya",
    "name:pap": "Belarus",
    "name:pcd": "Biélorussie",
    "name:pih": "Belerus",
    "name:pl": "Białoruś",
    "name:pms": "Bielorussia",
    "name:pnb": "بیلارس",
    "name:pnt": "Λευκορουσία",
    "name:ps": "بېلاروس",
    "name:pt": "Bielorrússia",
    "name:qu": "Bilarus",
    "name:rm": "Bielorussia",
    "name:rmy": "Belarus",
    "name:rn": "Belausi",
    "name:ro": "Belarus",
    "name:roa-rup": "Arusia albã",
    "name:roa-tara": "Russie Vianghe",
    "name:ru": "Беларусь",
    "name:ru_BY": "Беларусь",
    "name:rue": "Білорусія",
    "name:rw": "Belarusi",
    "name:sa": "बेलारूस",
    "name:sah": "Беларусь",
    "name:scn": "Bielurussia",
    "name:sco": "Belaroushie",
    "name:se": "Vilges-Ruošša",
    "name:sg": "Belarüsi",
    "name:sh": "Belorusija",
    "name:si": "බෙලාරස්",
    "name:sk": "Bielorusko",
    "name:sl": "Belorusija",
    "name:sn": "Belarusi",
    "name:so": "Belarus",
    "name:sq": "Bjellorusia",
    "name:sr": "Белорусија",
    "name:srn": "Belarusikondre",
    "name:ss": "IBhelalasi",
    "name:stq": "Wietruslound",
    "name:su": "Bélarus",
    "name:sv": "Vitryssland",
    "name:sw": "Belarus",
    "name:szl": "Bjołoruś",
    "name:ta": "பெலருஸ்",
    "name:te": "బెలారస్",
    "name:tg": "Беларус",
    "name:th": "ประเทศเบลารุส",
    "name:ti": "ቤላሩስ",
    "name:tk": "Belorussiýa",
    "name:tl": "Biyelorusya",
    "name:to": "Pelelusi",
    "name:tok": "ma Pelalusi",
    "name:tpi": "Belaras",
    "name:tr": "Beyaz Rusya",
    "name:ts": "Belarus",
    "name:tt": "Беларусия",
    "name:ty": "Belarus",
    "name:udm": "Белоруссия",
    "name:ug": "بېلورۇسسىيە",
    "name:uk": "Білорусь",
    "name:ur": "بیلاروس",
    "name:uz": "Belarus",
    "name:vec": "Biełorusia",
    "name:vep": "Vaugedvenäma",
    "name:vi": "Belarus",
    "name:vo": "Belarusän",
    "name:war": "Belarus",
    "name:wo": "Belaarus",
    "name:wuu": "白俄罗斯",
    "name:xal": "Цаһанорсин Орн",
    "name:xmf": "ბელარუსი",
    "name:yi": "בעלארוס",
    "name:yo": "Bẹ̀lárùs",
    "name:yue": "白羅斯",
    "name:zea": "Wit-Rusland",
    "name:zh": "白罗斯/白羅斯",
    "name:zh-Hans": "白罗斯",
    "name:zh-Hant": "白羅斯",
    "name:zh_pinyin": "Báiéluósī",
    "name:zu": "IBelarusi",
    "official_name": "Рэспубліка Беларусь",
    "official_name:ar": "جمهورية روسيا البيضاء",
    "official_name:be": "Рэспублiка Беларусь",
    "official_name:be-tarask": "Рэспубліка Беларусь",
    "official_name:br": "Republik Belarus",
    "official_name:ckb": "کۆماری بیلاڕووس",
    "official_name:cs": "Běloruská republika",
    "official_name:el": "Δημοκρατία της Λευκορωσίας",
    "official_name:en": "Republic of Belarus",
    "official_name:eo": "Respubliko Belorusujo",
    "official_name:es": "República de Belarús",
    "official_name:et": "Valgevene Vabariik",
    "official_name:fr": "La République du Bélarus",
    "official_name:id": "Republik Belarus",
    "official_name:lt": "Baltarusijos respublika",
    "official_name:lv": "Baltkrievijas Republika",
    "official_name:pl": "Republika Białorusi",
    "official_name:pt": "República da Bielorrússia",
    "official_name:ru": "Республика Беларусь",
    "official_name:sk": "Bieloruská republika",
    "official_name:sl": "Republika Belorusija",
    "official_name:sr": "Република Белорусија",
    "official_name:sv": "Republiken Vitryssland",
    "official_name:uk": "Республіка Білорусь",
    "official_name:uz": "Belarus Respublikasi",
    "official_name:vi": "Cộng hòa Belarus",
    "official_name:zh-Hans": "白罗斯共和国",
    "official_name:zh-Hant": "白羅斯共和國",
    "place": "country",
    "population": "9491823",
    "population:date": "2018-01-01",
    "source:population": "Белстат",
    "source:sqkm": "CIA World Factbook",
    "sqkm": "207600",
    "wikidata": "Q184",
    "wikipedia": "be:Беларусь",
    "wikipedia:en": "Belarus"
  }
},
{
  "type": "node",
  "id": 249399347,
  "lat": 47.1817585,
  "lon": 19.5060937,
  "tags": {
    "ISO3166-1": "HU",
    "alt_name:eo": "Hungarujo",
    "alt_name:lfn": "Ungaria",
    "alt_name:vi": "Hung-ga-ri",
    "capital_city": "Budapest",
    "country_code_fips": "HU",
    "country_code_iso3166_1_alpha_2": "HU",
    "geonames:id": "719819",
    "int_name": "Hungary",
    "is_in:continent": "Europe",
    "name": "Magyarország",
    "name:ab": "Мадиартәыла",
    "name:ace": "Hongaria",
    "name:af": "Hongarye",
    "name:ak": "Hangari",
    "name:als": "Ungarn",
    "name:am": "ሀንጋሪ",
    "name:an": "Hongría",
    "name:ang": "Ungerland",
    "name:ar": "المجر",
    "name:arc": "ܡܓܪ",
    "name:arz": "المجر",
    "name:ast": "Hungría",
    "name:ay": "Hunkariya",
    "name:az": "Macarıstan",
    "name:ba": "Венгрия",
    "name:bar": "Ungarn",
    "name:bat-smg": "Vengrėjė",
    "name:bcl": "Hungriya",
    "name:be": "Венгрыя",
    "name:be-tarask": "Вугоршчына",
    "name:bg": "Унгария",
    "name:bi": "Hungary",
    "name:bm": "Hɔngri",
    "name:bn": "হাঙ্গেরি",
    "name:bo": "ཧུང་གྷ་རི།",
    "name:bpy": "হাঙ্গেরী",
    "name:br": "Hungaria",
    "name:bs": "Mađarska",
    "name:bxr": "Унгар",
    "name:ca": "Hongria",
    "name:ce": "Венгри",
    "name:ceb": "Unggriya",
    "name:chr": "ᎲᏂᎦᎵ",
    "name:ckb": "مەجارستان",
    "name:co": "Ungheria",
    "name:crh": "Macaristan",
    "name:cs": "Maďarsko",
    "name:csb": "Madżarskô",
    "name:cu": "Ѫгри",
    "name:cv": "Венгри",
    "name:cy": "Hwngari",
    "name:da": "Ungarn",
    "name:de": "Ungarn",
    "name:diq": "Macarıstan",
    "name:dsb": "Hungorska",
    "name:dv": "ހަންގޭރީ",
    "name:dz": "ཧཱང་གྷ་རི",
    "name:ee": "Hungary",
    "name:el": "Ουγγαρία",
    "name:eml": "Ungherî",
    "name:en": "Hungary",
    "name:eo": "Hungario",
    "name:es": "Hungría",
    "name:et": "Ungari",
    "name:eu": "Hungaria",
    "name:ext": "Ungria",
    "name:fa": "مجارستان",
    "name:ff": "Hunngariya",
    "name:fi": "Unkari",
    "name:fiu-vro": "Ungari",
    "name:fo": "Ungarn",
    "name:fr": "Hongrie",
    "name:frp": "Hongrie",
    "name:frr": "Ungarn",
    "name:fur": "Ongjarie",
    "name:fy": "Hongarije",
    "name:ga": "An Ungáir",
    "name:gag": "Vengriya",
    "name:gd": "An Ungair",
    "name:gl": "Hungría",
    "name:gn": "Hungyria",
    "name:gu": "હંગેરી",
    "name:gv": "Yn Ungaar",
    "name:ha": "Hungari",
    "name:hak": "Hiûng-ngà-li",
    "name:haw": "Hunakalia",
    "name:he": "הונגריה",
    "name:hi": "हंगरी",
    "name:hif": "Hungary",
    "name:hr": "Mađarska",
    "name:hsb": "Madźarska",
    "name:ht": "Ongri",
    "name:hu": "Magyarország",
    "name:hy": "Հունգարիա",
    "name:ia": "Hungaria",
    "name:id": "Hongaria",
    "name:ie": "Hungaria",
    "name:ilo": "Hungaria",
    "name:io": "Hungaria",
    "name:is": "Ungverjaland",
    "name:it": "Ungheria",
    "name:ja": "ハンガリー",
    "name:jbo": "madjiar",
    "name:jv": "Hongaria",
    "name:ka": "უნგრეთი",
    "name:kaa": "Vengriya",
    "name:kab": "Hungri",
    "name:kbd": "Мэжарей",
    "name:kg": "Hongrie",
    "name:ki": "Macartsa",
    "name:kk": "Мажарстан",
    "name:kl": "Ungarni",
    "name:km": "ប្រទេសហុងគ្រី",
    "name:kn": "ಹಂಗೇರಿ",
    "name:ko": "헝가리",
    "name:koi": "Мадьярму",
    "name:krc": "Маджар",
    "name:ks": "ہَنٛگری",
    "name:ksh": "Unjann",
    "name:ku": "Macaristan",
    "name:kv": "Мадьяр Му",
    "name:kw": "Hungari",
    "name:ky": "Мажарстан",
    "name:la": "Hungaria",
    "name:lad": "Madjaristan",
    "name:lb": "Ungarn",
    "name:lez": "Венгрия",
    "name:lfn": "Magiar",
    "name:lg": "Hangare",
    "name:li": "Hongarieë",
    "name:lij": "Ungaja",
    "name:lmo": "Üngheria",
    "name:ln": "Ungri",
    "name:lo": "ຮັງກາຣີ",
    "name:lt": "Vengrija",
    "name:ltg": "Vengreja",
    "name:lv": "Ungārija",
    "name:lzh": "匈牙利",
    "name:mdf": "Венгеронь мастор",
    "name:mg": "Hongria",
    "name:mhr": "Венгрий",
    "name:mi": "Hanekeria",
    "name:mk": "Унгарија",
    "name:ml": "ഹംഗറി",
    "name:mn": "Унгар",
    "name:mr": "हंगेरी",
    "name:mrj": "Венгри",
    "name:ms": "Hungary",
    "name:mt": "Ungerija",
    "name:my": "ဟန်ဂေရီနိုင်ငံ",
    "name:myv": "Мадьяронь Мастор",
    "name:mzn": "مجارستون",
    "name:na": "Ungari",
    "name:nah": "Hungria",
    "name:nan": "Magyar-kok",
    "name:nap": "Ungaria",
    "name:nds": "Ungarn",
    "name:nds-nl": "Hongaarnlaand",
    "name:ne": "हंगेरी",
    "name:nl": "Hongarije",
    "name:nn": "Ungarn",
    "name:no": "Ungarn",
    "name:nov": "Hungaria",
    "name:nrm": "Hongrie",
    "name:nv": "Hángewii",
    "name:oc": "Ongria",
    "name:or": "ହଙ୍ଗେରୀ",
    "name:os": "Венгри",
    "name:pa": "ਹੰਗਰੀ",
    "name:pag": "Hungary",
    "name:pam": "Hungrya",
    "name:pap": "Hongaria",
    "name:pcd": "Hongrie",
    "name:pdc": "Ungarn",
    "name:pih": "Hungrii",
    "name:pl": "Węgry",
    "name:pms": "Ungherìa",
    "name:pnb": "ھنگری",
    "name:pnt": "Ουγγαρία",
    "name:ps": "هنګري",
    "name:pt": "Hungria",
    "name:qu": "Unriya",
    "name:rm": "Ungaria",
    "name:rmy": "Ungariya",
    "name:rn": "Hungariya",
    "name:ro": "Ungaria",
    "name:roa-rup": "Ungaria",
    "name:roa-tara": "Ungherie",
    "name:ru": "Венгрия",
    "name:rue": "Мадярьско",
    "name:rw": "Hongiriya",
    "name:sa": "हंगरी",
    "name:sah": "Венгрия",
    "name:scn": "Unghirìa",
    "name:sco": "Hungary",
    "name:se": "Ungára",
    "name:sg": "Hongirùii",
    "name:sh": "Mađarska",
    "name:si": "හන්ගේරියානු සමුහාණ්ඩුව",
    "name:sk": "Maďarsko",
    "name:sl": "Madžarska",
    "name:sm": "Hungary",
    "name:sn": "Hungary",
    "name:so": "Hungaria",
    "name:sq": "Hungaria",
    "name:sr": "Мађарска",
    "name:ss": "IHangareyi",
    "name:st": "Hungary",
    "name:stq": "Ungarn",
    "name:su": "Hungaria",
    "name:sv": "Ungern",
    "name:sw": "Hungaria",
    "name:szl": "Madźary",
    "name:ta": "அங்கேரி",
    "name:te": "హంగేరి",
    "name:tet": "Ungria",
    "name:tg": "Маҷористон",
    "name:th": "ประเทศฮังการี",
    "name:ti": "ሀንጋሪ",
    "name:tk": "Wengriýa",
    "name:tl": "Unggarya",
    "name:to": "Hangakalia",
    "name:tok": "ma Mosijo",
    "name:tpi": "Hangari",
    "name:tr": "Macaristan",
    "name:ts": "Hungary",
    "name:tt": "Маҗарстан",
    "name:tzl": "Máxharphäts",
    "name:udm": "Венгрия",
    "name:ug": "ۋېنگرىيە",
    "name:uk": "Угорщина",
    "name:ur": "مجارستان",
    "name:uz": "Mojariston",
    "name:vec": "Ongarìa",
    "name:vep": "Mad'jaranma",
    "name:vi": "Hungary",
    "name:vls": "Hongareye",
    "name:vo": "Macarän",
    "name:war": "Hungarya",
    "name:wo": "Ongiri",
    "name:wuu": "匈牙利",
    "name:xal": "Хунһармудин Орн",
    "name:xmf": "უნგრეთი",
    "name:yi": "אונגארן",
    "name:yo": "Húngárì",
    "name:yue": "匈牙利",
    "name:zea": "Honharije",
    "name:zh": "匈牙利",
    "name:zh_pinyin": "Xiōngyálì",
    "name:zu": "i-Hungary",
    "official_name": "Magyar Köztársaság",
    "official_name:be": "Венгерская Рэспубліка",
    "official_name:el": "Δημοκρατία της Ουγγαρίας",
    "official_name:en": "Republic of Hungary",
    "official_name:es": "República de Hungría",
    "official_name:et": "Ungari Vabariik",
    "official_name:fr": "République de Hongrie",
    "official_name:id": "Republik Hongaria",
    "official_name:it": "Repubblica d'Ungheria",
    "official_name:ja": "ハンガリー共和国",
    "official_name:ku": "Komara Macaristanê",
    "official_name:lb": "Republik Ungarn",
    "official_name:lt": "Vengrijos Respublika",
    "official_name:lv": "Ungārijas Republika",
    "official_name:pl": "Republika Węgier",
    "official_name:ru": "Венге́рская Респу́блика",
    "official_name:sk": "Maďarská republika",
    "official_name:sr": "Република Мађарска",
    "official_name:sv": "Republiken Ungern",
    "official_name:vi": "Cộng Hòa Hungary",
    "old_name:vi": "Hung Gia Lợi",
    "place": "country",
    "population": "9930915",
    "source:sqkm": "CIA World Factbook",
    "sqkm": "93028",
    "wikidata": "Q28",
    "wikipedia": "hu:Magyarország"
  }
},
{
  "type": "node",
  "id": 369137525,
  "lat": 44.1534121,
  "lon": 20.5514400,
  "tags": {
    "ISO3166-1": "RS",
    "ISO3166-1:alpha2": "RS",
    "ISO3166-1:alpha3": "SRB",
    "ISO3166-1:numeric": "688",
    "alt_name:eo": "Serbujo",
    "country_code_fips": "RI",
    "country_code_iso3166_1_alpha_2": "RS",
    "is_in:continent": "Europe",
    "name": "Србија",
    "name:af": "Serwië",
    "name:am": "ሰርብያ",
    "name:ar": "صربيا",
    "name:ast": "Serbia",
    "name:az": "Serbiya",
    "name:be": "Сербія",
    "name:bg": "Сърбия",
    "name:bn": "সারবিয়া",
    "name:bo": "སེར་བི་ཡ།",
    "name:br": "Serbia",
    "name:bs": "Srbija",
    "name:ca": "Sèrbia",
    "name:chr": "ᏒᏈᏯ",
    "name:cs": "Srbsko",
    "name:cy": "Serbia",
    "name:da": "Serbien",
    "name:de": "Serbien",
    "name:dz": "སཱར་བྷི་ཡ",
    "name:ee": "Serbia nutome",
    "name:el": "Σερβία",
    "name:en": "Serbia",
    "name:eo": "Serbio",
    "name:es": "Serbia",
    "name:et": "Serbia",
    "name:eu": "Serbia",
    "name:fa": "صربستان",
    "name:fi": "Serbia",
    "name:fo": "Serbia",
    "name:fr": "Serbie",
    "name:fur": "Serbie",
    "name:fy": "Servje",
    "name:ga": "An tSeirbia",
    "name:gd": "An t-Sèarb",
    "name:gl": "Serbia",
    "name:gu": "સર્બિયા",
    "name:gv": "Yn Serb",
    "name:haw": "Seripia",
    "name:he": "סרביה",
    "name:hi": "सर्बिया",
    "name:hr": "Srbija",
    "name:hsb": "Serbiska",
    "name:hu": "Szerbia",
    "name:ia": "Serbia",
    "name:id": "Serbia",
    "name:io": "Serbia",
    "name:is": "Serbía",
    "name:it": "Serbia",
    "name:ja": "セルビア",
    "name:jbo": "serbias",
    "name:ka": "სერბია",
    "name:kl": "Serbia",
    "name:km": "សើប",
    "name:kn": "ಸೆರ್ಬಿಯಾ",
    "name:ko": "세르비아",
    "name:ks": "سَربِیا",
    "name:ksh": "Särbije",
    "name:ku": "Serbistan",
    "name:la": "Serbia",
    "name:lb": "Serbien",
    "name:lfn": "Serbia",
    "name:li": "Servië",
    "name:lo": "ເຊີເບຍ",
    "name:lt": "Serbija",
    "name:lv": "Serbija",
    "name:ml": "സെർബിയ",
    "name:mn": "Серби",
    "name:mr": "सर्बिया",
    "name:ms": "Serbia",
    "name:my": "ဆားဘီးယား",
    "name:nb": "Serbia",
    "name:nds": "Serbien",
    "name:ne": "सर्बिया",
    "name:nl": "Servië",
    "name:nn": "Serbia",
    "name:no": "Serbia",
    "name:or": "ସର୍ବିଆ",
    "name:pl": "Serbia",
    "name:pt": "Sérvia",
    "name:rm": "Serbia",
    "name:ro": "Serbia",
    "name:ru": "Сербия",
    "name:se": "Serbia",
    "name:si": "සර්බියාව",
    "name:sk": "Srbsko",
    "name:sl": "Srbija",
    "name:sq": "Serbia",
    "name:sr": "Србија",
    "name:sr-Latn": "Srbija",
    "name:sv": "Serbien",
    "name:sw": "Serbia",
    "name:ta": "செர்பியா",
    "name:te": "సెర్బియా",
    "name:tg": "Сербия",
    "name:th": "ประเทศเซอร์เบีย",
    "name:tl": "Serbya",
    "name:to": "Sēpia",
    "name:tok": "ma Sopisi",
    "name:tr": "Sırbistan",
    "name:tt": "Сербия",
    "name:tzl": "Siarvia",
    "name:uk": "Сербія",
    "name:ur": "سربیا",
    "name:uz": "Serbiya",
    "name:vi": "Serbia",
    "name:vo": "Särbän",
    "name:zh": "塞尔维亚",
    "name:zh_pinyin": "Sāiěrwéiyà",
    "name:zu": "i-Serbia",
    "official_name": "Република Србија",
    "official_name:be": "Рэспубліка Сербія",
    "official_name:br": "Republik Serbia",
    "official_name:bs": "Republika Srbija",
    "official_name:de": "Republik Serbien",
    "official_name:el": "Δημοκρατία της Σερβίας",
    "official_name:en": "Republic of Serbia",
    "official_name:eo": "Respubliko Serbio",
    "official_name:et": "Serbia Vabariik",
    "official_name:fr": "République de Serbie",
    "official_name:hr": "Republika Srbija",
    "official_name:hu": "Szerbia Köztársaság",
    "official_name:id": "Republik Serbia",
    "official_name:ku": "Komara Serbistanê",
    "official_name:lt": "Serbijos Respublika",
    "official_name:pt": "República da Sérvia",
    "official_name:ro": "Republica Serbia",
    "official_name:ru": "Республика Сербия",
    "official_name:sk": "Srbská republika",
    "official_name:sq": "Republika e Serbisë",
    "official_name:sr": "Република Србија",
    "official_name:sr-Latn": "Republika Srbija",
    "official_name:sv": "Republiken Serbien",
    "official_name:tl": "Republika ng Serbya",
    "official_name:vi": "Cộng Hòa Serbia",
    "place": "country",
    "population": "10159046",
    "source:sqkm": "CIA World Factbook",
    "sqkm": "77474",
    "timezone": "Europe/Belgrade",
    "wikidata": "Q403",
    "wikipedia": "sr:Србија"
  }
},
{
  "type": "node",
  "id": 424297773,
  "lat": 55.3500003,
  "lon": 23.7499997,
  "tags": {
    "ISO3166-1": "LT",
    "ISO3166-1:alpha2": "LT",
    "ISO3166-1:alpha3": "LTU",
    "ISO3166-1:numeric": "440",
    "alt_name:eo": "Litovujo",
    "capital_city": "Vilnius",
    "country_code_fips": "LH",
    "country_code_iso3166_1_alpha_2": "LT",
    "geonames:id": "597427",
    "int_name": "Lithuania",
    "is_in:continent": "Europe",
    "name": "Lietuva",
    "name:ab": "Литва",
    "name:ace": "Lithuania",
    "name:af": "Litaue",
    "name:ak": "Lituwenia",
    "name:als": "Litauen",
    "name:am": "ሊቱዌኒያ",
    "name:an": "Lituania",
    "name:ang": "Liþþuania",
    "name:ar": "ليتوانيا",
    "name:arc": "ܠܬܘܢܝܐ",
    "name:arz": "ليتوانيا",
    "name:ast": "Lituania",
    "name:ay": "Lituaña",
    "name:az": "Litva",
    "name:ba": "Литва",
    "name:bar": "Litaun",
    "name:bat-smg": "Lietova",
    "name:bcl": "Lituanya",
    "name:be": "Літва",
    "name:be-tarask": "Летува",
    "name:bg": "Литва",
    "name:bi": "Litwania",
    "name:bm": "Lituyani",
    "name:bn": "লিত্ভা",
    "name:bo": "ལི་ཐུ་ཨེ་ནི་ཡ།",
    "name:bpy": "লিথুয়ানিয়া",
    "name:br": "Lituania",
    "name:bs": "Litvanija",
    "name:bxr": "Литва",
    "name:ca": "Lituània",
    "name:ce": "Литва",
    "name:ceb": "Litwanya",
    "name:ch": "Lituania",
    "name:chr": "ᎵᏗᏪᏂᎠ",
    "name:ckb": "لیتوانیا",
    "name:co": "Lituania",
    "name:crh": "Litvaniya",
    "name:cs": "Litva",
    "name:csb": "Lëtewskô",
    "name:cu": "Литъва",
    "name:cv": "Литва",
    "name:cy": "Lithwania",
    "name:da": "Litauen",
    "name:de": "Litauen",
    "name:diq": "Litwanya",
    "name:dsb": "Litawska",
    "name:dv": "ލިތުއޭނިއާ",
    "name:dz": "ལི་ཐུ་ཝེ་ནི་ཡ",
    "name:ee": "Lituania nutome",
    "name:el": "Λιθουανία",
    "name:eml": "Lituàgna",
    "name:en": "Lithuania",
    "name:eo": "Litovio",
    "name:es": "Lituania",
    "name:et": "Leedu",
    "name:eu": "Lituania",
    "name:ext": "Lituánia",
    "name:fa": "لیتوانی",
    "name:ff": "Lituaanii",
    "name:fi": "Liettua",
    "name:fiu-vro": "Leedu",
    "name:fj": "Lituani",
    "name:fo": "Litava",
    "name:fr": "Lituanie",
    "name:frp": "Lituanie",
    "name:frr": "Litauen",
    "name:fur": "Lituanie",
    "name:fy": "Litouwen",
    "name:ga": "An Liotuáin",
    "name:gag": "Litvaniya",
    "name:gd": "Liotuàinia",
    "name:gl": "Lituania",
    "name:gn": "Lituaña",
    "name:gu": "લિથુઆનિયા",
    "name:gv": "Yn Litaan",
    "name:ha": "Lituweniya",
    "name:hak": "Li̍p-thâu-vón",
    "name:haw": "Lituania",
    "name:he": "לטביה",
    "name:hi": "लिथुआनिया",
    "name:hif": "Lithuania",
    "name:hr": "Litva",
    "name:hsb": "Litawska",
    "name:ht": "Lityani",
    "name:hu": "Litvánia",
    "name:hy": "Լիտվա",
    "name:ia": "Lituania",
    "name:id": "Lituania",
    "name:ie": "Lituania",
    "name:ilo": "Lituania",
    "name:io": "Lituania",
    "name:is": "Litháen",
    "name:it": "Lituania",
    "name:iu": "ᓕᐋᑐᕙ",
    "name:ja": "リトアニア",
    "name:jbo": "lietuvas",
    "name:jv": "Lituania",
    "name:ka": "ლიტვა",
    "name:kaa": "Litva",
    "name:kab": "Liṭwanya",
    "name:kbd": "Литоу",
    "name:kg": "Lietuva",
    "name:ki": "Litwania",
    "name:kk": "Литва",
    "name:kl": "Litaueni",
    "name:km": "លីទុយអានី",
    "name:kn": "ಲಿಥುವೇನಿಯಾ",
    "name:ko": "리투아니아",
    "name:koi": "Летува",
    "name:krc": "Литва",
    "name:ks": "لِتھُوانِیا",
    "name:ksh": "Littaue",
    "name:ku": "Lîtvanya",
    "name:kv": "Литва",
    "name:kw": "Lithouani",
    "name:ky": "Литва",
    "name:la": "Lituania",
    "name:lad": "Lituania",
    "name:lb": "Litauen",
    "name:lez": "Литва",
    "name:lfn": "Lietuva",
    "name:lg": "Lisuwenya",
    "name:li": "Litauwe",
    "name:lij": "Lituannia",
    "name:liv": "Leišmō",
    "name:lmo": "Lituania",
    "name:ln": "Litwani",
    "name:lo": "ລິເທີເນຍ",
    "name:lt": "Lietuva",
    "name:ltg": "Lītova",
    "name:lv": "Lietuva",
    "name:mdf": "Литва",
    "name:mg": "Litoania",
    "name:mhr": "Литва",
    "name:mi": "Rituānia",
    "name:mk": "Литванија",
    "name:ml": "ലിത്വാനിയ",
    "name:mn": "Литва",
    "name:mr": "लिथुआनिया",
    "name:mrj": "Литва",
    "name:ms": "Lithuania",
    "name:mt": "Litwanja",
    "name:my": "လစ်သူယေးနီးယား",
    "name:na": "Rituainiya",
    "name:nah": "Lituania",
    "name:nan": "Lietuva",
    "name:nap": "Lituania",
    "name:nds": "Litauen",
    "name:nds-nl": "Litouwen",
    "name:ne": "लिथुअनिया",
    "name:new": "लिथुआनिया",
    "name:nl": "Litouwen",
    "name:nn": "Litauen",
    "name:no": "Litauen",
    "name:nov": "Lituania",
    "name:nrm": "Lithuanie",
    "name:nv": "Łitʼoowę́ęya",
    "name:ny": "Lithuania",
    "name:oc": "Lituània",
    "name:or": "ଲିଥାଆନିଆ",
    "name:os": "Литва",
    "name:pam": "Lituania",
    "name:pcd": "Lituanie",
    "name:pdc": "Litaun",
    "name:pih": "Lithyuanya",
    "name:pl": "Litwa",
    "name:pms": "Lituania",
    "name:pnb": "لیتھوینیا",
    "name:pnt": "Λιθουανία",
    "name:ps": "لېتوانيا",
    "name:pt": "Lituânia",
    "name:qu": "Lituwa",
    "name:rm": "Lituania",
    "name:rmy": "Lituaniya",
    "name:rn": "Lituwaniya",
    "name:ro": "Lituania",
    "name:roa-tara": "Lituanie",
    "name:ru": "Литва",
    "name:rue": "Літва",
    "name:rw": "Lituwaniya",
    "name:sa": "लेतुवा",
    "name:sah": "Литва",
    "name:sc": "Lituània",
    "name:scn": "Lituania",
    "name:sco": "Lithuanie",
    "name:se": "Lietuva",
    "name:sg": "Lituanïi",
    "name:sh": "Litvanija",
    "name:si": "ලිතුවේනියාව",
    "name:sk": "Litva",
    "name:sl": "Litva",
    "name:sn": "Lithuania",
    "name:so": "Lituweeniya",
    "name:sq": "Lituani",
    "name:sr": "Литванија",
    "name:srn": "Lituwaniyakondre",
    "name:ss": "Lithuwani",
    "name:st": "Lituania",
    "name:stq": "Litauen",
    "name:su": "Lituania",
    "name:sv": "Litauen",
    "name:sw": "Litwania",
    "name:szl": "Litwa",
    "name:ta": "லிதுவேனியா",
    "name:te": "లిథుయేనియా",
    "name:tet": "Lituánia",
    "name:tg": "Литва",
    "name:th": "ประเทศลิทัวเนีย",
    "name:ti": "ሊቱዌኒያ",
    "name:tk": "Litwa",
    "name:tl": "Litwaniya",
    "name:to": "Lifiuenia",
    "name:tok": "ma Lijatuwa",
    "name:tpi": "Lituwenia",
    "name:tr": "Litvanya",
    "name:ts": "Lithuania",
    "name:tt": "Литва",
    "name:tum": "Lithuania",
    "name:tzl": "Liþognh",
    "name:udm": "Литва",
    "name:ug": "لىتۋا",
    "name:uk": "Литва",
    "name:ur": "لتھوانیا",
    "name:uz": "Litva",
    "name:ve": "Lituania",
    "name:vec": "Łituania",
    "name:vep": "Litvanma",
    "name:vi": "Litva",
    "name:vls": "Litouwn",
    "name:vo": "Lietuvän",
    "name:wa": "Litwaneye",
    "name:war": "Lituania",
    "name:wo": "Lituwaani",
    "name:wuu": "立陶宛",
    "name:xal": "Литдин Орн",
    "name:xmf": "ლიტვა",
    "name:yi": "ליטע",
    "name:yo": "Orílẹ́ède Lituania",
    "name:yue": "立陶宛",
    "name:zea": "Litouwen",
    "name:zh": "立陶宛",
    "name:zh_pinyin": "Lìtáowǎn",
    "name:zu": "i-Lithuania",
    "official_name": "Lietuvos Respublika",
    "official_name:az": "Litva Respublikası",
    "official_name:be": "Літоўская Рэспубліка",
    "official_name:be-tarask": "Летувіская Рэспубліка",
    "official_name:el": "Δημοκρατία της Λιθουανίας",
    "official_name:en": "Republic of Lithuania",
    "official_name:eo": "Litova Respubliko",
    "official_name:es": "República de Lituania",
    "official_name:et": "Leedu Vabariik",
    "official_name:fr": "République de Lituanie",
    "official_name:id": "Republik Lituania",
    "official_name:it": "Repubblica di Lituania",
    "official_name:ku": "Komara Lîtvanya",
    "official_name:lt": "Lietuvos Respublika",
    "official_name:lv": "Lietuvas Republika",
    "official_name:pl": "Republika Litewska",
    "official_name:sk": "Litovská republika",
    "official_name:sv": "Republiken Litauen",
    "official_name:vi": "Cộng hòa Litva",
    "place": "country",
    "population": "3565205",
    "source:sqkm": "CIA World Factbook",
    "sqkm": "65300",
    "wikidata": "Q37",
    "wikipedia": "lt:Lietuva"
  }
},
{
  "type": "node",
  "id": 424297810,
  "lat": 41.6171214,
  "lon": 21.7168387,
  "tags": {
    "ISO3166-1": "MK",
    "alt_name:ar": "مقدونيا الشمالية",
    "alt_name:br": "Ez-Republik Yougoslaviat Makedonia",
    "alt_name:eo": "Makedonujo",
    "alt_name:pt": "Antiga República Jugoslava da Macedónia",
    "alt_name:vi": "Macedonia;Bắc Ma-xê-đô-ni-a;Ma-xê-đô-ni-a;Bắc Mác-kê-đôn-ni-a;Mác-kê-đôn-ni-a",
    "capital_city": "Скопје",
    "country_code_fips": "MK",
    "country_code_iso3166_1_alpha_2": "MK",
    "fixme": "name:xx-North Macedonia official_name:xx-Republic of North Macedonia old_name:xx-Macedonia old_official_name:xx-Republic of Macedonia",
    "geonames:id": "718075",
    "int_name": "North Macedonia",
    "is_in:continent": "Europe",
    "name": "Македонија",
    "name:UN:ar": "جمهورية شمال مقدونيا",
    "name:UN:el": "πρώην Γιουγκοσλαβική Δημοκρατία της Μακεδονίας",
    "name:UN:en": "Former Yugoslav Republic of Macedonia",
    "name:UN:es": "Macedonia del Norte",
    "name:UN:fr": "l'ex-République yougoslave de Macédoine",
    "name:UN:he": "הרפובליקה היוגוסלבית לשעבר של מקדוניה",
    "name:UN:hr": "Bivša Jugoslavenska Republika Makedonija",
    "name:UN:ru": "бывшая югославская Республика Македония",
    "name:UN:sk": "Bývalá Juhoslovanská Republika Macedónsko",
    "name:UN:zh": "前南斯拉夫的马其顿共和国",
    "name:ace": "Masèdonia",
    "name:af": "Masedonië",
    "name:ak": "Masedonia",
    "name:als": "Republik Mazedonien",
    "name:am": "ማሴዶንያ",
    "name:an": "Republica de Macedonia",
    "name:ang": "Macedonia Cynewīse",
    "name:ar": "شمال مقدونيا",
    "name:arc": "ܩܘܛܢܝܘܬܐ ܕܡܩܕܘܢܝܐ",
    "name:arz": "جمهورية مقدونيا",
    "name:ast": "República de Macedonia",
    "name:az": "Masedoniya",
    "name:ba": "Македония Республикаһы",
    "name:bar": "Mazedonien",
    "name:bat-smg": "Makeduonėjė",
    "name:bcl": "Republika kan Masedonya",
    "name:be": "Македонія",
    "name:be-tarask": "Рэспубліка Македонія",
    "name:bg": "Северна Македония",
    "name:bi": "Macedonia",
    "name:bm": "Macedɔni",
    "name:bn": "মেসিডোনিয়া[FYROM]",
    "name:bo": "མ་སེ་ཌོ་ནིཡ། (རྒྱལ་ཁབ།)",
    "name:br": "Makedonia",
    "name:bs": "Sjeverna Makedonija",
    "name:ca": "Macedònia del Nord",
    "name:ce": "Македони",
    "name:ceb": "Republika sa Macedonia",
    "name:chr": "ᎹᏏᏙᏂᎢᎠ",
    "name:ckb": "کۆماری مەقدوونیا",
    "name:crh": "Makedoniya Cumhuriyeti",
    "name:cs": "Severní Makedonie",
    "name:csb": "Macedońskô",
    "name:cu": "Макєдонїꙗ",
    "name:cv": "Македони Республики",
    "name:cy": "Gogledd Macedonia",
    "name:da": "Nordmakedonien",
    "name:de": "Nordmazedonien",
    "name:diq": "Cumhuriyetê Makedonya",
    "name:dsb": "Makedońska",
    "name:dv": "މެސެޑޯނިއާ",
    "name:dz": "མ་སེ་ཌོ་ནི་ཡ་ [ཡུ་གོ་སླཱ་བི་ཡ]",
    "name:ee": "Makedonia",
    "name:el": "Βόρεια Μακεδονία",
    "name:en": "North Macedonia",
    "name:eo": "Makedonio",
    "name:es": "Macedonia del Norte",
    "name:et": "Põhja-Makedoonia",
    "name:eu": "Mazedonia",
    "name:ext": "Repúbrica de Macedónia",
    "name:fa": "مقدونیه شمالی",
    "name:ff": "Meceduwaan",
    "name:fi": "Makedonia",
    "name:fiu-vro": "Makõdoonia Vabariik",
    "name:fo": "Makedónia",
    "name:fr": "Macédoine du Nord",
    "name:frp": "Rèpublica de Macèdonie",
    "name:frr": "Mazedoonien",
    "name:fur": "Macedonie",
    "name:fy": "Noard-Massedoanje",
    "name:ga": "An Mhacadóin",
    "name:gag": "Makedoniya",
    "name:gd": "Masadoinia",
    "name:gl": "Macedonia",
    "name:gn": "Masendoña",
    "name:gu": "મેસેડોનિયા",
    "name:gv": "Pobblaght ny Massadoan",
    "name:ha": "Masedoniya",
    "name:hak": "Mâ-khì-tun",
    "name:haw": "Repupalika ‘o Makekonia",
    "name:he": "מקדוניה הצפונית",
    "name:hi": "मेसीडोनिया",
    "name:hif": "Republic of Macedonia",
    "name:hr": "Sjeverna Makedonija",
    "name:hsb": "Makedonska",
    "name:ht": "Repiblik d Masedoni",
    "name:hu": "Észak-Macedónia",
    "name:hy": "Մակեդոնիա",
    "name:ia": "Macedonia",
    "name:id": "Republik Makedonia",
    "name:ie": "Macedonia",
    "name:ilo": "Macedonia",
    "name:io": "Republiko Macedonia",
    "name:is": "Makedónía",
    "name:it": "Macedonia",
    "name:ja": "北マケドニア",
    "name:jbo": "makedonias",
    "name:jv": "Républik Makedonia",
    "name:ka": "მაკედონია",
    "name:kaa": "Makedoniya",
    "name:kab": "Masidwan",
    "name:kbd": "Республикэ Македониэ",
    "name:kg": "Makedonia",
    "name:ki": "Masedonia",
    "name:kk": "Македония Республикасы",
    "name:kl": "Makedonia",
    "name:km": "ម៉ាសេដ្វាន",
    "name:kn": "ಮ್ಯಾಸಿಡೋನಿಯ",
    "name:ko": "마케도니아",
    "name:koi": "Республика Македония",
    "name:krc": "Македония",
    "name:ks": "مٮ۪سوڑونِیا",
    "name:ksh": "de vörmaals ens jugoßlaawesch jewääse Republik Mazedoonije",
    "name:ku": "Makedonya",
    "name:kv": "Македония Республика",
    "name:kw": "Repoblek Makedoni",
    "name:la": "Respublica Macedonica",
    "name:lad": "Makedonia",
    "name:lb": "Makedonien",
    "name:lfn": "Macedonia",
    "name:lg": "Masedoniya",
    "name:li": "Macedonië",
    "name:lij": "Maçedònia",
    "name:lmo": "Macedonia",
    "name:ln": "Masedoni",
    "name:lo": "ມາຊີໂດເນຍ",
    "name:lt": "Makedonija",
    "name:ltg": "Makedonejis Republika",
    "name:lv": "Maķedonija",
    "name:mdf": "Македоние",
    "name:mg": "Makedonia",
    "name:mhr": "Македоний",
    "name:mi": "Makerōnia",
    "name:mk": "Северна Македонија",
    "name:ml": "മക്കഡോണിയ [FYROM]",
    "name:mn": "Македон",
    "name:mr": "मॅसेडोनिया[फायरोम]",
    "name:ms": "Macedonia [FYROM]",
    "name:mt": "Maċedonja",
    "name:my": "မာစီဒိုးနီးယား",
    "name:na": "Matedoniya",
    "name:nah": "Tlācatlahtohcāyōtl Macedonia",
    "name:nan": "Makedonija Kiōng-hô-kok",
    "name:nds": "Republiek Makedonien",
    "name:nds-nl": "Massedonië",
    "name:ne": "म्याकेडोनिया [फाइरम]",
    "name:nl": "Noord-Macedonië",
    "name:nn": "Nord-Makedonia",
    "name:no": "Nord-Makedonia",
    "name:oc": "Republica de Macedònia",
    "name:or": "ମାସେଡୋନିଆ",
    "name:os": "Республикæ Македони",
    "name:pa": "ਮਕਦੂਨੀਆ ਗਣਰਾਜ",
    "name:pam": "Republika ning Makedonia",
    "name:pap": "Macedonia",
    "name:pcd": "Machédoène",
    "name:pih": "Repablik o' Masedoenya",
    "name:pl": "Macedonia",
    "name:pms": "Macedònia",
    "name:ps": "د مقدونيې ولسمشريزه",
    "name:pt": "Macedônia do Norte",
    "name:qu": "Makidunya",
    "name:rm": "Macedonia",
    "name:rmy": "Republika Makedoniya",
    "name:rn": "Masedoniya",
    "name:ro": "Macedonia",
    "name:roa-rup": "Republica Machedonia",
    "name:roa-tara": "Repubbleche de Macidonie",
    "name:ru": "Македония",
    "name:rw": "Masedoniya",
    "name:sa": "मेसेडोनिया",
    "name:sah": "Македония Республиката",
    "name:sc": "Matzedònia",
    "name:scn": "Ripùbblica di Macidonia",
    "name:sco": "Republic o Macedonie",
    "name:se": "Davvi-Makedonia",
    "name:sg": "Maseduäni",
    "name:sh": "Republika Makedonija",
    "name:si": "මැසිඩෝනියාන [FYROM]",
    "name:sk": "Severné Macedónsko",
    "name:sl": "Makedonija",
    "name:sn": "Macedonia",
    "name:so": "Makadooniya",
    "name:sq": "Maqedonia Veriore",
    "name:sr": "Северна Македонија",
    "name:sr-Latn": "Severna Makedonija",
    "name:ss": "IMakhedoniya",
    "name:stq": "Makedonien",
    "name:su": "Makédonia",
    "name:sv": "Makedonien",
    "name:sw": "Masedonia [FYROM]",
    "name:szl": "Macedůńijo",
    "name:ta": "மாசிடோனியா [ஃபைரோம்]",
    "name:te": "మేసెడోనియా[ఫైరోమ్]",
    "name:tg": "Македония",
    "name:th": "ประเทศมาซิโดเนีย",
    "name:ti": "ማከዶኒያ",
    "name:tk": "Makedoniýa Respublikasy",
    "name:tl": "Masedonya",
    "name:to": "Masitōnia [FYROM]",
    "name:tok": "ma Maketonija",
    "name:tr": "Kuzey Makedonya",
    "name:tt": "Македония Җөмһүрияте",
    "name:udm": "Македония Республика",
    "name:ug": "ماكېدونىيە",
    "name:uk": "Північна Македонія",
    "name:ur": "شمالی مقدونیہ",
    "name:uz": "Makedoniya Respublikasi",
    "name:vec": "Republica de Macedonia",
    "name:vep": "Makedonii",
    "name:vi": "Bắc Macedonia",
    "name:vls": "Macedonië",
    "name:vo": "Makedoniyän",
    "name:war": "Republika han Macedonia",
    "name:wo": "Réewum Maseduwaan",
    "name:wuu": "马其顿",
    "name:xal": "Масидин Орн",
    "name:xmf": "მაკედონია",
    "name:yi": "רעפובליק פון מאקעדאניע",
    "name:yo": "Orílẹ́ède Masidonia",
    "name:yue": "馬其頓共和國",
    "name:zea": "Macedonië",
    "name:zh": "马其顿",
    "name:zh_pinyin": "Mǎqídùn",
    "name:zu": "isi-Macedonia [FYROM]",
    "official_name": "Република Северна Македонија",
    "official_name:af": "Republiek van Masedonië",
    "official_name:ar": "جمهورية شمال مقدونيا",
    "official_name:be": "Рэспубліка Македонія",
    "official_name:bg": "Република Северна Македония",
    "official_name:br": "Republik Makedonia",
    "official_name:bs": "Republika Sjeverna Makedonija",
    "official_name:ca": "Exrepública Iugoslava de Macedònia",
    "official_name:cs": "Republika Severní Makedonie",
    "official_name:cy": "Gweriniaeth Gogledd Macedonia",
    "official_name:de": "Ehemalige jugoslawische Republik Mazedonien",
    "official_name:el": "Δημοκρατία της Βόρειας Μακεδονίας",
    "official_name:en": "Republic of North Macedonia",
    "official_name:eo": "Respubliko Makedonio",
    "official_name:es": "Macedonia del Norte",
    "official_name:et": "Makedoonia Vabariik",
    "official_name:fa": "جمهوری مقدونیه شمالی",
    "official_name:fr": "République de Macédoine du Nord",
    "official_name:he": "רפובליקת מקדוניה הצפונית",
    "official_name:hr": "Republika Sjeverna Makedonija",
    "official_name:it": "Repubblica di Macedonia",
    "official_name:ku": "Komara Makedonyayê",
    "official_name:lv": "Maķedonijas Republika",
    "official_name:mk": "Република Северна Македонија",
    "official_name:nn": "Republikken Nord-Makedonia",
    "official_name:no": "Republikken Nord-Makedonia",
    "official_name:pl": "Republika Macedonii",
    "official_name:pt": "República da Macedônia do Nort",
    "official_name:ro": "Republica Macedonia",
    "official_name:se": "Dásseváldi Davvi-Makedonia",
    "official_name:sk": "Republika Severné Macedónsko",
    "official_name:sl": "Republika Makedonija",
    "official_name:sq": "Republika e Maqedonisë Veriore",
    "official_name:sr": "Република Северна Македонија",
    "official_name:sr-Latn": "Republika Severna Makedonija",
    "official_name:sv": "Republiken Makedonien",
    "official_name:tl": "Republika ng Masedonya",
    "official_name:tr": "Kuzey Makedonya Cumhuriyeti",
    "official_name:uk": "Республіка Македонія",
    "official_name:ur": "جمہوریہ شمالی مقدونیہ",
    "official_name:vi": "Cộng hòa Bắc Macedonia",
    "old_name": "Македонија",
    "old_name:ar": "مقدونيا",
    "old_name:bg": "Македония",
    "old_name:bs": "Makedonija",
    "old_name:cs": "Makedonie",
    "old_name:cy": "Macedonia",
    "old_name:de": "Mazedonien",
    "old_name:el": "Πρώην Γιουγκοσλαβική Δημοκρατία της Μακεδονίας",
    "old_name:en": "Macedonia",
    "old_name:fa": "مقدونیه",
    "old_name:fr": "Macédoine",
    "old_name:fy": "Masedoanje",
    "old_name:he": "מקדוניה",
    "old_name:hr": "Makedonija",
    "old_name:ja": "マケドニア",
    "old_name:mk": "Македонија",
    "old_name:nl": "Macedonië",
    "old_name:nn": "Makedonia",
    "old_name:no": "Makedonia",
    "old_name:pt": "Macedônia",
    "old_name:se": "Makedonia",
    "old_name:sk": "Macedónsko",
    "old_name:sq": "Maqedoni",
    "old_name:sr": "Македонија",
    "old_name:sr-Latn": "Makedonija",
    "old_name:tr": "Makedonya Cumhuriyeti",
    "old_name:ur": "مقدونیہ",
    "old_name:vi": "Macedonia",
    "old_official_name": "Република Македонија",
    "old_official_name:ar": "جمهورية مقدونيا",
    "old_official_name:bg": "Република Македония",
    "old_official_name:bs": "Republika Makedonija",
    "old_official_name:cs": "Makedonská republika",
    "old_official_name:cy": "Gweriniaeth Macedonia",
    "old_official_name:el": "Δημοκρατία της Μακεδονίας",
    "old_official_name:en": "Republic of Macedonia",
    "old_official_name:fa": "جمهوری مقدونیه",
    "old_official_name:fr": "République de Macédoine",
    "old_official_name:he": "רפובליקת מקדוניה",
    "old_official_name:hr": "Republika Makedonija",
    "old_official_name:mk": "Република Македонија",
    "old_official_name:pt": "República da Macedónia",
    "old_official_name:sq": "Republika e Maqedonisë",
    "old_official_name:sr": "Република Македонија",
    "old_official_name:sr-Latn": "Republika Makedonija",
    "old_official_name:tr": "Makedonya Cumhuriyeti",
    "old_official_name:ur": "جمہوریہ مقدونیہ",
    "old_official_name:vi": "Cộng hòa Macedonia",
    "old_short_name:el": "ΠΓΔΜ",
    "place": "country",
    "population": "2061315",
    "source:name": "Prespa agreement, which came into effect on 8 February 2019.",
    "source:sqkm": "CIA World Factbook",
    "sqkm": "25713",
    "wikidata": "Q221",
    "wikipedia": "mk:Македонија"
  }
},
{
  "type": "node",
  "id": 424298019,
  "lat": 49.8158683,
  "lon": 6.1296751,
  "tags": {
    "capital_city": "Luxembourg",
    "country_code_fips": "LU",
    "country_code_iso3166_1_alpha_2": "LU",
    "geonames:id": "2960313",
    "int_name": "Luxembourg",
    "is_in": "Europe",
    "is_in:continent": "Europe",
    "name": "Lëtzebuerg",
    "name:af": "Luxemburg",
    "name:ak": "Laksembɛg",
    "name:am": "ሉክሰምበርግ",
    "name:ar": "لكسمبرغ",
    "name:ast": "Luxemburgu",
    "name:az": "Lüksemburq",
    "name:ba": "Люксембург",
    "name:be": "Люксембург",
    "name:bg": "Люксенбург",
    "name:bm": "Likisanburu",
    "name:bn": "লাক্সেমবার্গ",
    "name:bo": "ལཀ་ཛམ་བོརྒ།",
    "name:br": "Luksembourg",
    "name:bs": "Luksemburg",
    "name:ca": "Luxemburg",
    "name:chr": "ᎸᎧᏎᏋᎩ",
    "name:cs": "Lucembursko",
    "name:cy": "Lwcsembwrg",
    "name:de": "Luxemburg",
    "name:dz": "ལག་ཛམ་བོརྒ",
    "name:ee": "Lazembɔg nutome",
    "name:el": "Λουξεμβούργο",
    "name:en": "Luxembourg",
    "name:eo": "Luksemburgo",
    "name:es": "Luxemburgo",
    "name:et": "Luksemburg",
    "name:eu": "Luxenburgo",
    "name:fa": "لوکزامبورگ",
    "name:ff": "Liksembuur",
    "name:fi": "Luxemburg",
    "name:fo": "Luksemborg",
    "name:fr": "Luxembourg",
    "name:fur": "Lussemburc",
    "name:fy": "Lúksemboarch",
    "name:ga": "Lucsamburg",
    "name:gd": "Lucsamburg",
    "name:gl": "Luxemburgo",
    "name:gu": "લક્ઝમબર્ગ",
    "name:gv": "Lucsemburg",
    "name:ha": "Lukusambur",
    "name:haw": "Lukemapuka",
    "name:he": "לוקסמבורג",
    "name:hi": "लक्समबर्ग",
    "name:hr": "Luksemburg",
    "name:hsb": "Luxemburgska",
    "name:hu": "Luxemburg",
    "name:hy": "Լյուքսեմբուրգ",
    "name:ia": "Luxemburg",
    "name:id": "Luksemburg",
    "name:io": "Luxemburgia",
    "name:is": "Lúxemborg",
    "name:it": "Lussemburgo",
    "name:ja": "ルクセンブルク",
    "name:jbo": "letsyburg",
    "name:ka": "ლუქსემბურგი",
    "name:kab": "Luksamburg",
    "name:ki": "Lasembagi",
    "name:km": "លុចហ្សំបួរ",
    "name:kn": "ಲಕ್ಸಂಬರ್ಗ್",
    "name:ko": "룩셈부르크",
    "name:ks": "لَکسَمبٔرٕگ",
    "name:ksh": "Luxembursch",
    "name:ku": "Lûksembûrg",
    "name:la": "Luxemburgum",
    "name:lb": "Lëtzebuerg",
    "name:lfn": "Luxemburg",
    "name:lg": "Lukisembaaga",
    "name:ln": "Likisambulu",
    "name:lo": "ລຸກແຊມເບີກ",
    "name:lt": "Liuksemburgas",
    "name:lv": "Luksemburga",
    "name:mg": "Lioksamboro",
    "name:mk": "Луксембург",
    "name:ml": "ലക്സംബർഗ്",
    "name:mn": "Люксембург",
    "name:mr": "लक्झेंबर्ग",
    "name:ms": "Luksembourg",
    "name:mt": "Lussemburgu",
    "name:my": "လူဇင်ဘတ်",
    "name:nds": "Luxemborg",
    "name:ne": "लक्जेमबर्ग",
    "name:nl": "Luxemburg",
    "name:no": "Luxembourg",
    "name:or": "ଲକ୍ସେମବର୍ଗ",
    "name:pl": "Luksemburg",
    "name:pt": "Luxemburgo",
    "name:rm": "Luxemburg",
    "name:rn": "Lukusamburu",
    "name:ro": "Luxemburg",
    "name:ru": "Люксембург",
    "name:sg": "Lugzambûru",
    "name:si": "ලක්ශම්බර්ග්",
    "name:sk": "Luxembursko",
    "name:sl": "Luksemburg",
    "name:so": "Luksemboorg",
    "name:sq": "Luksemburg",
    "name:sr": "Луксембург",
    "name:sv": "Luxemburg",
    "name:sw": "Lasembagi",
    "name:ta": "லக்ஸ்சம்பர்க்",
    "name:te": "లక్సంబర్గ్",
    "name:tg": "Люксембург",
    "name:th": "ประเทศลักเซมเบิร์ก",
    "name:ti": "ሉክሰምበርግ",
    "name:to": "Lakisimipeki",
    "name:tok": "ma Lusepu",
    "name:tr": "Lüksemburg",
    "name:tt": "Люксембург",
    "name:tzl": "Letzebuerg",
    "name:uk": "Люксембург",
    "name:ur": "لگژمبرگ",
    "name:vi": "Luxembourg",
    "name:vo": "Luxämburgän",
    "name:yo": "Orílẹ́ède Lusemogi",
    "name:zh": "卢森堡",
    "name:zh_pinyin": "Lúsenbao",
    "name:zu": "i-Luxembourg",
    "official_name": "Groussherzogtum Lëtzebuerg",
    "official_name:be": "Вялікае Герцагства Люксембург",
    "official_name:br": "Dugelezh Veur Luksembourg",
    "official_name:el": "Μέγα Δουκάτο του Λουξεμβούργου",
    "official_name:eo": "Grandduklando Luksemburgo",
    "official_name:es": "Gran Ducado de Luxemburgo",
    "official_name:fr": "Grand-Duché de Luxembourg",
    "official_name:id": "Keharyapatihan Luksemburg",
    "official_name:it": "Granducato di Lussemburgo",
    "official_name:ja": "ルクセンブルク大公国",
    "official_name:lb": "Groussherzogtum Lëtzebuerg",
    "official_name:lt": "Liuksemburgo Didžioji Hercogystė",
    "official_name:lv": "Luksemburgas Lielhercogiste",
    "official_name:no": "Storhertugdømmet Luxembourg",
    "official_name:pl": "Wielkie Księstwo Luksemburga",
    "official_name:ru": "Великое Герцогство Люксембург",
    "official_name:sk": "Luxemburské veľkovojvodstvo",
    "official_name:sl": "Véliko vójvodstvo Lúksemburg",
    "official_name:sr": "Велико Војводство Луксембург",
    "official_name:sv": "Storhertigdömet Luxemburg",
    "official_name:vi": "Đại công quốc Luxembourg",
    "old_name:vi": "Lục Xâm Bảo",
    "place": "country",
    "wikidata": "Q32",
    "wikipedia": "fr:Luxembourg (pays)"
  }
},
{
  "type": "node",
  "id": 424310601,
  "lat": 41.0000280,
  "lon": 19.9999619,
  "tags": {
    "ISO3166-1": "AL",
    "ISO3166-1:alpha2": "AL",
    "ISO3166-1:alpha3": "ALB",
    "ISO3166-1:numeric": "008",
    "alt_name:eo": "Albanujo",
    "alt_name:lfn": "Albania",
    "capital_city": "Tirana",
    "country_code_fips": "AL",
    "country_code_iso3166_1_alpha_2": "AL",
    "description": "Shqipëria, zyrtarisht Republika e Shqipërisë, është shtet i pavarur në Evropën Juglindore.",
    "is_in": "Europe",
    "is_in:continent": "Europe",
    "name": "Shqipëria",
    "name:ace": "Albania",
    "name:af": "Albanië",
    "name:ak": "Albenia",
    "name:als": "Albanie",
    "name:am": "አልባኒያ",
    "name:an": "Albania",
    "name:ang": "Albania",
    "name:ar": "ألبانيا",
    "name:arc": "ܐܠܒܢܝܐ",
    "name:arz": "ألبانيا",
    "name:ast": "Albania",
    "name:az": "Albaniya",
    "name:bar": "Albanien",
    "name:bat-smg": "Albanėjė",
    "name:bcl": "Albanya",
    "name:be": "Албанія",
    "name:be-tarask": "Альбанія",
    "name:bg": "Албания",
    "name:bm": "Alibani",
    "name:bn": "আলবেনিয়া",
    "name:bo": "ཨར་པ་ཉི་ཡ།",
    "name:bpy": "আলবেনিয়া",
    "name:br": "Albania",
    "name:bs": "Albanija",
    "name:ca": "Albània",
    "name:ce": "Албани",
    "name:ceb": "Albanya",
    "name:chr": "ᎠᎸᏇᏂᏯ",
    "name:co": "Albania",
    "name:crh": "Arnavutlıq",
    "name:cs": "Albánie",
    "name:csb": "Albańskô",
    "name:cv": "Албани",
    "name:cy": "Albania",
    "name:da": "Albanien",
    "name:de": "Albanien",
    "name:diq": "Arnawutiye",
    "name:dsb": "Albańska",
    "name:dz": "ཨལ་བཱ་ནི་ཡ།",
    "name:ee": "Albania",
    "name:el": "Αλβανία",
    "name:eml": "Albanî",
    "name:en": "Albania",
    "name:eo": "Albanio",
    "name:es": "Albania",
    "name:et": "Albaania",
    "name:eu": "Albania",
    "name:ext": "Albánia",
    "name:fa": "آلبانی",
    "name:ff": "Albanii",
    "name:fi": "Albania",
    "name:fiu-vro": "Albaania",
    "name:fo": "Albania",
    "name:fr": "Albanie",
    "name:frp": "Albanie",
    "name:frr": "Albaanien",
    "name:fur": "Albanie",
    "name:fy": "Albaanje",
    "name:ga": "An Albáin",
    "name:gd": "Albàinia",
    "name:gl": "Albania",
    "name:gn": "Avaña",
    "name:gu": "અલ્બેનિયા",
    "name:gv": "Yn Albaan",
    "name:ha": "Albaniya",
    "name:haw": "‘Alepania",
    "name:he": "אלבניה",
    "name:hi": "अल्बानिया",
    "name:hif": "Albania",
    "name:hr": "Albanija",
    "name:hsb": "Albanska",
    "name:ht": "Albani",
    "name:hu": "Albánia",
    "name:hy": "Ալբանիա",
    "name:ia": "Albania",
    "name:id": "Albania",
    "name:ie": "Albania",
    "name:ilo": "Albania",
    "name:io": "Albania",
    "name:is": "Albanía",
    "name:it": "Albania",
    "name:ja": "アルバニア",
    "name:jbo": "ckipyris",
    "name:jv": "Albania",
    "name:ka": "ალბანეთი",
    "name:kab": "Lalbani",
    "name:kg": "Albania",
    "name:ki": "Albania",
    "name:kk": "Албания",
    "name:kl": "Albania",
    "name:km": "អាល់បានី",
    "name:kn": "ಅಲ್ಬೇನಿಯ",
    "name:ko": "알바니아",
    "name:ks": "اٮ۪لبانِیا",
    "name:ksh": "Albaanije",
    "name:ku": "Albanya",
    "name:kv": "Албания",
    "name:kw": "Albani",
    "name:ky": "Албания",
    "name:la": "Albania",
    "name:lad": "אלבאניה",
    "name:lb": "Albanien",
    "name:lfn": "Xciperia",
    "name:lg": "Alibaniya",
    "name:li": "Albanië",
    "name:lij": "Albania",
    "name:lmo": "Albania",
    "name:ln": "Albania",
    "name:lo": "ແອລເບເນຍ",
    "name:lt": "Albanija",
    "name:lv": "Albānija",
    "name:mg": "Albania",
    "name:mk": "Албанија",
    "name:ml": "അല്‍ബേനിയ",
    "name:mn": "Албани",
    "name:mr": "आल्बेनिया",
    "name:ms": "Albania",
    "name:mt": "Albanija",
    "name:mzn": "آلباني",
    "name:na": "Albania",
    "name:nah": "Albania",
    "name:nan": "Shqipëria",
    "name:nds": "Albanien",
    "name:ne": "अल्बानिया",
    "name:nl": "Albanië",
    "name:nn": "Albania",
    "name:no": "Albania",
    "name:nov": "Albania",
    "name:oc": "Albania",
    "name:or": "ଆଲବାନିଆ",
    "name:os": "Албани",
    "name:pam": "Albania",
    "name:pdc": "Albaani",
    "name:pih": "Elbanya",
    "name:pl": "Albania",
    "name:pms": "Albanìa",
    "name:pnb": "البانیا",
    "name:pnt": "Αλβανία",
    "name:ps": "البانيا",
    "name:pt": "Albânia",
    "name:qu": "Albanya",
    "name:rm": "Albania",
    "name:rmy": "Shkiperiya",
    "name:rn": "Alubaniya",
    "name:ro": "Albania",
    "name:roa-rup": "Arbinishia",
    "name:ru": "Албания",
    "name:sa": "अल्बानिया",
    "name:sah": "Албания",
    "name:sc": "Albania",
    "name:scn": "Albanìa",
    "name:sco": "Albanie",
    "name:se": "Albánia",
    "name:sg": "Albanïi",
    "name:sh": "Albanija",
    "name:si": "ඇල්බේනියාව",
    "name:sk": "Albánsko",
    "name:sl": "Albanija",
    "name:sn": "Albania",
    "name:so": "Albaaniya",
    "name:sq": "Shqipëria",
    "name:sr": "Албанија",
    "name:srn": "Albanikondre",
    "name:ss": "I-Alibheniya",
    "name:stq": "Albanien",
    "name:su": "Albania",
    "name:sv": "Albanien",
    "name:sw": "Albania",
    "name:szl": "Albańijo",
    "name:ta": "அல்பேனியா",
    "name:te": "అల్బేనియా",
    "name:tet": "Albánia",
    "name:tg": "Албания",
    "name:th": "ประเทศแอลเบเนีย",
    "name:ti": "አልባኒያ",
    "name:tl": "Albanya",
    "name:to": "ʻAlipania",
    "name:tok": "ma Sipe",
    "name:tpi": "Albenia",
    "name:tr": "Arnavutluk",
    "name:tt": "Албания",
    "name:tzl": "Schqiperia",
    "name:udm": "Албания",
    "name:ug": "ئالبانىيە",
    "name:uk": "Албанія",
    "name:ur": "البانیا",
    "name:uz": "Albaniya",
    "name:vec": "Albania",
    "name:vi": "Albania",
    "name:vo": "Lalbanän",
    "name:war": "Albanya",
    "name:wo": "Albaani",
    "name:wuu": "阿尔巴尼亚",
    "name:xal": "Арнаутн Орн Нутг",
    "name:yi": "אלבאניע",
    "name:yo": "Albania",
    "name:yue": "阿爾巴尼亞",
    "name:zea": "Albanië",
    "name:zh": "阿尔巴尼亚",
    "name:zh_pinyin": "Āěrbāníyà",
    "name:zu": "i-Albania",
    "official_name": "Republika e Shqipërisë",
    "official_name:be": "Рэспубліка Албанія",
    "official_name:be-tarask": "Рэспубліка Альбанія",
    "official_name:el": "Δημοκρατία της Αλβανίας",
    "official_name:en": "Republic of Albania",
    "official_name:eo": "Respubliko Albanio",
    "official_name:es": "República de Albania",
    "official_name:et": "Albaania Vabariik",
    "official_name:fr": "République d'Albanie",
    "official_name:ga": "Poblacht na hAlbáin",
    "official_name:is": "Lýðveldið Albanía",
    "official_name:ja": "アルバニア共和国",
    "official_name:ku": "Komara Albanyayê",
    "official_name:lb": "Republik Albanien",
    "official_name:lt": "Albanijos Respublika",
    "official_name:pl": "Republika Albanii",
    "official_name:sk": "Albánska republika",
    "official_name:sr": "Република Албанија",
    "official_name:sv": "Republiken Albanien",
    "official_name:vi": "Cộng hoà Albania",
    "place": "country",
    "population": "3619778",
    "source": "CIA World Factbook",
    "source:sqkm": "CIA World Factbook",
    "sqkm": "28748",
    "wikidata": "Q222",
    "wikipedia": "sq:Shqipëria"
  }
},
{
  "type": "node",
  "id": 424311353,
  "lat": 45.5643442,
  "lon": 17.0118954,
  "tags": {
    "ISO3166-1": "HR",
    "alt_name:eo": "Kroatujo",
    "country_code_fips": "HR",
    "country_code_iso3166_1_alpha_2": "HR",
    "geonames:id": "3202326",
    "int_name": "Croatia",
    "is_in:continent": "Europe",
    "name": "Hrvatska",
    "name:ab": "Хорватиа",
    "name:ace": "Kroasia",
    "name:af": "Kroasië",
    "name:ak": "Croatia",
    "name:als": "Kroatien",
    "name:am": "ክሮኤሽያ",
    "name:an": "Croacia",
    "name:ang": "Croatia",
    "name:ar": "كرواتيا",
    "name:arc": "ܩܪܘܐܛܝܐ",
    "name:arz": "كرواتيا",
    "name:ast": "Croacia",
    "name:av": "Хорватия",
    "name:ay": "Kruwatiya",
    "name:az": "Xorvatiya",
    "name:ba": "Хорватия",
    "name:bar": "Krowozien",
    "name:bat-smg": "Kruoatėjė",
    "name:be": "Харватыя",
    "name:be-tarask": "Харватыя",
    "name:bg": "Хърватия",
    "name:bh": "क्रोएशिया",
    "name:bi": "Croatia",
    "name:bm": "Kroasi",
    "name:bn": "ক্রোয়েশিয়া",
    "name:bo": "ཁུརོ་ཤི་ཡ།",
    "name:bpy": "ক্রোয়েশিয়া",
    "name:br": "Kroatia",
    "name:bs": "Hrvatska",
    "name:bxr": "Хорват",
    "name:ca": "Cròacia",
    "name:ce": "Хорвати",
    "name:ceb": "Krowasya",
    "name:ch": "Croacia",
    "name:chr": "ᎧᎶᎡᏏᎠ",
    "name:chy": "Croatia",
    "name:ckb": "کرواتیا",
    "name:co": "Croazia",
    "name:crh": "Hırvatistan",
    "name:cs": "Chorvatsko",
    "name:csb": "Chòrwackô",
    "name:cu": "Хръватьска",
    "name:cv": "Хăрвати",
    "name:cy": "Croatia",
    "name:da": "Kroatien",
    "name:de": "Kroatien",
    "name:diq": "Xırvatıstan",
    "name:dsb": "Chorwatska",
    "name:dv": "ކުރޮއޭޝިއާ",
    "name:dz": "ཀུརོ་ཤི་ཡ",
    "name:ee": "Croatia",
    "name:el": "Κροατία",
    "name:en": "Croatia",
    "name:eo": "Kroatujo",
    "name:es": "Croacia",
    "name:et": "Horvaatia",
    "name:eu": "Kroazia",
    "name:ext": "Croacia",
    "name:fa": "کرواسی",
    "name:ff": "Korowaasiya",
    "name:fi": "Kroatia",
    "name:fiu-vro": "Horvaatia",
    "name:fj": "Croatia",
    "name:fo": "Kroatia",
    "name:fr": "Croatie",
    "name:frp": "Croacie",
    "name:frr": "Kroatien",
    "name:fur": "Cravuazie",
    "name:fy": "Kroaasje",
    "name:ga": "An Chróit",
    "name:gag": "Horvatiya",
    "name:gd": "Croàisia",
    "name:gl": "Croacia",
    "name:gn": "Kyoasia",
    "name:gu": "ક્રોએશિયા",
    "name:gv": "Yn Chroit",
    "name:ha": "Kroatiya",
    "name:hak": "Khiet-lò-thi-â",
    "name:haw": "Koloatia",
    "name:he": "קרואטיה",
    "name:hi": "क्रोएशिया",
    "name:hif": "Croatia",
    "name:hr": "Hrvatska",
    "name:hsb": "Chorwatska",
    "name:ht": "Kroasi",
    "name:hu": "Horvátország",
    "name:hy": "Խորվաթիա",
    "name:ia": "Croatia",
    "name:id": "Kroasia",
    "name:ie": "Croatia",
    "name:ig": "Kroatia",
    "name:ilo": "Kroásia",
    "name:io": "Kroatia",
    "name:is": "Króatía",
    "name:it": "Croazia",
    "name:ja": "クロアチア",
    "name:jbo": "xrvatskas",
    "name:jv": "Kroasia",
    "name:ka": "ხორვატია",
    "name:kaa": "Xorvatiya",
    "name:kab": "Kerwasya",
    "name:kbd": "Хоруатиэ",
    "name:kg": "Kroatia",
    "name:ki": "Korasia",
    "name:kk": "Хорватия",
    "name:kl": "Kroatia",
    "name:km": "ក្រូអាត",
    "name:kn": "ಕ್ರೊಯೆಶಿಯ",
    "name:ko": "크로아티아",
    "name:koi": "Хӧрватска",
    "name:krc": "Хорватия",
    "name:ks": "کرٛوشِیا",
    "name:ksh": "Krowazije",
    "name:ku": "Kroatya",
    "name:kv": "Хорватия",
    "name:kw": "Kroati",
    "name:ky": "Хорватия",
    "name:la": "Croatia",
    "name:lb": "Kroatien",
    "name:lfn": "Corvatsca",
    "name:lg": "Kurowesya",
    "name:li": "Kroatië",
    "name:lij": "Croaçia",
    "name:lmo": "Cruazia",
    "name:ln": "Kroasia",
    "name:lo": "ປະເທດໂຄຣເອເຊຍ",
    "name:lt": "Kroatija",
    "name:ltg": "Horvateja",
    "name:lv": "Horvātija",
    "name:mdf": "Хорватие",
    "name:mg": "Krôasia",
    "name:mhr": "Хорватий",
    "name:mi": "Koroātia",
    "name:min": "Kroasia",
    "name:mk": "Хрватска",
    "name:ml": "ക്രൊയേഷ്യ",
    "name:mn": "Хорват",
    "name:mr": "क्रोएशिया",
    "name:ms": "Croatia",
    "name:mt": "Kroazja",
    "name:my": "ခရိုအေးရှားနိုင်ငံ",
    "name:na": "Kroaitsiya",
    "name:nah": "Croacia",
    "name:nan": "Hrvatska",
    "name:nap": "Croazia",
    "name:nds": "Kroatien",
    "name:nds-nl": "Kroasië",
    "name:ne": "क्रोएशिया",
    "name:new": "क्रोएसिया",
    "name:nl": "Kroatië",
    "name:nn": "Kroatia",
    "name:no": "Kroatia",
    "name:nov": "Kroatia",
    "name:nv": "Kwóóʼad Bikéyah",
    "name:oc": "Croàcia",
    "name:om": "Kirooshiyaa",
    "name:or": "କ୍ରୋଏସିଆ",
    "name:os": "Хорвати",
    "name:pa": "ਕ੍ਰੋਏਸ਼ੀਆ",
    "name:pag": "Kroasiya",
    "name:pam": "Croasya",
    "name:pap": "Kroatia",
    "name:pcd": "Croachie",
    "name:pdc": "Kroaati",
    "name:pi": "क्रोएशिया",
    "name:pih": "Kroaysha",
    "name:pl": "Chorwacja",
    "name:pms": "Croassia",
    "name:pnb": "کروشیا",
    "name:pnt": "Κροατία",
    "name:ps": "کروواسيا",
    "name:pt": "Croácia",
    "name:qu": "Hurwatsuyu",
    "name:rm": "Croazia",
    "name:rn": "Croacia",
    "name:ro": "Croația",
    "name:roa-rup": "Croatia",
    "name:roa-tara": "Croazie",
    "name:ru": "Хорватия",
    "name:rue": "Хорватія",
    "name:rw": "Korowatiya",
    "name:sa": "क्रोएशिया",
    "name:sah": "Хорватия",
    "name:sc": "Croatzia",
    "name:scn": "Croazzia",
    "name:sco": "Croatie",
    "name:sd": "ڪروشيا",
    "name:se": "Kroatia",
    "name:sg": "Kroasïi",
    "name:sh": "Hrvatska",
    "name:si": "ක්‍රොඒෂියා",
    "name:sk": "Chorvátsko",
    "name:sl": "Hrvaška",
    "name:sm": "Croatia",
    "name:sn": "Croatia",
    "name:so": "Kroatia",
    "name:sq": "Kroacia",
    "name:sr": "Хрватска",
    "name:sr-Latn": "Hrvatska",
    "name:ss": "IKhuroshiya",
    "name:st": "Kroatia",
    "name:stq": "Kroatien",
    "name:su": "Kroasia",
    "name:sv": "Kroatien",
    "name:sw": "Kroatia",
    "name:szl": "Chorwacyjo",
    "name:ta": "குரோவாசியா",
    "name:te": "క్రొయేషియా",
    "name:tg": "Хорватия",
    "name:th": "ประเทศโครเอเชีย",
    "name:ti": "ክሮኤሽያ",
    "name:tk": "Horwatiýa",
    "name:tl": "Kroasya",
    "name:to": "Kuloisia",
    "name:tok": "ma Lowasi",
    "name:tpi": "Krowesia",
    "name:tr": "Hırvatistan",
    "name:ts": "Croatia",
    "name:tt": "Хорватия",
    "name:tw": "Krowehyia",
    "name:ty": "Toroātia",
    "name:tzl": "C'horvoiça",
    "name:udm": "Хорватия",
    "name:ug": "كرودىيە",
    "name:uk": "Хорватія",
    "name:ur": "کروشیا",
    "name:uz": "Xorvatiya",
    "name:vec": "Croàsia",
    "name:vep": "Horvatii",
    "name:vi": "Croatia",
    "name:vls": "Kroatië",
    "name:vo": "Kroasän",
    "name:wa": "Crowaceye",
    "name:war": "Kroasya",
    "name:wo": "Korwaasi",
    "name:wuu": "克罗地亚",
    "name:xal": "Хорватин Орн",
    "name:xmf": "ხორვატია",
    "name:yi": "קראאטיע",
    "name:yo": "Kroatíà",
    "name:yue": "克羅地亞",
    "name:za": "Gwzlozdiya",
    "name:zea": "Kroaotië",
    "name:zh": "克羅地亞/克罗地亚/克羅埃西亞",
    "name:zh-Hans": "克罗地亚",
    "name:zh-Hant": "克羅埃西亞",
    "name:zh_pinyin": "Kèluódìyà",
    "name:zu": "IKrowati",
    "note": "Ne brisati ovu točku. (namjerno ostavljena tako) Do not delete this point.",
    "official_name": "Republika Hrvatska",
    "official_name:be": "Рэспубліка Харватыя",
    "official_name:cs": "Chorvatská republika",
    "official_name:el": "Δημοκρατία της Κροατίας",
    "official_name:en": "Republic of Croatia",
    "official_name:eo": "Respubliko Kroatio",
    "official_name:es": "República de Croacia",
    "official_name:et": "Horvaatia Vabariik",
    "official_name:eu": "Kroaziako Errepublika",
    "official_name:id": "Republik Kroasia",
    "official_name:ku": "Komara Kroatyayê",
    "official_name:lt": "Kroatijos Respublika",
    "official_name:lv": "Horvātijas Republika",
    "official_name:pl": "Republika Chorwacji",
    "official_name:pt": "República da Croácia",
    "official_name:ru": "Республика Хорватия",
    "official_name:sk": "Chorvátska republika",
    "official_name:sr": "Република Хрватска",
    "official_name:sv": "Republiken Kroatien",
    "official_name:tl": "Republika ng Croatia",
    "official_name:vi": "Cộng hòa Croatia",
    "place": "country",
    "population": "4284889",
    "source:sqkm": "CIA World Factbook",
    "sqkm": "56594",
    "wikidata": "Q224",
    "wikipedia": "hr:Hrvatska"
  }
},
{
  "type": "node",
  "id": 424312044,
  "lat": 62.0448724,
  "lon": -7.0322972,
  "tags": {
    "alt_name": "Faeroe Islands;Faroes;Faeroes",
    "alt_name:el": "Νησιά Φερόες",
    "capital_city": "Tórshavn",
    "country_code_fips": "FO",
    "country_code_iso3166_1_alpha_2": "FO",
    "geonames:id": "2622320",
    "int_name": "Faroe Islands",
    "is_in:continent": "Europe",
    "name": "Føroyar",
    "name:ace": "Pulo-pulo Faroe",
    "name:af": "Faroëreilande",
    "name:als": "Färöer",
    "name:am": "ፋሮ ደሴቶች",
    "name:an": "Islas Feroe",
    "name:ang": "Faroisca Īega",
    "name:ar": "جزر فارو",
    "name:arz": "جزر فارو",
    "name:ast": "Islles Feroe",
    "name:az": "Farer adaları",
    "name:bar": "Färöer",
    "name:be": "Фарэрскія астравы",
    "name:be-tarask": "Фарэрскія выспы",
    "name:bg": "Фарьорски острови",
    "name:bi": "Faroe aelan",
    "name:bn": "ফ্যারও দ্বীপপুঞ্জ",
    "name:bpy": "ফারো দ্বীপমালা",
    "name:br": "Inizi Faero",
    "name:bs": "Farska ostrva",
    "name:bxr": "Фарерын арлууд",
    "name:ca": "Illes Fèroe",
    "name:ce": "Фарерийн гІайренаш",
    "name:chr": "ᏪᎶ ᏚᎦᏚᏛ",
    "name:ckb": "دوڕگەکانی فارۆ",
    "name:cs": "Faerské ostrovy",
    "name:cy": "Ynysoedd Ffaroe",
    "name:da": "Færøerne",
    "name:de": "Färöer",
    "name:dsb": "Färöje",
    "name:dv": "ފަރޮއޭ ޖަޒީރާ",
    "name:dz": "ཕཱའེ་རོ་གླིང་ཚོམ",
    "name:ee": "Faroe ƒudomekpowo nutome",
    "name:el": "Νήσοι Φερόες",
    "name:en": "Faroe Islands",
    "name:eo": "Ferooj",
    "name:es": "Islas Feroe",
    "name:et": "Fääri saared",
    "name:eu": "Faroe Uharteak",
    "name:ext": "Islas Feroes",
    "name:fa": "فارو",
    "name:fi": "Färsaaret",
    "name:fo": "Føroyar",
    "name:fr": "Îles Féroé",
    "name:frp": "Iles Fèroè",
    "name:frr": "Färöer",
    "name:fur": "Isulis Faroe",
    "name:fy": "Faeröer",
    "name:ga": "Oileáin Fharó",
    "name:gag": "Farer Adaları",
    "name:gd": "Na h-Eileanan Fàro",
    "name:gl": "Illas Feroe",
    "name:gle": "Na Scigirí",
    "name:gu": "ફૅરો આઇલેન્ડ્સ",
    "name:gv": "Ellanyn ny Geyrragh",
    "name:he": "איי פארו",
    "name:hi": "फ़रो द्वीप",
    "name:hr": "Føroyar",
    "name:hsb": "Färöje",
    "name:hu": "Feröer",
    "name:hy": "Ֆարերյան կղզիներ",
    "name:ia": "Insulas Feroe",
    "name:id": "Kepulauan Faroe",
    "name:io": "Faero",
    "name:is": "Færeyjar",
    "name:it": "Isole Fær Øer",
    "name:ja": "フェロー諸島",
    "name:jv": "Kapuloan Faroe",
    "name:ka": "ფარერის კუნძულები",
    "name:kaa": "Farer atawları",
    "name:kk": "Фарер аралдары",
    "name:kl": "Savalimmiut",
    "name:km": "កោះ​ហ្វារ៉ូ",
    "name:kn": "ಫರೋ ದ್ವೀಪಗಳು",
    "name:ko": "페로 제도",
    "name:krc": "Фарер айрымканла",
    "name:ksh": "de Färrör-Enselle",
    "name:ku": "Giravên Faroe",
    "name:kv": "Фарер діяс",
    "name:kw": "Ynysow Faroe",
    "name:la": "Insulae Faeroae",
    "name:lfn": "Isolas Faro",
    "name:li": "Faeröer",
    "name:lij": "Isoe Farœ",
    "name:lmo": "Faroe",
    "name:ln": "Bisanga ya Fɛróa",
    "name:lo": "ຫມູ່ເກາະແຟໂຣ",
    "name:lt": "Farerai",
    "name:lv": "Farēru (Fēru) salas",
    "name:mi": "Moutere Faroe",
    "name:mk": "Фарски Острови",
    "name:ml": "ഫറോയി ദ്വീപുകൾ",
    "name:mn": "Фарерын Арлууд",
    "name:mr": "फेरो द्वीपसमूह",
    "name:ms": "Kepulauan Faroe",
    "name:mt": "Gżejjer Faroe",
    "name:my": "ဖာရိုး ကျွန်းစုများ",
    "name:nan": "Mî-iûⁿ Kûn-tó",
    "name:nds": "Färöer",
    "name:nds-nl": "Faeröer",
    "name:ne": "फारोर टापु",
    "name:nl": "Faeröer",
    "name:nn": "Færøyane",
    "name:no": "Færøyene",
    "name:nov": "Faro Isles",
    "name:oc": "Illas Feròe",
    "name:or": "ଫାରୋଇ ଦ୍ବୀପପୁଞ୍ଜ",
    "name:os": "Фарераг сакъадæхтæ",
    "name:pam": "Faroe Islands",
    "name:pih": "Faaro Ailen",
    "name:pl": "Wyspy Owcze",
    "name:pms": "Faròe",
    "name:pt": "Ilhas Feroe",
    "name:qu": "Pharuy",
    "name:rm": "Inslas Feroe",
    "name:rmy": "Dvipa Faroe",
    "name:ro": "Insulele Feroe",
    "name:ru": "Фарерские Острова",
    "name:rw": "Ibirwa bya Farowe",
    "name:scn": "Ìsuli Fær Øer",
    "name:sco": "Faroe Islands",
    "name:se": "Fearsullot",
    "name:sh": "Farski Otoci",
    "name:si": "ෆැරෝ දූපත්",
    "name:sk": "Faerské ostrovy",
    "name:sl": "Ferski otoki",
    "name:so": "Jasiiradaha Feroe",
    "name:sq": "Ishujt Faroe",
    "name:sr": "Фарска Острва",
    "name:stq": "Färöer",
    "name:su": "Kapuloan Faroe",
    "name:sv": "Färöarna",
    "name:sw": "Visiwa vya Faroe",
    "name:ta": "பரோயே தீவுகள்",
    "name:te": "ఫారో దీవులు",
    "name:tg": "Ҷазираҳои Фаро",
    "name:th": "หมู่เกาะแฟโร",
    "name:ti": "የፋሮይ ደሴቶች",
    "name:tl": "Kapuluang Peroe",
    "name:to": "ʻOtumotu Felou",
    "name:tr": "Faroe Adaları",
    "name:tt": "Фарер утраулары",
    "name:tum": "Vilumba vya Faroe",
    "name:uk": "Фарерські острови",
    "name:ur": "فروئی آئلینڈز",
    "name:vec": "Ixołe Fær Øer",
    "name:vep": "Fareran Sared",
    "name:vi": "Quần đảo Faroe",
    "name:war": "Feroe nga Islas",
    "name:wo": "Duni Faarow",
    "name:wuu": "法罗群岛",
    "name:xal": "Форойсин Арлс",
    "name:xmf": "ფარერიშ კოკეფი",
    "name:yo": "Àwọn Erékùṣù Fàróè",
    "name:yue": "法羅群島",
    "name:zh": "法罗群岛",
    "name:zh_pinyin": "Fǎluóqúndǎo",
    "name:zu": "i-Faroe Islands",
    "official_name:lv": "Fēru salas",
    "place": "country",
    "population": "48565",
    "source:sqkm": "wikipedia",
    "sqkm": "1393",
    "wikidata": "Q4628",
    "wikipedia": "en:Faroe Islands"
  }
},
{
  "type": "node",
  "id": 424313277,
  "lat": 59.6749712,
  "lon": 14.5208584,
  "tags": {
    "ISO3166-1": "SE",
    "alt_name:eo": "Svedujo",
    "capital_city": "Stockholm",
    "country_code_fips": "SW",
    "country_code_iso3166_1_alpha_2": "SE",
    "is_in": "Europe",
    "is_in:continent": "Europe",
    "name": "Sverige",
    "name:af": "Swede",
    "name:ak": "Sweden",
    "name:am": "ስዊድን",
    "name:ar": "السويد",
    "name:ast": "Suecia",
    "name:az": "isveç",
    "name:be": "Швецыя",
    "name:bg": "Швеция",
    "name:bm": "Suwɛdi",
    "name:bn": "সুইডেন",
    "name:bo": "ཧྲུའི་ཏན།",
    "name:br": "Sveden",
    "name:bs": "Švedska",
    "name:ca": "Suècia",
    "name:chr": "ᏍᏫᏕᏂ",
    "name:cs": "Švédsko",
    "name:cy": "Sweden",
    "name:de": "Schweden",
    "name:dz": "སུའི་ཌེན",
    "name:ee": "Sweden nutome",
    "name:el": "Σουηδία",
    "name:en": "Sweden",
    "name:eo": "Svedio",
    "name:es": "Suecia",
    "name:et": "Rootsi",
    "name:eu": "Suedia",
    "name:fa": "سوئد",
    "name:ff": "Suweed",
    "name:fi": "Ruotsi",
    "name:fo": "Svøríki",
    "name:fr": "Suède",
    "name:fur": "Svezie",
    "name:fy": "Sweden",
    "name:ga": "An tSualainn",
    "name:gd": "An t-Suain",
    "name:gl": "Suecia",
    "name:gu": "સ્વીડન",
    "name:gv": "Yn Toolynn",
    "name:ha": "Suwedan",
    "name:haw": "Kuekene",
    "name:he": "שוודיה",
    "name:hi": "स्वीडन",
    "name:hr": "Švedska",
    "name:hsb": "Šwedska",
    "name:hu": "Svédország",
    "name:hy": "Շվեդիա",
    "name:ia": "Svedia",
    "name:id": "Swedia",
    "name:io": "Suedia",
    "name:is": "Svíþjóð",
    "name:it": "Svezia",
    "name:ja": "スウェーデン",
    "name:jbo": "sueriges",
    "name:ka": "შვეცია",
    "name:kab": "Swid",
    "name:ki": "Uswidi",
    "name:kk": "Швеция",
    "name:km": "ស៊ុយអែដ",
    "name:kn": "ಸ್ವೀಡನ್",
    "name:ko": "스웨덴",
    "name:ks": "سُوِڈَن",
    "name:ksh": "Schweede",
    "name:ku": "Swêd",
    "name:la": "Suecia",
    "name:lb": "Schweden",
    "name:lfn": "Sveria",
    "name:lg": "Swideni",
    "name:li": "Zwaede",
    "name:ln": "Swédɛ",
    "name:lo": "ສະວິເດັນ",
    "name:lt": "Švedija",
    "name:lv": "Zviedrija",
    "name:mg": "Soedy",
    "name:mi": "Huītene",
    "name:mk": "Шведска",
    "name:ml": "സ്വീഡൻ",
    "name:mn": "Швед",
    "name:mr": "स्वीडन",
    "name:ms": "Sweden",
    "name:mt": "Żvezja",
    "name:my": "ဆွီဒင်",
    "name:nds": "Sweden",
    "name:ne": "स्विडेन",
    "name:nl": "Zweden",
    "name:no": "Sverige",
    "name:or": "ସ୍ୱେଡେନ୍",
    "name:pl": "Szwecja",
    "name:ps": "سویډن",
    "name:pt": "Suécia",
    "name:rm": "Svezia",
    "name:rn": "Suwedi",
    "name:ro": "Suedia",
    "name:ru": "Швеция",
    "name:se": "Ruoŧŧa",
    "name:sg": "Suêde",
    "name:si": "ස්වීඩනය",
    "name:sk": "Švédsko",
    "name:sl": "Švedska",
    "name:sn": "Sweden",
    "name:so": "Iswidhan",
    "name:sq": "Suedi",
    "name:sr": "Шведска",
    "name:sv": "Sverige",
    "name:sw": "Uswidi",
    "name:ta": "ஸ்வீடன்",
    "name:te": "స్వీడన్",
    "name:tg": "Шветсия",
    "name:th": "ประเทศสวีเดน",
    "name:ti": "ስዊድን",
    "name:to": "Suēteni",
    "name:tok": "ma Wensa",
    "name:tr": "İsveç",
    "name:tzl": "Sveiria",
    "name:uk": "Швеція",
    "name:ur": "سویڈن",
    "name:vi": "Thụy Điển",
    "name:vo": "Svedän",
    "name:yo": "Orílẹ́ède Swidini",
    "name:zh": "瑞典",
    "name:zh_pinyin": "Ruìdiǎn",
    "name:zu": "i-Sweden",
    "official_name": "Konungariket Sverige",
    "official_name:af": "Koninkryk Swede",
    "official_name:be": "Каралеўства Швецыя",
    "official_name:el": "Βασίλειο της Σουηδίας",
    "official_name:eo": "Reĝlando Svedio",
    "official_name:et": "Rootsi Kuningriik",
    "official_name:fr": "Royaume de Suède",
    "official_name:hsb": "Kralestwo Šwedska",
    "official_name:id": "Kerajaan Swedia",
    "official_name:ku": "Keyatiya Swêdê",
    "official_name:lb": "Kinneksräich Schweden",
    "official_name:lt": "Švedijos Karalystė",
    "official_name:no": "Kongeriket Sverige",
    "official_name:pt": "Reino da Suécia",
    "official_name:ro": "Regatul Suediei",
    "official_name:sk": "Švédske kráľovstvo",
    "official_name:sr": "Краљевина Шведска",
    "official_name:sv": "Konungariket Sverige",
    "official_name:vi": "Vương quốc Thụy Điển",
    "place": "country",
    "population": "9276509",
    "source:sqkm": "CIA World Factbook",
    "sqkm": "450295",
    "wikidata": "Q34",
    "wikipedia": "sv:Sverige"
  }
},
{
  "type": "node",
  "id": 424313406,
  "lat": 34.9823018,
  "lon": 33.1451285,
  "tags": {
    "ISO3166-1": "CY",
    "alt_name:ru": "Кипр",
    "country_code_iso3166_1_alpha_2": "CY",
    "is_in:continent": "Europe",
    "name": "Κύπρος - Kıbrıs",
    "name:ace": "Siprus",
    "name:af": "Siprus",
    "name:ak": "Saeprɔs",
    "name:als": "Republik Zypern",
    "name:am": "ቆጵሮስ",
    "name:an": "Chipre",
    "name:ang": "Cipros",
    "name:ar": "قبرص",
    "name:arc": "ܩܘܦܪܘܣ",
    "name:arz": "قبرص",
    "name:ast": "Xipre",
    "name:az": "Kipr",
    "name:bar": "Zypern",
    "name:bat-smg": "Kėpros",
    "name:bcl": "Siprus",
    "name:be": "Кіпр",
    "name:be-tarask": "Кіпр",
    "name:bg": "Кипър",
    "name:bi": "Cyprus",
    "name:bm": "Cipri",
    "name:bn": "সাইপ্রাস",
    "name:bo": "སེ་པི་རི་སི།",
    "name:bpy": "সাইপ্রাস",
    "name:br": "Kiprenez",
    "name:bs": "Kipar",
    "name:bxr": "Кипр",
    "name:ca": "Xipre",
    "name:ce": "Кипр",
    "name:ceb": "Tsipre",
    "name:chr": "ᏌᎢᏆᏍ",
    "name:ckb": "قوبرس",
    "name:co": "Cipru",
    "name:crh": "Qıbrız",
    "name:cs": "Kypr",
    "name:csb": "Cyper",
    "name:cu": "Кѷпръ",
    "name:cv": "Кипр",
    "name:cy": "Cyprus",
    "name:da": "Cypern",
    "name:de": "Zypern",
    "name:diq": "Qıbrısi",
    "name:dsb": "Cypern",
    "name:dz": "སཱའི་པྲས",
    "name:ee": "Cyprus",
    "name:el": "Κύπρος",
    "name:en": "Cyprus",
    "name:eo": "Kipro",
    "name:es": "Chipre",
    "name:et": "Küpros",
    "name:eu": "Zipre",
    "name:ext": "Chipri",
    "name:fa": "قبرس",
    "name:ff": "Siipar",
    "name:fi": "Kypros",
    "name:fiu-vro": "Küprüs",
    "name:fo": "Kýpros",
    "name:fr": "Chypre",
    "name:frp": "Ch·ipre",
    "name:frr": "Zypern",
    "name:fur": "Cipri",
    "name:fy": "Syprus",
    "name:ga": "An Chipir",
    "name:gd": "Cìopras",
    "name:gl": "Chipre",
    "name:gn": "Chipre",
    "name:gsw": "Zypern",
    "name:gu": "સાયપ્રસ",
    "name:gv": "Yn Cheeprey",
    "name:ha": "Sifurus",
    "name:hak": "Set-phû-lu-sṳ̂",
    "name:haw": "Kupelo",
    "name:he": "קפריסין",
    "name:hi": "साइप्रस",
    "name:hif": "Cyprus",
    "name:hr": "Cipar",
    "name:hsb": "Cypernska",
    "name:ht": "Chip",
    "name:hu": "Ciprus",
    "name:hy": "Կիպրոս",
    "name:ia": "Cypro",
    "name:id": "Siprus",
    "name:ie": "Cypria",
    "name:ilo": "Cyprus",
    "name:io": "Chipro",
    "name:is": "Kýpur",
    "name:it": "Cipro",
    "name:ja": "キプロス",
    "name:jv": "Siprus",
    "name:ka": "კვიპროსი",
    "name:kaa": "Kipr",
    "name:kab": "Cipr",
    "name:kg": "Kipros",
    "name:ki": "Kuprosi",
    "name:kk": "Кипр",
    "name:kl": "Cyperni",
    "name:km": "ស៉ីពរ៍",
    "name:kn": "ಕಿಪ್ರೊಸ್",
    "name:ko": "키프로스",
    "name:krc": "Кипр",
    "name:ks": "سایفرٛس",
    "name:ksh": "Züppere",
    "name:ku": "Kîpros",
    "name:kv": "Кипр",
    "name:kw": "Kobros",
    "name:la": "Cyprus",
    "name:lad": "Kipre",
    "name:lb": "Zypern",
    "name:lez": "Кипр",
    "name:lfn": "Cipros",
    "name:lg": "Sipuriya",
    "name:li": "Cyprus",
    "name:lij": "Çipro",
    "name:lmo": "Cipru",
    "name:ln": "Sípɛlɛ",
    "name:lo": "ໄຊປັຼດ",
    "name:lt": "Kipras",
    "name:ltg": "Kipra",
    "name:lv": "Kipra",
    "name:mdf": "Кипра",
    "name:mg": "Kipra",
    "name:mhr": "Кипр",
    "name:mi": "Haipara",
    "name:mk": "Кипар",
    "name:ml": "സൈപ്രസ്",
    "name:mn": "Кипр",
    "name:mr": "सायप्रस",
    "name:ms": "Cyprus",
    "name:mt": "Ċipru",
    "name:my": "ဆိုက်ပရပ်စ်နိုင်ငံ",
    "name:na": "Taiprus",
    "name:nah": "Chipre",
    "name:nan": "Ku-pí-lō͘",
    "name:nap": "Cipro",
    "name:nb": "Kypros",
    "name:nds": "Zypern",
    "name:nds-nl": "Cyprus",
    "name:ne": "साइप्रस",
    "name:new": "साइप्रस",
    "name:nl": "Cyprus",
    "name:nn": "Kypros",
    "name:no": "Kypros",
    "name:nov": "Kiprus",
    "name:nrm": "Chypre",
    "name:nv": "Béésh Łichíiʼii Bikéyah",
    "name:oc": "Chipre",
    "name:or": "ସାଇପ୍ରସ",
    "name:os": "Кипр",
    "name:pa": "ਸਾਇਪ੍ਰਸ",
    "name:pag": "Kiprô",
    "name:pam": "Sipre",
    "name:pih": "Siipris",
    "name:pl": "Cypr",
    "name:pms": "Cipro",
    "name:pnb": "قبرص",
    "name:pnt": "Κύπρος",
    "name:pt": "Chipre",
    "name:qu": "Kipru",
    "name:rm": "Cipra",
    "name:rn": "Izinga rya Shipure",
    "name:ro": "Cipru",
    "name:roa-rup": "Chipro",
    "name:roa-tara": "Cipre",
    "name:ru": "Кипр",
    "name:rue": "Ціпрус",
    "name:rw": "Shipure",
    "name:sah": "Кипр",
    "name:sc": "Tzipru",
    "name:scn": "Cipru",
    "name:sco": "Cyprus",
    "name:se": "Kypros",
    "name:sg": "Sîpri",
    "name:sh": "Cipar",
    "name:si": "සයිප්‍රස්",
    "name:simple": "Republic of Cyprus",
    "name:sk": "Cyprus",
    "name:sl": "Ciper",
    "name:sm": "Cyprus",
    "name:sn": "Cyprus",
    "name:so": "Qabrus",
    "name:sq": "Qiproja",
    "name:sr": "Кипар",
    "name:srn": "Sipruskondre",
    "name:ss": "ISayiphro",
    "name:stq": "Zypern",
    "name:su": "Siprus",
    "name:sv": "Cypern",
    "name:sw": "Kupro",
    "name:szl": "Cypr",
    "name:ta": "சைப்பிரஸ்",
    "name:te": "సైప్రస్",
    "name:tet": "Xipre",
    "name:tg": "Кипр",
    "name:th": "ประเทศไซปรัส",
    "name:ti": "ሳይፕረስ",
    "name:tk": "Kipr",
    "name:tl": "Tsipre",
    "name:to": "Saipalesi",
    "name:tok": "ma Kiposi",
    "name:tpi": "Saipras",
    "name:tr": "Kıbrıs",
    "name:tt": "Кипр",
    "name:tzl": "Cüpris",
    "name:udm": "Кипр",
    "name:ug": "سىپرۇس",
    "name:uk": "Кіпр",
    "name:ur": "قبرص",
    "name:uz": "Qibris",
    "name:vec": "Sipro",
    "name:vep": "Kipr",
    "name:vi": "Síp",
    "name:vls": "Cyprus",
    "name:vo": "Sipreän",
    "name:vro": "Küprüs",
    "name:war": "Tsipre",
    "name:wo": "Ciipër",
    "name:wuu": "塞浦路斯",
    "name:xal": "Кипр",
    "name:xmf": "კვიპროსი",
    "name:yi": "קיפראס",
    "name:yo": "Kíprù",
    "name:yue": "塞浦路斯",
    "name:zea": "Cyprus",
    "name:zh": "赛普勒斯/塞浦路斯/塞浦路斯",
    "name:zh-Hans": "赛普勒斯",
    "name:zh-Hant": "塞浦路斯",
    "name:zh_pinyin": "Sàipǔlùsī",
    "name:zu": "i-Cyprus",
    "official_name": "Κυπριακή Δημοκρατία",
    "official_name:be": "Рэспубліка Кіпр",
    "official_name:br": "Republik Kiprenez",
    "official_name:el": "Κυπριακή Δημοκρατία",
    "official_name:es": "República de Chipre",
    "official_name:et": "Küprose Vabariik",
    "official_name:eu": "Zipreko Errepublika",
    "official_name:id": "Republik Siprus",
    "official_name:ku": "Komara Kîprosê",
    "official_name:lb": "Republik Zypern",
    "official_name:lt": "Kipro Respublika",
    "official_name:lv": "Kipras Republika",
    "official_name:pl": "Republika Cypryjska",
    "official_name:pt": "República de Chipre",
    "official_name:ro": "Republica Ciprului",
    "official_name:ru": "Республика Кипр",
    "official_name:sv": "Republiken Cypern",
    "official_name:tl": "Republika ng Tsipre",
    "official_name:tr": "Kıbrıs Cumhuriyeti",
    "official_name:vi": "Cộng hòa Síp",
    "place": "country",
    "population": "885041",
    "sqkm": "9251",
    "wikidata": "Q229",
    "wikipedia": "en:Cyprus"
  }
},
{
  "type": "node",
  "id": 424313832,
  "lat": 58.7523778,
  "lon": 25.3319078,
  "tags": {
    "alt_name:eo": "Estonujo",
    "capital_city": "Tallinn",
    "country_code_fips": "EN",
    "country_code_iso3166_1_alpha_2": "EE",
    "geonames:id": "453733",
    "int_name": "Estonia",
    "is_in:continent": "Europe",
    "name": "Eesti",
    "name:af": "Estland",
    "name:ak": "Ɛstonia",
    "name:am": "ኤስቶኒያ",
    "name:ar": "إستونيا",
    "name:ast": "Estonia",
    "name:az": "Estoniya",
    "name:ba": "Эстония",
    "name:be": "Эстонія",
    "name:bg": "Естония",
    "name:bm": "Esetoni",
    "name:bn": "এস্তোনিয়া",
    "name:bo": "ཨིསྟོ་ནི་ཡ།",
    "name:br": "Estonia",
    "name:bs": "Estonija",
    "name:ca": "Estònia",
    "name:chr": "ᎡᏍᏙᏂᏯ",
    "name:cs": "Estonsko",
    "name:cy": "Estonia",
    "name:da": "Estland",
    "name:de": "Estland",
    "name:dz": "ཨེས་ཊོ་ནི་ཡ",
    "name:ee": "Estonia nutome",
    "name:el": "Εσθονία",
    "name:en": "Estonia",
    "name:eo": "Estonio",
    "name:es": "Estonia",
    "name:et": "Eesti",
    "name:eu": "Estonia",
    "name:fa": "استونی",
    "name:ff": "Estoni",
    "name:fi": "Viro",
    "name:fo": "Estland",
    "name:fr": "Estonie",
    "name:fur": "Estonie",
    "name:fy": "Estlân",
    "name:ga": "An Eastóin",
    "name:gd": "Eastòinia",
    "name:gl": "Estonia",
    "name:gu": "એસ્ટોનિયા",
    "name:gv": "Yn Estaan",
    "name:ha": "Estoniya",
    "name:haw": "‘Esetonia",
    "name:he": "אסטוניה",
    "name:hi": "एस्टोनिया",
    "name:hr": "Estonija",
    "name:hsb": "Estiska",
    "name:hu": "Észtország",
    "name:hy": "Էստոնիա",
    "name:ia": "Estonia",
    "name:id": "Estonia",
    "name:io": "Estonia",
    "name:is": "Eistland",
    "name:it": "Estonia",
    "name:ja": "エストニア",
    "name:jbo": "estis",
    "name:ka": "ესტონეთი",
    "name:kab": "Istunya",
    "name:ki": "Estonia",
    "name:kl": "Estlandi",
    "name:km": "អេស្តូនី",
    "name:kn": "ಎಸ್ತೊನಿಯ",
    "name:ko": "에스토니아",
    "name:ks": "ایسٹونِیا",
    "name:ksh": "Äßland",
    "name:ku": "Estonya",
    "name:la": "Estonia",
    "name:lb": "Estland",
    "name:lfn": "Esti",
    "name:lg": "Esitoniya",
    "name:li": "Esland",
    "name:ln": "Esitoni",
    "name:lo": "ເອສໂຕເນຍ",
    "name:lt": "Estija",
    "name:lv": "Igaunija",
    "name:mg": "Estonia",
    "name:mk": "Естонија",
    "name:ml": "എസ്റ്റോണിയ‍",
    "name:mn": "Эстон",
    "name:mr": "एस्टोनिया",
    "name:ms": "Estonia",
    "name:mt": "Estonja",
    "name:my": "အက်စတိုးနီးယား",
    "name:nds": "Eestland",
    "name:ne": "इस्टोनिया",
    "name:nl": "Estland",
    "name:nn": "Estland",
    "name:no": "Estland",
    "name:or": "ଏସ୍ତୋନିଆ",
    "name:pl": "Estonia",
    "name:pt": "Estônia",
    "name:rm": "Estonia",
    "name:rn": "Esitoniya",
    "name:ro": "Estonia",
    "name:ru": "Эстония",
    "name:se": "Estlánda",
    "name:sg": "Estonïi",
    "name:si": "එස්තෝනියාව",
    "name:sk": "Estónsko",
    "name:sl": "Estonija",
    "name:sn": "Estonia",
    "name:so": "Estooniya",
    "name:sq": "Estoni",
    "name:sr": "Естонија",
    "name:sv": "Estland",
    "name:sw": "Estonia",
    "name:ta": "எஸ்டோனியா",
    "name:te": "ఎస్టోనియా",
    "name:th": "ประเทศเอสโตเนีย",
    "name:ti": "ኤስቶኒያ",
    "name:tl": "Estonya",
    "name:to": "ʻEsitōnia",
    "name:tok": "ma Esi",
    "name:tr": "Estonya",
    "name:tt": "Эстония",
    "name:tzl": "Estognh",
    "name:uk": "Естонія",
    "name:ur": "اسٹونیا",
    "name:uz": "Estoniya",
    "name:vi": "Estonia",
    "name:vo": "Lestiyän",
    "name:yo": "Orílẹ́ède Esitonia",
    "name:zh": "爱沙尼亚",
    "name:zh_pinyin": "Àishāníyà",
    "name:zu": "i-Estonia",
    "official_name": "Eesti Vabariik",
    "official_name:be": "Рэспубліка Эстонія",
    "official_name:el": "Δημοκρατία της Εσθονίας",
    "official_name:en": "Republic of Estonia",
    "official_name:eo": "Respubliko Estonio",
    "official_name:es": "República de Estonia",
    "official_name:fr": "République d'Estonie",
    "official_name:gd": "Poblachd Eastòinia",
    "official_name:hsb": "Republika Estiska",
    "official_name:id": "Republik Estonia",
    "official_name:ku": "Komara Estonyayê",
    "official_name:lb": "Republik Estland",
    "official_name:lt": "Estijos Respublika",
    "official_name:lv": "Igaunijas Republika",
    "official_name:pl": "Republika Estońska",
    "official_name:ro": "Republica Estoniei",
    "official_name:ru": "Эстонская Республика",
    "official_name:sk": "Estónska republika",
    "official_name:sv": "Republiken Estland",
    "official_name:tl": "Republika ng Estonya",
    "official_name:vi": "Cộng hòa Estonia",
    "place": "country",
    "population": "1307605",
    "source:sqkm": "CIA World Factbook",
    "sqkm": "45228",
    "wikidata": "Q191",
    "wikipedia": "et:Eesti"
  }
},
{
  "type": "node",
  "id": 424314784,
  "lat": 64.9841821,
  "lon": -18.1059013,
  "tags": {
    "ISO3166-1": "IS",
    "capital_city": "Reykjavík",
    "country_code_fips": "IC",
    "country_code_iso3166_1_alpha_2": "IS",
    "geonames:id": "2629691",
    "int_name": "Iceland",
    "is_in:continent": "Europe",
    "is_in:ocean": "Atlantic",
    "name": "Ísland",
    "name:ace": "Islandia",
    "name:af": "Ysland",
    "name:ak": "Aesland",
    "name:als": "Island",
    "name:am": "አይስላንድ",
    "name:an": "Islandia",
    "name:ang": "Īsland",
    "name:ar": "آيسلندا",
    "name:arz": "ايسلاندا",
    "name:ast": "Islandia",
    "name:az": "İslandiya",
    "name:ba": "Исландия",
    "name:bar": "Island",
    "name:bat-smg": "Islandėjė",
    "name:bcl": "Islanda",
    "name:be": "Ісландыя",
    "name:be-tarask": "Ісьляндыя",
    "name:bg": "Исландия",
    "name:bi": "Iceland",
    "name:bm": "Isilandi",
    "name:bn": "আইসলণ্ড",
    "name:bo": "ཨ་ཨི་སི་ལནད།",
    "name:bpy": "আইসল্যান্ড",
    "name:br": "Island",
    "name:bs": "Island",
    "name:bxr": "Исланд",
    "name:ca": "Islàndia",
    "name:ce": "Исланди",
    "name:ceb": "Islandya",
    "name:chr": "ᏧᏁᏍᏓᎸᎯ",
    "name:ckb": "ئایسلەند",
    "name:co": "Islanda",
    "name:crh": "İslandiya",
    "name:cs": "Island",
    "name:csb": "Islandëjô",
    "name:cu": "Исландъ",
    "name:cv": "Исланди",
    "name:cy": "Gwlad yr Iâ",
    "name:da": "Island",
    "name:de": "Island",
    "name:diq": "İslanda",
    "name:dsb": "Islandska",
    "name:dv": "އައިސްލަންޑަން",
    "name:dz": "ཨཱའིས་ལེནཌ",
    "name:ee": "Aiseland nutome",
    "name:el": "Ισλανδία",
    "name:eml": "Islanda",
    "name:en": "Iceland",
    "name:eo": "Islando",
    "name:es": "Islandia",
    "name:et": "Island",
    "name:eu": "Islandia",
    "name:ext": "Islándia",
    "name:fa": "ایسلند",
    "name:ff": "Islannda",
    "name:fi": "Islanti",
    "name:fiu-vro": "Island",
    "name:fo": "Ísland",
    "name:fr": "Islande",
    "name:frp": "Islande",
    "name:frr": "Islönj",
    "name:fur": "Islande",
    "name:fy": "Yslân",
    "name:ga": "An Íoslainn",
    "name:gag": "İslandiya",
    "name:gd": "Innis Tìle",
    "name:gl": "Islandia",
    "name:gn": "Iylanda",
    "name:gu": "આઇસલેન્ડ",
    "name:gv": "Yn Eeslynn",
    "name:ha": "Aisalan",
    "name:hak": "Pên-tó",
    "name:haw": "‘Āina Hau",
    "name:he": "איסלנד",
    "name:hi": "आइसलैंड",
    "name:hif": "Iceland",
    "name:hr": "Island",
    "name:hsb": "Islandska",
    "name:ht": "Islann",
    "name:hu": "Izland",
    "name:hy": "Իսլանդիա",
    "name:ia": "Islanda",
    "name:id": "Islandia",
    "name:ie": "Island",
    "name:ilo": "Islandia",
    "name:io": "Islando",
    "name:is": "Ísland",
    "name:it": "Islanda",
    "name:ja": "アイスランド",
    "name:jbo": "island",
    "name:jv": "Islandia",
    "name:ka": "ისლანდია",
    "name:kaa": "İslandiya",
    "name:kab": "Island",
    "name:kbd": "Ислэнд",
    "name:kg": "Islande",
    "name:ki": "Aislandi",
    "name:kk": "Исландия",
    "name:kl": "Islandi",
    "name:km": "អ៊ីស្លង់",
    "name:kn": "ಐಸ್‌ಲ್ಯಾಂಡ್",
    "name:ko": "아이슬란드",
    "name:koi": "Исланд",
    "name:krc": "Исландия",
    "name:ks": "اَیِسلینٛڑ",
    "name:ksh": "Ißland",
    "name:ku": "Îsland",
    "name:kv": "Исландия",
    "name:kw": "Island",
    "name:ky": "Исландия",
    "name:la": "Islandia",
    "name:lad": "Islandia",
    "name:lb": "Island",
    "name:lez": "Исландия",
    "name:lfn": "Island",
    "name:lg": "Ayisirandi",
    "name:li": "Iesland",
    "name:lij": "Islanda",
    "name:lmo": "Islanda",
    "name:ln": "Isilandɛ",
    "name:lo": "ໄອສແລນ",
    "name:lt": "Islandija",
    "name:ltg": "Īslandeja",
    "name:lv": "Īslande",
    "name:lzh": "冰島",
    "name:mdf": "Исланда",
    "name:mg": "Islandy",
    "name:mhr": "Исландий",
    "name:mi": "Tiorangi",
    "name:mk": "Исланд",
    "name:ml": "ഐസ്‌ലാന്റ്",
    "name:mn": "Исланд",
    "name:mr": "आइसलँड",
    "name:ms": "Iceland",
    "name:mt": "Islanda",
    "name:mwl": "Eislándia",
    "name:my": "အိုက်စလန်",
    "name:na": "Aiterand",
    "name:nah": "Iztlālpan",
    "name:nan": "Peng-tē",
    "name:nb": "Island",
    "name:nds": "Iesland",
    "name:nds-nl": "Ieslaand",
    "name:ne": "आइस्ल्याण्ड",
    "name:nl": "IJsland",
    "name:nn": "Island",
    "name:no": "Island",
    "name:nov": "Islande",
    "name:nrm": "Islaunde",
    "name:nv": "Tin Bikéyah",
    "name:oc": "Islàndia",
    "name:or": "ଆଇସଲ୍ୟାଣ୍ଡ",
    "name:os": "Исланди",
    "name:pa": "ਆਈਸਲੈਂਡ",
    "name:pam": "Islandya",
    "name:pcd": "Islinde",
    "name:pih": "Iseland",
    "name:pl": "Islandia",
    "name:pms": "Islanda",
    "name:pnb": "آئس لینڈ",
    "name:pnt": "Ισλανδία",
    "name:ps": "آیسلینډ",
    "name:pt": "Islândia",
    "name:qu": "Islandya",
    "name:rm": "Islanda",
    "name:rn": "Ayisilandi",
    "name:ro": "Islanda",
    "name:roa-rup": "Islanda",
    "name:roa-tara": "Islanne",
    "name:ru": "Исландия",
    "name:rue": "Ісланд",
    "name:rw": "Isilande",
    "name:sa": "आइसलैंड",
    "name:sah": "Исландия",
    "name:sc": "Islanda",
    "name:scn": "Islandia",
    "name:sco": "Iceland",
    "name:se": "Islánda",
    "name:sg": "Islânde",
    "name:sh": "Island",
    "name:si": "අයිස්ලන්තය",
    "name:sk": "Island",
    "name:sl": "Islandija",
    "name:sm": "Aiselani",
    "name:sn": "Iceland",
    "name:so": "Iislaand",
    "name:sq": "Islandë",
    "name:sr": "Исланд",
    "name:ss": "Echweni",
    "name:st": "Iceland",
    "name:stq": "Ieslound",
    "name:su": "Islandia",
    "name:sv": "Island",
    "name:sw": "Aislandi",
    "name:szl": "Islandyjo",
    "name:ta": "ஐஸ்லாந்து",
    "name:te": "ఐస్లాండ్",
    "name:tet": "Izlándia",
    "name:tg": "Исландия",
    "name:th": "ประเทศไอซ์แลนด์",
    "name:ti": "አይስላንድ",
    "name:tk": "Islandiýa",
    "name:tl": "Islandia",
    "name:to": "ʻAisilani",
    "name:tok": "ma Isilan",
    "name:tpi": "Aislan",
    "name:tr": "İzlanda",
    "name:tt": "Исландия",
    "name:tzl": "Ispäts",
    "name:udm": "Исландия",
    "name:ug": "ئىسلاندىيە",
    "name:uk": "Ісландія",
    "name:ur": "آئس لینڈ",
    "name:uz": "Islandiya",
    "name:vec": "Islanda",
    "name:vep": "Islandii",
    "name:vi": "Iceland",
    "name:vls": "Ysland",
    "name:vo": "Lisladeän",
    "name:wa": "Izlande",
    "name:war": "Islandya",
    "name:wo": "Islaand",
    "name:wuu": "冰岛",
    "name:xal": "Ислгудин Орн",
    "name:xmf": "ისლანდია",
    "name:yi": "איסלאנד",
    "name:yo": "Orílẹ́ède Aṣilandi",
    "name:yue": "冰島",
    "name:zea": "Iesland",
    "name:zh": "冰岛",
    "name:zh_pinyin": "Bīngdǎo",
    "name:zu": "i-Iceland",
    "official_name": "Lýðveldið Ísland",
    "official_name:be": "Ісландыя",
    "official_name:el": "Δημοκρατία της Ισλανδίας",
    "official_name:en": "Republic of Iceland",
    "official_name:eo": "Islanda Respubliko",
    "official_name:es": "República de Islandia",
    "official_name:id": "Republik Islandia",
    "official_name:it": "Repubblica d'Islanda",
    "official_name:ku": "Komara Îslandê",
    "official_name:lb": "Republik Island",
    "official_name:lt": "Islandijos Respublika",
    "official_name:lv": "Īslandes Republika",
    "official_name:pl": "Republika Islandii",
    "official_name:ro": "Republica Islanda",
    "official_name:sv": "Republiken Island",
    "official_name:tl": "Republika ng Islandia",
    "official_name:vi": "Cộng hòa Iceland",
    "place": "country",
    "population": "320000",
    "source:sqkm": "CIA World Factbook",
    "sqkm": "103000",
    "wikidata": "Q189",
    "wikipedia": "is:Ísland"
  }
},
{
  "type": "node",
  "id": 424315709,
  "lat": 42.6073975,
  "lon": 25.4856617,
  "tags": {
    "alt_name:eo": "Bulgarujo",
    "country_code_fips": "BU",
    "country_code_iso3166_1_alpha_2": "BG",
    "geonames:id": "732800",
    "int_name": "Bulgaria",
    "is_in:continent": "Europe",
    "name": "Бългaрия",
    "name:ab": "Болга́риа",
    "name:ace": "Bulgaria",
    "name:ady": "Булгарие",
    "name:af": "Bulgarye",
    "name:ak": "Bulgaria",
    "name:als": "Bulgarie",
    "name:am": "ቡልጋሪያ",
    "name:an": "Bulgaria",
    "name:ang": "Pulgaraland",
    "name:ar": "بلغاريا",
    "name:arc": "ܒܘܠܓܐܪܝܐ",
    "name:arz": "بلجاريا",
    "name:ast": "Bulgaria",
    "name:av": "Болга́рия",
    "name:ay": "Bulkariya",
    "name:az": "Bolqarıstan",
    "name:azb": "بولغاریستان",
    "name:ba": "Болга́рия",
    "name:bar": "Buigarien",
    "name:bat-smg": "Bulgarėjė",
    "name:bcl": "Bulgarya",
    "name:be": "Балга́рыя",
    "name:be-tarask": "Баўга́рыя",
    "name:bg": "България",
    "name:bh": "बुल्गारिया",
    "name:bi": "Bulgaria",
    "name:bm": "Buligari",
    "name:bn": "বুলগেরিয়া",
    "name:bo": "པུ་ར་ག་རི་ཡ།",
    "name:bpy": "বুলগেরিয়া",
    "name:br": "Bulgaria",
    "name:bs": "Bugarska",
    "name:bxr": "Болгари",
    "name:ca": "Bulgària",
    "name:cbk-zam": "Bulgaria",
    "name:cdo": "Bō̤-gă-lê-ā",
    "name:ce": "Болга́ри",
    "name:ceb": "Bulgaria",
    "name:ch": "Bulgaria",
    "name:chr": "ᏊᎵᎨᎵᎠ",
    "name:ckb": "بولگاریا",
    "name:co": "Bulgaria",
    "name:crh": "Bulğaristan",
    "name:cs": "Bulharsko",
    "name:csb": "Bùlgarskô",
    "name:cu": "Блъгарїꙗ",
    "name:cv": "Пăлхарĕ",
    "name:cy": "Bwlgaria",
    "name:da": "Bulgarien",
    "name:de": "Bulgarien",
    "name:diq": "Bulğarıstan",
    "name:dsb": "Bulgarska",
    "name:dty": "बुल्गेरिया",
    "name:dv": "ބަލްގޭރިއާ",
    "name:dz": "བུལ་ག་རི་ཡ",
    "name:ee": "Bulgaria",
    "name:el": "Βουλγαρία",
    "name:eml": "Bulgarî",
    "name:en": "Bulgaria",
    "name:eo": "Bulgarujo",
    "name:es": "Bulgaria",
    "name:et": "Bulgaaria",
    "name:eu": "Bulgaria",
    "name:ext": "Bulgária",
    "name:fa": "بلغارستان",
    "name:ff": "Bulgariya",
    "name:fi": "Bulgaria",
    "name:fiu-vro": "Bulgaaria",
    "name:fo": "Bulgaria",
    "name:fr": "Bulgarie",
    "name:frp": "Bulgarie",
    "name:frr": "Bulgarien",
    "name:fur": "Bulgarie",
    "name:fy": "Bulgarije",
    "name:ga": "an Bhulgáir",
    "name:gag": "Bulgariya",
    "name:gd": "Bulgàiria",
    "name:gl": "Bulgaria",
    "name:gn": "Vugaria",
    "name:gom": "बल्गेरिया",
    "name:got": "𐌱𐌿𐌻𐌲𐌰𐍂𐌹𐌰",
    "name:gu": "બલ્ગેરિયા",
    "name:gv": "Yn Vulgeyr",
    "name:ha": "Bulgairiya",
    "name:hak": "Pó-kâ-li-â",
    "name:haw": "Pulukalia",
    "name:he": "בּוּלְגַרְיָה",
    "name:hi": "बुल्गारिया",
    "name:hif": "Bulgaria",
    "name:hr": "Bugarska",
    "name:hsb": "Bołharska",
    "name:ht": "Bilgari",
    "name:hu": "Bulgária",
    "name:hy": "Բուլղարիա",
    "name:ia": "Bulgaria",
    "name:id": "Bulgaria",
    "name:ie": "Bulgaria",
    "name:ig": "Bulgaria",
    "name:ilo": "Bulgaria",
    "name:io": "Bulgaria",
    "name:is": "Búlgaría",
    "name:it": "Bulgaria",
    "name:ja": "ブルガリア",
    "name:jam": "Bulgieria",
    "name:jbo": "bylgAri,as",
    "name:jv": "Bulgaria",
    "name:ka": "ბულგარეთი",
    "name:kaa": "Bolgariya",
    "name:kab": "Bulgarya",
    "name:kbd": "Болгариэ",
    "name:kbp": "Puligari",
    "name:kg": "Balgaria",
    "name:ki": "Bulgaria",
    "name:kk": "Болгария",
    "name:kl": "Bulgaria",
    "name:km": "ប៊ុលហ្គារី",
    "name:kn": "ಬಲ್ಗೇರಿಯ",
    "name:ko": "불가리아",
    "name:koi": "Бӧлгария",
    "name:krc": "Болгария",
    "name:ks": "بَلجیرِیا",
    "name:ksh": "Bulgarije",
    "name:ku": "Bulgaristan",
    "name:kv": "Болгария",
    "name:kw": "Bulgari",
    "name:ky": "Болгария",
    "name:la": "Bulgaria",
    "name:lad": "Bulgaria",
    "name:lb": "Bulgarien",
    "name:lbe": "Болгариа",
    "name:lez": "Болгария",
    "name:lfn": "Balgaria",
    "name:lg": "Bulugariya",
    "name:li": "Bölgarije",
    "name:lij": "Burgaja",
    "name:lmo": "Bülgaria",
    "name:ln": "Bulgaria",
    "name:lo": "ປະເທດບູນກາລີ",
    "name:lrc": "بولغارئستان",
    "name:lt": "Bulgarija",
    "name:ltg": "Bulgareja",
    "name:lv": "Bulgārija",
    "name:lzh": "保加利亞",
    "name:mai": "बुल्गेरिया",
    "name:mdf": "Болгарие",
    "name:mg": "Biolgaria",
    "name:mhr": "Болгарий",
    "name:mi": "Purukāria",
    "name:mk": "Бугарија",
    "name:ml": "ബൾഗേറിയ",
    "name:mn": "Болгар",
    "name:mr": "बल्गेरिया",
    "name:mrj": "Болгари",
    "name:ms": "Bulgaria",
    "name:mt": "Bulgarija",
    "name:mwl": "Bulgária",
    "name:my": "ဘူလ်ဂေးရီးယားနိုင်ငံ",
    "name:myv": "Болгария Мастор",
    "name:mzn": "بلغارستون",
    "name:na": "Borgeriya",
    "name:nah": "Bulgaria",
    "name:nan": "Pu̍t-gâ-lī",
    "name:nap": "Bulgaria",
    "name:nds": "Bulgarien",
    "name:nds-nl": "Bulgarije",
    "name:ne": "बुल्गेरिया",
    "name:new": "बुल्गेरिया",
    "name:nl": "Bulgarije",
    "name:nn": "Bulgaria",
    "name:no": "Bulgaria",
    "name:nov": "Bulgaria",
    "name:nrm": "Bulgarie",
    "name:nv": "Bálgaa Bikéyah",
    "name:oc": "Bulgaria",
    "name:olo": "Bolguarii",
    "name:om": "Bulgeeriyaa",
    "name:or": "ବୁଲଗାରିଆ",
    "name:os": "Болгари",
    "name:pa": "ਬੁਲਗਾਰੀਆ",
    "name:pag": "Bulgariya",
    "name:pam": "Bulgaria",
    "name:pap": "Bulgaria",
    "name:pcd": "Bulgarie",
    "name:pdc": "Bulgarien",
    "name:pfl": "Bulgarije",
    "name:pi": "बुल्गारिया",
    "name:pih": "Bulgeriya",
    "name:pl": "Bułgaria",
    "name:pms": "Bulgarìa",
    "name:pnb": "بلغاریہ",
    "name:pnt": "Βουλγαρία",
    "name:ps": "بلغاریا",
    "name:pt": "Bulgária",
    "name:qu": "Bulgarya",
    "name:rm": "Bulgaria",
    "name:rmy": "Bulgariya",
    "name:rn": "Bulgaria",
    "name:ro": "Bulgaria",
    "name:roa-rup": "Vurgaria",
    "name:roa-tara": "Bulgarie",
    "name:ru": "Болгария",
    "name:rue": "Булгарія",
    "name:rw": "Bulugariya",
    "name:sa": "बुल्गारिया",
    "name:sah": "Болгария",
    "name:sc": "Bulgaria",
    "name:scn": "Bulgarìa",
    "name:sco": "Bulgarie",
    "name:sd": "بلغاريه",
    "name:se": "Bulgária",
    "name:sg": "Bulugarïi",
    "name:sh": "Bugarska",
    "name:si": "බල්ගේරියාව",
    "name:sk": "Bulharsko",
    "name:sl": "Bolgarija",
    "name:sm": "Bultalia",
    "name:sn": "Bulgaria",
    "name:so": "Bulgaria",
    "name:sq": "Bullgaria",
    "name:sr": "Бугарска",
    "name:sr-Latn": "Bugarska",
    "name:srn": "Bulgarikondre",
    "name:ss": "iBhulgariya",
    "name:stq": "Bulgarien",
    "name:su": "Bulgaria",
    "name:sv": "Bulgarien",
    "name:sw": "Bulgaria",
    "name:szl": "Bułgaryjo",
    "name:ta": "பல்கேரியா",
    "name:te": "బల్గేరియా",
    "name:tet": "Bulgária",
    "name:tg": "Булғористон",
    "name:th": "บัลแกเรีย",
    "name:ti": "ቡልጌሪያ",
    "name:tk": "Bolgariýa",
    "name:tl": "Bulgarya",
    "name:to": "Pokalia",
    "name:tok": "ma Pokasi",
    "name:tpi": "Balgeria",
    "name:tr": "Bulgaristan",
    "name:ts": "Bulgaria",
    "name:tt": "Болгария",
    "name:tum": "Bulgaria",
    "name:tw": "Bulgaria",
    "name:tzl": "Bülgaria",
    "name:udm": "Болга́рия",
    "name:ug": "بۇلغارىيە",
    "name:uk": "Болга́рія",
    "name:ur": "بلغاریہ",
    "name:uz": "Bolgariya",
    "name:vec": "Bulgaria",
    "name:vep": "Bolgarii",
    "name:vi": "Bulgaria",
    "name:vls": "Bulgareye",
    "name:vo": "Bulgarän",
    "name:wa": "Bulgåreye",
    "name:war": "Bulgarya",
    "name:wo": "Bulgaari",
    "name:wuu": "保加利亚",
    "name:xal": "Болгармудин",
    "name:xmf": "ბულგარეთი",
    "name:yi": "בולגאַריע",
    "name:yo": "Bùlgáríà",
    "name:yue": "保加利亞",
    "name:za": "Bulgaria",
    "name:zea": "Bulharije",
    "name:zh": "保加利亚/保加利亞",
    "name:zh-Hans": "保加利亚",
    "name:zh-Hant": "保加利亞",
    "name:zh_pinyin": "Bǎojiālìyà",
    "name:zu": "IBulgariya",
    "official_name": "Репу̀блика Бълга̀рия",
    "official_name:ady": "Республикэу Булгарие",
    "official_name:af": "Republiek van Bulgarye",
    "official_name:als": "Republik Bulgarie",
    "official_name:am": "የቡልጋሪያ ሪፐብሊከ",
    "official_name:an": "Republica de Bulgaria",
    "official_name:ar": "جمهورية بلغاريا",
    "official_name:arc": "ܩܘܛܢܝܘܬܐ ܕܒܘܠܓܐܪܝܐ",
    "official_name:arz": "جمهورية بلجاريا",
    "official_name:ast": "República de Bulgaria",
    "official_name:av": "Болга́рия Жумгьурият",
    "official_name:ay": "Ripublika Bulkariya",
    "official_name:az": "Bolqarıstan Respublikası",
    "official_name:azb": "بولغاریستان جومهوریتی",
    "official_name:ba": "Болга́рия Респу́бликаһы",
    "official_name:bar": "Republik Buigarien",
    "official_name:bat-smg": "Bulgarėjės Respoblėka",
    "official_name:be": "Рэспу́бліка Балга́рыя",
    "official_name:be-tarask": "Рэспу́бліка Баўга́рыя",
    "official_name:bg": "Репу̀блика Бълга̀рия",
    "official_name:bn": "বুলগেরিয়া প্রজাতন্ত্র",
    "official_name:bpy": "প্রজাতন্ত্রি বুলগেরিয়া",
    "official_name:br": "Republik Bulgaria",
    "official_name:bs": "Republika Bugarska",
    "official_name:bxr": "Бүгэдэ Найрамдаха Болгари Улас",
    "official_name:ce": "Респу́блика Болга́ри",
    "official_name:chr": "ᏍᎦᏚᎩ ᎾᎿ ᏊᎵᎨᎵᎠ",
    "official_name:ckb": "کۆماری بولگاریا",
    "official_name:co": "Republica di Bulgaria",
    "official_name:crh": "Bulğaristan Cumhuriyeti",
    "official_name:cs": "Bulharská republika",
    "official_name:cu": "Блъгарі́ꙗ Димократі́ꙗ",
    "official_name:cv": "Тăнайçи Пăлхарĕ",
    "official_name:cy": "Gweriniaeth Bwlgaria",
    "official_name:da": "Republikken Bulgarien",
    "official_name:de": "Republik Bulgarien",
    "official_name:diq": "Cumhuriyet Bulğarıstan",
    "official_name:dsb": "Republika Bulgarska",
    "official_name:el": "Δημοκρατία της Βουλγαρίας",
    "official_name:en": "Republic of Bulgaria",
    "official_name:eo": "Bulgara Respubliko",
    "official_name:es": "República de Bulgaria",
    "official_name:et": "Bulgaaria Vabariik",
    "official_name:eu": "Bulgaria",
    "official_name:fa": "جمهوری بلغارستان",
    "official_name:fi": "Bulgarian tasavalta",
    "official_name:fiu-vro": "Bulgaaria Vabariik",
    "official_name:fo": "Lýðveldið Bulgaria",
    "official_name:fr": "République de Bulgarie",
    "official_name:frr": "Republiik Bulgarien",
    "official_name:fy": "Republyk Bulgarije",
    "official_name:ga": "Poblacht na Bulgáire",
    "official_name:gag": "Bulgariya Respublikası",
    "official_name:gl": "República de Bulgaria",
    "official_name:gu": "બલ્ગેરિયા ગણરાજ્ય",
    "official_name:gv": "Pobblaght ny Bulgeyr",
    "official_name:he": "הָרֶפּוּבְּלִיקָה הַבּוּלְגָרִית",
    "official_name:hi": "बुल्गारिया गणतंत्र",
    "official_name:hif": "Republic of Bulgaria",
    "official_name:hr": "Republika Bugarska",
    "official_name:hsb": "Republika Bołharska",
    "official_name:hu": "Bolgár Köztársaság",
    "official_name:hy": "Բուլղարիայի Հանրապետություն",
    "official_name:ia": "Republica de Bulgaria",
    "official_name:id": "Republika Bulgaria",
    "official_name:ilo": "Republika ti Bulgaria",
    "official_name:is": "Lýðveldið Búlgaría",
    "official_name:it": "Repubblica di Bulgaria",
    "official_name:ja": "ブルガリア共和国",
    "official_name:jam": "Ripoblik a Bulgieria",
    "official_name:ka": "ბულგარეთის რესპუბლიკა",
    "official_name:kk": "Болгария Республикасы",
    "official_name:kl": "Kunngiitsuuffik Bulgaria",
    "official_name:kn": "ಬಲ್ಗೇರಿಯ ಗಣರಾಜ್ಯ",
    "official_name:ko": "불가리아 공화국",
    "official_name:koi": "Республика Бӧлгария",
    "official_name:krc": "Болгария Республика",
    "official_name:ku": "Komara Bulgaristanê",
    "official_name:kv": "Болгария Республика",
    "official_name:kw": "Repoblek Bulgari",
    "official_name:ky": "Болгар Республикасы",
    "official_name:lad": "Republika Bulgaria",
    "official_name:lb": "Republik Bulgarien",
    "official_name:lez": "Республика Болгария",
    "official_name:lij": "Repubbrica Bulgara",
    "official_name:lmo": "Republega Bulgara",
    "official_name:ln": "Republíki ya Bulgaria",
    "official_name:lt": "Bulgarijos respublika",
    "official_name:lv": "Bulgārijas Republika",
    "official_name:lzh": "保加利亞共和國",
    "official_name:mai": "बुल्गारिया गणतंत्र",
    "official_name:mi": "Tūwehe Purukāria",
    "official_name:mk": "Република Бугарија",
    "official_name:ml": "റിപ്പബ്ലിക്ക് ഓഫ് ബൾഗേറിയ",
    "official_name:mn": "Бүгд Найрамдах Болгар Улс",
    "official_name:mr": "बल्गेरियाचे प्रजासत्ताक",
    "official_name:mrj": "Болгари Республика",
    "official_name:ms": "Republik Bulgaria",
    "official_name:mt": "Repubblika tal-Bulgarija",
    "official_name:my": "ဘူလ်ဂေးရီးယား ပြည်သူ့သမ္မတနိုင်ငံတော်",
    "official_name:myv": "Болгария Респу́бликась",
    "official_name:nah": "Tlācatlahtohcāyōtl Bulgaria",
    "official_name:nan": "Bulgaria Kiōng-hô-kok",
    "official_name:nds": "Republiek Bulgarien",
    "official_name:nds-nl": "Rippebliek Bulgarije",
    "official_name:ne": "गणतन्त्र बुल्गेरिया",
    "official_name:new": "बुल्गेरिया गणतन्त्र",
    "official_name:nl": "Republiek Bulgarije",
    "official_name:nn": "Republikken Bulgaria",
    "official_name:no": "Republikken Bulgaria",
    "official_name:oc": "Republica bulgara",
    "official_name:om": "Rippabliikii Bulgeeriyaa",
    "official_name:os": "Республикæ Болгари",
    "official_name:pam": "Republika ning Bulgaria",
    "official_name:pl": "Republika Bułgarii",
    "official_name:pnt": "Δημοκρατίαν τη Βουλγαρίας",
    "official_name:ps": "د بلغاريا ولسمشريزه",
    "official_name:pt": "República da Bulgária",
    "official_name:qu": "Bulgarya Ripuwlika",
    "official_name:rmy": "Republika Bulgariya",
    "official_name:ro": "Republica Bulgaria",
    "official_name:roa-rup": "Republica Vurgaria",
    "official_name:roa-tara": "Repubblica di Bulgaria",
    "official_name:ru": "Республика Болгария",
    "official_name:sah": "Болгария Республиката",
    "official_name:sc": "Republica de Bulgaria",
    "official_name:sco": "Republic o Bulgarie",
    "official_name:se": "Bulgária dásseváldi",
    "official_name:sh": "Republika Bugarska",
    "official_name:sk": "Bulharská republika",
    "official_name:sl": "Republika Bolgarija",
    "official_name:sm": "Lepulika o Bultalia",
    "official_name:so": "Jamhuuriyadda Bulgaria",
    "official_name:sq": "Republika e Bullgarisë",
    "official_name:sr": "Република Бугарска",
    "official_name:srn": "Repoliku fu Bulgari",
    "official_name:stq": "Republik Bulgarien",
    "official_name:su": "Republik Bulgaria",
    "official_name:sv": "Republiken Bulgarien",
    "official_name:sw": "Jamhuri ya Bulgaria",
    "official_name:szl": "Republika Bułgaryje",
    "official_name:ta": "பல்கேரியக் குடியரசு",
    "official_name:te": "గణతంత్ర బల్గేరియా",
    "official_name:tet": "Repúblika Bulgária",
    "official_name:th": "สาธารณรัฐบัลแกเรีย",
    "official_name:tk": "Bolgariýa Respublikasy",
    "official_name:tl": "Republika ng Bulgarya",
    "official_name:tr": "Bulgaristan Cumhuriyeti",
    "official_name:tt": "Болгария Җөмһүрияте",
    "official_name:udm": "Респу́блика Болга́рия",
    "official_name:ug": "بولغارىيە جۇمھۇرىيىتى",
    "official_name:uk": "Респу́бліка Болга́рія",
    "official_name:ur": "جمہوریہ بلغاریہ",
    "official_name:uz": "Bolgariya Respublikasi",
    "official_name:vec": "Repùblica de Bulgarìa",
    "official_name:vep": "Bolgarijan Tazovaldkund",
    "official_name:vi": "Cộng hòa Bulgaria",
    "official_name:vls": "Republiek Bulgareye",
    "official_name:wa": "Republike di Bulgåreye",
    "official_name:wo": "Republik bu Bulgaari",
    "official_name:wuu": "保加利亚共和国",
    "official_name:xal": "Болгармудин Орн",
    "official_name:xmf": "ბულგარეთიშ რესპუბლიკა",
    "official_name:yi": "רעפובליק פֿון בולגאַריע",
    "official_name:yo": "Orile-ede Olominira ile Bulgaria",
    "official_name:yue": "保加利亞共和國",
    "official_name:zh": "保加利亚共和国/保加利亞共和國",
    "official_name:zh-Hans": "保加利亚共和国",
    "official_name:zh-Hant": "保加利亞共和國",
    "official_name:zu": "IRiphabliki weBulgariya",
    "place": "country",
    "population": "7364570",
    "source:sqkm": "CIA World Factbook",
    "sqkm": "110879",
    "wikidata": "Q219",
    "wikipedia": "bg:България"
  }
},
{
  "type": "node",
  "id": 432424981,
  "lat": 63.2467777,
  "lon": 25.9209164,
  "tags": {
    "alt_name:el": "Φιλανδία",
    "alt_name:eo": "Finnio;Finnujo;Finlando;Suomio;Suomujo",
    "alt_name:lfn": "Finland",
    "country_code_iso3166_1_alpha_2": "FI",
    "int_name": "Finland",
    "is_in": "Europe",
    "is_in:continent": "Europe",
    "name": "Suomi",
    "name:af": "Finland",
    "name:ak": "Finland",
    "name:als": "Finnland",
    "name:am": "ፊንላንድ",
    "name:an": "Finlandia",
    "name:ang": "Finnland",
    "name:ar": "فنلندا",
    "name:arc": "ܦܢܠܢܕܐ",
    "name:ast": "Finlandia",
    "name:az": "Finlandiya",
    "name:ba": "Финляндия",
    "name:bar": "Finnlånd",
    "name:bat-smg": "Soumėjė",
    "name:bcl": "Finlandya",
    "name:be": "Фінляндыя",
    "name:bg": "Финландия",
    "name:bm": "Finland",
    "name:bn": "ফিনল্যান্ড",
    "name:bo": "ཧྥིན་ལན",
    "name:bpy": "ফিনল্যান্ড",
    "name:br": "Finland",
    "name:bs": "Finska",
    "name:ca": "Finlàndia",
    "name:ce": "Финлянди",
    "name:ceb": "Finlandia",
    "name:chr": "ᏫᏂᎦᏙᎯ",
    "name:co": "Finlandia",
    "name:crh": "Finlandiya",
    "name:cs": "Finsko",
    "name:csb": "Fińskô",
    "name:cu": "Соумь",
    "name:cv": "Финлянди",
    "name:cy": "Y Ffindir",
    "name:da": "Finland",
    "name:de": "Finnland",
    "name:diq": "Finlanda",
    "name:dsb": "Finska",
    "name:dv": "ފިންލޭންޑު",
    "name:dz": "ཕིན་ལེནཌ་",
    "name:ee": "Finland",
    "name:el": "Φινλανδία",
    "name:en": "Finland",
    "name:eo": "Finnlando",
    "name:es": "Finlandia",
    "name:et": "Soome",
    "name:eu": "Finlandia",
    "name:fa": "فنلاند",
    "name:ff": "Fenland",
    "name:fi": "Suomi",
    "name:fiu-vro": "Soomõ",
    "name:fo": "Finnland",
    "name:fr": "Finlande",
    "name:frp": "Finlande",
    "name:fur": "Finlande",
    "name:fy": "Finlân",
    "name:ga": "An Fhionlainn",
    "name:gan": "芬蘭",
    "name:gd": "Suòmaidh",
    "name:gl": "Finlandia",
    "name:gn": "Hĩlandia",
    "name:gu": "ફીનલેંડ",
    "name:gv": "Finnlynn",
    "name:ha": "Finlan",
    "name:hak": "Fûn-làn",
    "name:haw": "Pinilana",
    "name:he": "פינלנד",
    "name:hi": "फ़िनलैंड",
    "name:hif": "Finland",
    "name:hr": "Finska",
    "name:hsb": "Finska",
    "name:ht": "Fenlann",
    "name:hu": "Finnország",
    "name:hy": "Ֆինլանդիա",
    "name:ia": "Finlandia",
    "name:id": "Finlandia",
    "name:ie": "Finland",
    "name:ilo": "Finlandia",
    "name:io": "Finlando",
    "name:is": "Finnland",
    "name:it": "Finlandia",
    "name:ja": "フィンランド",
    "name:jbo": "finland",
    "name:ka": "ფინეთი",
    "name:kab": "Finlund",
    "name:ki": "Ufini",
    "name:kk": "Финландия",
    "name:kl": "Finlandi",
    "name:km": "ហ្វាំងឡង់",
    "name:kn": "ಫಿನ್‌ಲ್ಯಾಂಡ್",
    "name:ko": "핀란드",
    "name:ks": "فننش",
    "name:ksh": "Finnlandt",
    "name:ku": "Fînland",
    "name:kv": "Финляндия",
    "name:kw": "Pow Finn",
    "name:ky": "Финляндия",
    "name:la": "Finnia",
    "name:lb": "Finnland",
    "name:lfn": "Suomi",
    "name:lg": "Finilandi",
    "name:li": "Finland",
    "name:lij": "Finlandia",
    "name:lmo": "Finlandia",
    "name:ln": "Finilanda",
    "name:lo": "ຟິນແລນ",
    "name:lt": "Suomija",
    "name:lv": "Somija",
    "name:mdf": "Суоми мастор",
    "name:mg": "Finlandy",
    "name:mhr": "Суоми Эл",
    "name:mk": "Финска",
    "name:ml": "ഫിൻലാൻഡ്",
    "name:mn": "Финлянд",
    "name:mr": "फिनलंड",
    "name:ms": "Finland",
    "name:mt": "Finlandja",
    "name:my": "ဖင်လန်",
    "name:myv": "Суоми Мастор",
    "name:na": "Finland",
    "name:nah": "Fintlālpan",
    "name:nan": "Suomi",
    "name:nds": "Finnland",
    "name:nds-nl": "Finlaand",
    "name:ne": "फिनल्याण्ड",
    "name:new": "फिनल्यान्ड",
    "name:nl": "Finland",
    "name:nn": "Finland",
    "name:no": "Finland",
    "name:nov": "Finlande",
    "name:nrm": "Fînlande",
    "name:oc": "Finlàndia",
    "name:or": "ଫିନଲ୍ୟାଣ୍ଡ",
    "name:os": "Финлянди",
    "name:pam": "Finland",
    "name:pih": "Finland",
    "name:pl": "Finlandia",
    "name:pms": "Finlandia",
    "name:pnt": "Φινλανδία",
    "name:ps": "فنلینډ",
    "name:pt": "Finlândia",
    "name:qu": "Phinsuyu",
    "name:rm": "Finlanda",
    "name:rmy": "Finland",
    "name:rn": "Finilandi",
    "name:ro": "Finlanda",
    "name:roa-rup": "Finlanda",
    "name:ru": "Финляндия",
    "name:sa": "फिन्लैंड",
    "name:sah": "Финляндия",
    "name:sc": "Finlandia",
    "name:scn": "Finlandia",
    "name:sco": "Finland",
    "name:se": "Suopma",
    "name:sg": "Fëlânde",
    "name:sh": "Finska",
    "name:si": "ෆින්ලන්තය",
    "name:sk": "Fínsko",
    "name:sl": "Finska",
    "name:sm": "Finalagi",
    "name:sn": "Finland",
    "name:so": "Finland",
    "name:sq": "Finlanda",
    "name:sr": "Финска",
    "name:stq": "Finlound",
    "name:sv": "Finland",
    "name:sw": "Ufini",
    "name:szl": "Finlandyjo",
    "name:ta": "பின்லாந்து",
    "name:te": "ఫిన్లెండ్",
    "name:tet": "Finlándia",
    "name:tg": "Финланд",
    "name:th": "ประเทศฟินแลนด์",
    "name:ti": "ፊንላንድ",
    "name:tl": "Pinlandiya",
    "name:to": "Finilani",
    "name:tok": "ma Sumi",
    "name:tpi": "Pinlan",
    "name:tr": "Finlandiya",
    "name:tt": "Finlândiä",
    "name:tzl": "Finphäts",
    "name:udm": "Финляндия",
    "name:ug": "فىنلاندىيە",
    "name:uk": "Фінляндія",
    "name:ur": "فن لینڈ",
    "name:uz": "Finlandiya",
    "name:vec": "Finlandia",
    "name:vi": "Phần Lan",
    "name:vls": "Finland",
    "name:vo": "Suomiyän",
    "name:wa": "Finlande",
    "name:war": "Finlandya",
    "name:wo": "Finlaand",
    "name:yi": "פינלאנד",
    "name:yo": "Finlandi",
    "name:zea": "Finland",
    "name:zh": "芬兰",
    "name:zh_pinyin": "Fēnlán",
    "name:zu": "i-Finland",
    "official_name": "Suomen tasavalta",
    "official_name:ar": "جمهورية فنلندا",
    "official_name:be": "Фінляндская Рэспубліка",
    "official_name:da": "Repbulikken Finland",
    "official_name:de": "Republik Finnland",
    "official_name:el": "Δημοκρατία της Φινλανδίας",
    "official_name:en": "Republic of Finland",
    "official_name:eo": "Respubliko Finnlando",
    "official_name:es": "República de Finlandia",
    "official_name:et": "Soome Vabariik",
    "official_name:fa": "جمهوری فنلاند",
    "official_name:fi": "Suomen tasavalta",
    "official_name:fr": "République de Finlande",
    "official_name:id": "Republik Finlandia",
    "official_name:is": "Lýðveldið Finnland",
    "official_name:it": "Repubblica di Finlandia",
    "official_name:ku": "Komara Fînlandê",
    "official_name:lt": "Suomijos Respublika",
    "official_name:nn": "Republikken Finland",
    "official_name:no": "Republikken Finland",
    "official_name:pt": "República da Finlândia",
    "official_name:ru": "Финляндская Республика",
    "official_name:sk": "Fínska republika",
    "official_name:sv": "Republiken Finland",
    "official_name:ur": "جمہوریہ فن لینڈ",
    "official_name:vi": "Cộng hòa Phần Lan",
    "place": "country",
    "population": "5429894",
    "source:sqkm": "CIA World Factbook",
    "sqkm": "338145",
    "url": "http://www.finland.fi/",
    "wikidata": "Q33",
    "wikipedia": "fi:Suomi"
  }
},
{
  "type": "node",
  "id": 432424985,
  "lat": 41.6809707,
  "lon": 44.0287382,
  "tags": {
    "alt_name:eo": "Kartvelujo;Gruzio;Gruzujo",
    "alt_name:lfn": "Jorjia",
    "capital_city": "Tbilisi",
    "country_code_fips": "GG",
    "country_code_iso3166_1_alpha_2": "GE",
    "geonames:id": "614540",
    "int_name": "Georgia",
    "is_in:continent": "Europe",
    "name": "საქართველო",
    "name:ab": "Қырҭтәыла Аҳәынҭқарра",
    "name:af": "Georgië",
    "name:ak": "Gyɔgyea",
    "name:als": "Georgie",
    "name:am": "ጆርጂያ",
    "name:an": "Cheorchia",
    "name:ar": "جورجيا",
    "name:arc": "ܓܘܪܓܝܐ",
    "name:arz": "جورجيا",
    "name:ast": "Xorxa",
    "name:av": "Гуржи",
    "name:az": "Gürcüstan",
    "name:bat-smg": "Grozėjė",
    "name:be": "Грузія",
    "name:be-tarask": "Грузія",
    "name:bg": "Грузия",
    "name:bm": "Zeyɔrzi",
    "name:bn": "জর্জিয়া",
    "name:bo": "ཇོར་ཇི་ཡ།",
    "name:br": "Jorjia",
    "name:bs": "Gruzija",
    "name:ca": "Geòrgia",
    "name:ceb": "Georgia",
    "name:chr": "ᏣᎠᏥᎢ",
    "name:crh": "Gürcistan",
    "name:cs": "Gruzie",
    "name:csb": "Grëzóńskô",
    "name:cu": "Гєѡргі́ꙗ",
    "name:cv": "Грузи",
    "name:cy": "Georgia",
    "name:da": "Georgien",
    "name:de": "Georgien",
    "name:diq": "Gurcıstan",
    "name:dsb": "Georgiska",
    "name:dz": "ཇཽར་ཇཱ",
    "name:ee": "Georgia",
    "name:el": "Γεωργία",
    "name:en": "Georgia",
    "name:eo": "Kartvelio",
    "name:es": "Georgia",
    "name:et": "Gruusia",
    "name:eu": "Georgia",
    "name:fa": "گرجستان",
    "name:ff": "Jeorgii",
    "name:fi": "Georgia",
    "name:fiu-vro": "Gruusia",
    "name:fo": "Georgia",
    "name:fr": "Géorgie",
    "name:frp": "Jôrg·ie",
    "name:fur": "Gjeorgjie",
    "name:fy": "Georgje",
    "name:ga": "An tSeoirsia",
    "name:gd": "Gruisia",
    "name:gl": "Xeorxia",
    "name:gu": "જ્યોર્જીયા",
    "name:gv": "Yn Çhorshey",
    "name:ha": "Jiwarjiya",
    "name:haw": "Keokia",
    "name:he": "גיאורגיה",
    "name:hi": "जोर्जिया",
    "name:hif": "Georgia",
    "name:hr": "Gruzija",
    "name:hsb": "Georgiska",
    "name:ht": "Jeoji",
    "name:hu": "Grúzia",
    "name:hy": "Վրաստան",
    "name:ia": "Georgia",
    "name:id": "Georgia",
    "name:ie": "Georgia",
    "name:ilo": "Georgia",
    "name:io": "Gruzia",
    "name:is": "Georgía",
    "name:it": "Georgia",
    "name:ja": "グルジア",
    "name:jv": "Georgia",
    "name:ka": "საქართველო",
    "name:kab": "Jiyurji",
    "name:ki": "Jojia",
    "name:kk": "Гүржістан",
    "name:kl": "Georgia",
    "name:km": "ហ្សកហ្ស៉ី",
    "name:kn": "ಜಾರ್ಜಿಯಾ",
    "name:ko": "그루지야",
    "name:ks": "جارجِیا",
    "name:ksh": "Gejorgije",
    "name:ku": "Gurcistan",
    "name:kv": "Грузия",
    "name:kw": "Pow Grouzi",
    "name:ky": "Грузия",
    "name:la": "Georgia",
    "name:lb": "Georgien",
    "name:lfn": "Sacartvelo",
    "name:lg": "Gyogya",
    "name:li": "Georgië",
    "name:lij": "Geòrgia",
    "name:lmo": "Georgia",
    "name:ln": "Zorzi",
    "name:lo": "ຈໍເຈຍ",
    "name:lt": "Gruzija",
    "name:lv": "Gruzija",
    "name:mg": "Zeorzia",
    "name:mk": "Грузија",
    "name:ml": "ജോര്‍ജ്ജിയ",
    "name:mn": "Гүрж",
    "name:mr": "जॉर्जिया",
    "name:ms": "Georgia",
    "name:mt": "Ġeorġja",
    "name:my": "ဂျော်ဂျီယာ",
    "name:mzn": "گورجئون",
    "name:na": "Georgia",
    "name:nan": "Sakartvelo",
    "name:nds": "Georgien",
    "name:ne": "जोर्जिया",
    "name:new": "ज्योर्जिया",
    "name:nl": "Georgië",
    "name:nn": "Georgia",
    "name:no": "Georgia",
    "name:nov": "Georgia",
    "name:oc": "Georgia",
    "name:or": "ଜର୍ଜିଆ",
    "name:os": "Гуырдзыстон",
    "name:pam": "Georgia",
    "name:pih": "Jorja",
    "name:pl": "Gruzja",
    "name:pms": "Geòrgia",
    "name:pnt": "Γρουζία",
    "name:ps": "جيورجيا",
    "name:pt": "Geórgia",
    "name:qu": "Kartulsuyu",
    "name:rm": "Georgia",
    "name:rn": "Jeworujiya",
    "name:ro": "Georgia",
    "name:ru": "Грузия",
    "name:sah": "Грузия",
    "name:scn": "Giorgia",
    "name:sco": "Georgie",
    "name:se": "Georgia",
    "name:sg": "Zorzïi",
    "name:sh": "Gruzija",
    "name:si": "ජෝර්ජියාව",
    "name:sk": "Gruzínsko",
    "name:sl": "Gruzija",
    "name:sn": "Georgia",
    "name:so": "Joorjiya",
    "name:sq": "Gjeorgjia",
    "name:sr": "Грузија",
    "name:sv": "Georgien",
    "name:sw": "Georgia",
    "name:szl": "Gruzyjo",
    "name:ta": "சியார்சியா",
    "name:te": "జార్జియా",
    "name:tg": "Гурҷистон",
    "name:th": "ประเทศจอร์เจีย",
    "name:ti": "ጆርጂያ",
    "name:tk": "Gruziýa",
    "name:tl": "Heyorhiya",
    "name:to": "Sōsia",
    "name:tok": "ma Katelo",
    "name:tr": "Gürcistan",
    "name:tt": "Грузия",
    "name:tzl": "Cartavia",
    "name:udm": "Грузия",
    "name:ug": "گرۇزىيە",
    "name:uk": "Грузія",
    "name:ur": "جارجیا",
    "name:uz": "Gruziya",
    "name:vi": "Gruzia",
    "name:vo": "Grusiyän",
    "name:war": "Georgia",
    "name:wo": "Jeoorji",
    "name:wuu": "格鲁吉亚",
    "name:xal": "Гүрҗмүдн Орн Нутг",
    "name:yo": "Georgia",
    "name:yue": "格魯吉亞",
    "name:zea": "Georhië",
    "name:zh": "格鲁吉亚",
    "name:zh_pinyin": "GéLǔJíYà",
    "name:zu": "i-Georgia",
    "note": "not \"Republic of\" since 1995",
    "official_name:az": "Gürcüstan",
    "place": "country",
    "population": "4630841",
    "source:sqkm": "CIA World Factbook",
    "sqkm": "69700",
    "wikidata": "Q230",
    "wikipedia": "ka:საქართველო"
  }
},
{
  "type": "node",
  "id": 432424989,
  "lat": 38.9953683,
  "lon": 21.9877132,
  "tags": {
    "alt_name:br": "Hellaz",
    "alt_name:en": "Hellas",
    "alt_name:eo": "Grekujo",
    "capital_city": "Athens",
    "country_code_fips": "GR",
    "country_code_iso3166_1_alpha_2": "GR",
    "int_name": "Greece",
    "is_in": "Europe",
    "is_in:continent": "Europe",
    "name": "Ελλάδα",
    "name:ab": "Барзентәыла",
    "name:ace": "Yunani",
    "name:af": "Griekeland",
    "name:ak": "Greekman",
    "name:als": "Griechenland",
    "name:am": "ግሪክ",
    "name:an": "Grecia",
    "name:anc": "Ἑλλάς",
    "name:ang": "Crēcland",
    "name:ar": "اليونان",
    "name:arc": "ܝܘܢ",
    "name:arz": "اليونان",
    "name:ast": "Grecia",
    "name:av": "Герек",
    "name:ay": "Grisya",
    "name:az": "Yunanıstan",
    "name:ba": "Греция",
    "name:bar": "Griachaland",
    "name:bat-smg": "Graikėjė",
    "name:bcl": "Gresya",
    "name:be": "Грэцыя",
    "name:be-tarask": "Грэцыя",
    "name:bg": "Гърция",
    "name:bh": "यूनान",
    "name:bi": "Greece",
    "name:bm": "Gɛrɛsi",
    "name:bn": "গ্রিস",
    "name:bo": "ཀེ་རི་སི།",
    "name:bpy": "গ্রীস",
    "name:br": "Gres",
    "name:bs": "Grčka",
    "name:bxr": "Грек улас",
    "name:ca": "Grècia",
    "name:cdo": "Hĭ-lé-nà̤",
    "name:ce": "Греци",
    "name:ceb": "Gresya",
    "name:ch": "Grecia",
    "name:chr": "ᎪᎢ",
    "name:ckb": "یۆنان",
    "name:co": "Grecia",
    "name:crh": "Yunanistan",
    "name:cs": "Řecko",
    "name:csb": "Greckô",
    "name:cu": "Грьци",
    "name:cv": "Греци",
    "name:cy": "Gwlad Groeg",
    "name:da": "Grækenland",
    "name:de": "Griechenland",
    "name:diq": "Yunanıstan",
    "name:dsb": "Grichiska",
    "name:dv": "ޔޫނާން",
    "name:dz": "གྲྀས",
    "name:ee": "Greece",
    "name:el": "Ελλάδα",
    "name:en": "Greece",
    "name:eo": "Grekujo",
    "name:es": "Grecia",
    "name:et": "Kreeka",
    "name:eu": "Grezia",
    "name:ext": "Grécia",
    "name:fa": "یونان",
    "name:ff": "Yunan",
    "name:fi": "Kreikka",
    "name:fiu-vro": "Kreeka",
    "name:fo": "Grikkaland",
    "name:fr": "Grèce",
    "name:frp": "Grèce",
    "name:frr": "Griichenlönj",
    "name:fur": "Grecie",
    "name:fy": "Grikelân",
    "name:ga": "An Ghréig",
    "name:gag": "Grețiya",
    "name:gan": "希臘",
    "name:gd": "A' Ghrèig",
    "name:gl": "Grecia",
    "name:gn": "Gyresia",
    "name:gu": "ગ્રીસ",
    "name:gv": "Yn Ghreag",
    "name:ha": "Girka (ƙasa)",
    "name:hak": "Hî-lia̍p",
    "name:haw": "Helene",
    "name:he": "יוון",
    "name:hi": "यूनान",
    "name:hif": "Greece",
    "name:hr": "Grčka",
    "name:hsb": "Grjekska",
    "name:ht": "Grès",
    "name:hu": "Görögország",
    "name:hy": "Հունաստան",
    "name:ia": "Grecia",
    "name:id": "Yunani",
    "name:ie": "Grecia",
    "name:ig": "Greece",
    "name:ilo": "Gresia",
    "name:io": "Grekia",
    "name:is": "Grikkland",
    "name:it": "Grecia",
    "name:ja": "ギリシャ",
    "name:jbo": "xesygu'e",
    "name:jv": "Yunani",
    "name:ka": "საბერძნეთი",
    "name:kaa": "Gretsiya",
    "name:kab": "Lagris",
    "name:kbd": "Алыджей",
    "name:kg": "Gelesi",
    "name:ki": "Ngiriki",
    "name:kk": "Грекия",
    "name:kl": "Grækerit Nunaat",
    "name:km": "ក្រិក",
    "name:kn": "ಗ್ರೀಸ್",
    "name:ko": "그리스",
    "name:koi": "Эллада",
    "name:krc": "Греция",
    "name:ks": "گریٖس",
    "name:ksh": "Jriescheland",
    "name:ku": "Yewnanistan",
    "name:kv": "Эллада",
    "name:kw": "Pow Grek",
    "name:ky": "Греция",
    "name:la": "Graecia",
    "name:lad": "Gresia",
    "name:lb": "Griicheland",
    "name:lez": "Греция",
    "name:lfn": "Elas",
    "name:lg": "Buyonaani",
    "name:li": "Griekeland",
    "name:lij": "Greçia",
    "name:lmo": "Grecia",
    "name:ln": "Gresi",
    "name:lo": "ປະເທດກຣີຊ",
    "name:lt": "Graikija",
    "name:ltg": "Grekeja",
    "name:lv": "Grieķija",
    "name:lzh": "希臘共和國",
    "name:mdf": "Грекмастор",
    "name:mg": "Grisy",
    "name:mhr": "Греций",
    "name:mi": "Kirihi",
    "name:mk": "Грција",
    "name:ml": "ഗ്രീസ്",
    "name:mn": "Грек",
    "name:mr": "ग्रीस",
    "name:ms": "Greece",
    "name:mt": "Greċja",
    "name:mwl": "Grécia",
    "name:my": "ဂရိနိုင်ငံ",
    "name:mzn": "یونان",
    "name:na": "Grit",
    "name:nah": "Grecia",
    "name:nan": "Hi-lia̍p",
    "name:nap": "Grecia",
    "name:nds": "Grekenland",
    "name:nds-nl": "Griekenlaand",
    "name:ne": "ग्रीस",
    "name:nl": "Griekenland",
    "name:nn": "Hellas",
    "name:no": "Hellas",
    "name:nov": "Grekia",
    "name:nrm": "Grêce",
    "name:nv": "Gwíík Dineʼé Bikéyah",
    "name:ny": "Greece",
    "name:oc": "Grècia",
    "name:om": "Giriik",
    "name:or": "ଗ୍ରୀସ",
    "name:os": "Грекъ",
    "name:pa": "ਯੂਨਾਨ",
    "name:pag": "Gresia",
    "name:pam": "Grekya",
    "name:pcd": "Grèche",
    "name:pi": "ग्रीस (यूनान)",
    "name:pih": "Griese",
    "name:pl": "Grecja",
    "name:pms": "Grecia",
    "name:pnb": "یونان",
    "name:pnt": "Ελλάδα",
    "name:ps": "يونان",
    "name:pt": "Grécia",
    "name:qu": "Grisya",
    "name:rm": "Grezia",
    "name:rn": "Grecia",
    "name:ro": "Grecia",
    "name:roa-rup": "Gârția",
    "name:roa-tara": "Grecie",
    "name:ru": "Греция",
    "name:rue": "Ґреція",
    "name:rw": "Ubugereki",
    "name:sa": "यवनदेशः",
    "name:sah": "Греция",
    "name:sc": "Grèghia",
    "name:scn": "Grecia",
    "name:sco": "Greece",
    "name:sd": "يونان",
    "name:se": "Greika",
    "name:sg": "Gerêsi",
    "name:sh": "Grčka",
    "name:si": "ග්‍රීසිය",
    "name:sk": "Grécko",
    "name:sl": "Grčija",
    "name:sm": "Kuliti",
    "name:sn": "Greece",
    "name:so": "Giriig",
    "name:sq": "Greqia",
    "name:sr": "Грчка",
    "name:srn": "Grikikondre",
    "name:ss": "IGrikhi",
    "name:stq": "Griechenlound",
    "name:su": "Yunani",
    "name:sv": "Grekland",
    "name:sw": "Ugiriki",
    "name:szl": "Grecyjo",
    "name:ta": "கிரேக்க நாடு",
    "name:te": "గ్రీస్",
    "name:tet": "Grésia",
    "name:tg": "Юнон",
    "name:th": "ประเทศกรีซ",
    "name:ti": "ግሪክ",
    "name:tk": "Gresiýa",
    "name:tl": "Gresya",
    "name:to": "Kalisi",
    "name:tok": "ma Elena",
    "name:tpi": "Gris",
    "name:tr": "Yunanistan",
    "name:ts": "Greece",
    "name:tt": "Греция",
    "name:tw": "Hela",
    "name:tzl": "Graicea",
    "name:udm": "Греция",
    "name:ug": "Grétsiye",
    "name:uk": "Греція",
    "name:ur": "یونان",
    "name:uz": "Yunoniston",
    "name:vec": "Gresia",
    "name:vep": "Grekanma",
    "name:vi": "Hy Lạp",
    "name:vls": "Grieknland",
    "name:vo": "Grikän",
    "name:wa": "Grece",
    "name:war": "Gresya",
    "name:wo": "Girees",
    "name:wuu": "希腊",
    "name:xal": "Грисин Орн",
    "name:xmf": "საბერძნეთი",
    "name:yi": "גריכנלאנד",
    "name:yo": "Gríìsì",
    "name:yue": "希臘",
    "name:za": "Sihla",
    "name:zea": "Griek'nland",
    "name:zh": "希腊/希臘",
    "name:zh-Hans": "希腊",
    "name:zh-Hant": "希臘",
    "name:zh_pinyin": "Xīlà",
    "name:zu": "IGreki",
    "official_name": "Ελληνική Δημοκρατία",
    "official_name:am": "የግሪክ ዲሞክራሲ",
    "official_name:be": "Грэчаская Рэспубліка",
    "official_name:br": "Republik hellenek",
    "official_name:cs": "Řecká republika",
    "official_name:de": "Hellenische Republik",
    "official_name:el": "Ελληνική Δημοκρατία",
    "official_name:eo": "Greka Respubliko",
    "official_name:et": "Kreeka Vabariik",
    "official_name:fi": "Helleenien tasavalta",
    "official_name:id": "Republik Hellenik",
    "official_name:it": "Repubblica Ellenica",
    "official_name:ku": "Komara Helenîk",
    "official_name:lb": "Hellenesch Republik",
    "official_name:lt": "Graikijos Respublika",
    "official_name:pt": "República Helênica",
    "official_name:ru": "Греческая Республика",
    "official_name:sk": "Grécka republika",
    "official_name:sr": "Хеленска Република",
    "official_name:sv": "Republiken Grekland",
    "official_name:vi": "Cộng hòa Hy Lạp",
    "place": "country",
    "population": "11260402",
    "source": "CIA World Factbook",
    "source:population": "http://epp.eurostat.ec.europa.eu/tgm/refreshTableAction.do?tab=table&plugin=1&pcode=tps00001&language=de 2009",
    "source:sqkm": "CIA World Factbook",
    "sqkm": "131957",
    "wikidata": "Q41",
    "wikipedia": "el:Ελλάδα"
  }
},
{
  "type": "node",
  "id": 432425064,
  "lat": 45.9852129,
  "lon": 24.6859225,
  "tags": {
    "alt_name:eo": "Rumanujo",
    "alt_name:vi": "Rumani",
    "capital_city": "București",
    "country_code_fips": "RO",
    "country_code_iso3166_1_alpha_2": "RO",
    "geonames:id": "798549",
    "int_name": "Romania",
    "is_in:continent": "Europe",
    "name": "România",
    "name:af": "Roemenië",
    "name:ak": "Romenia",
    "name:am": "ሮሜኒያ",
    "name:ar": "رومانيا",
    "name:ast": "Rumanía",
    "name:az": "Rumıniya",
    "name:be": "Румынія",
    "name:bg": "Румъния",
    "name:bm": "Rumani",
    "name:bn": "রুমানিয়া",
    "name:bo": "རོ་མཱ་ནིཡ།",
    "name:br": "Roumania",
    "name:bs": "Rumunija",
    "name:ca": "Romania",
    "name:chr": "ᎶᎹᏂᏯ",
    "name:cs": "Rumunsko",
    "name:cy": "Rwmania",
    "name:da": "Rumænien",
    "name:de": "Rumänien",
    "name:dz": "རོ་མེ་ནི་ཡ",
    "name:ee": "Romania nutome",
    "name:el": "Ρουμανία",
    "name:en": "Romania",
    "name:eo": "Rumanio",
    "name:es": "Rumania",
    "name:et": "Rumeenia",
    "name:eu": "Errumania",
    "name:fa": "رومانی",
    "name:ff": "Rumanii",
    "name:fi": "Romania",
    "name:fo": "Rumenia",
    "name:fr": "Roumanie",
    "name:fur": "Romanie",
    "name:fy": "Roemeenje",
    "name:ga": "An Rómáin",
    "name:gd": "Ròmainia",
    "name:gl": "Romanía",
    "name:gu": "રોમાનિયા",
    "name:gv": "Yn Romaan",
    "name:ha": "Romaniya",
    "name:haw": "Romānia",
    "name:he": "רומניה",
    "name:hi": "रोमानिया",
    "name:hr": "Rumunjska",
    "name:hsb": "Rumunska",
    "name:hu": "Románia",
    "name:hy": "Ռումինիա",
    "name:ia": "Romania",
    "name:id": "Rumania",
    "name:io": "Rumania",
    "name:is": "Rúmenía",
    "name:it": "Romania",
    "name:ja": "ルーマニア",
    "name:jbo": "romanias",
    "name:ka": "რუმინეთი",
    "name:kab": "Rumani",
    "name:ki": "Romania",
    "name:kk": "Румыния",
    "name:kl": "Rumænia",
    "name:km": "រូម៉ានី",
    "name:kn": "ರೊಮ್ಯಾನಿಯಾ",
    "name:ko": "루마니아",
    "name:ks": "رومانِیا",
    "name:ksh": "Romäänije",
    "name:ku": "Romanya",
    "name:la": "Romania",
    "name:lb": "Rumänien",
    "name:lfn": "Romania",
    "name:lg": "Lomaniya",
    "name:li": "Roemenië",
    "name:ln": "Romani",
    "name:lo": "ລູເມເນຍ",
    "name:lt": "Rumunija",
    "name:lv": "Rumānija",
    "name:mg": "Romania",
    "name:mk": "Романија",
    "name:ml": "റുമേനിയ",
    "name:mn": "Румын",
    "name:mr": "रोमानिया",
    "name:ms": "Romania",
    "name:mt": "Rumanija",
    "name:my": "ရိုမေးနီးယား",
    "name:nds": "Rumänien",
    "name:ne": "रोमानिया",
    "name:nl": "Roemenië",
    "name:nn": "Romania",
    "name:no": "Romania",
    "name:or": "ରୋମାନିଆ",
    "name:pl": "Rumunia",
    "name:pt": "Romênia",
    "name:rm": "Rumenia",
    "name:rn": "Rumaniya",
    "name:ro": "România",
    "name:ru": "Румыния",
    "name:se": "Románia",
    "name:sg": "Rumanïi",
    "name:si": "රුමේනියාව",
    "name:sk": "Rumunsko",
    "name:sl": "Romunija",
    "name:sn": "Romania",
    "name:so": "Rumaaniya",
    "name:sq": "Rumani",
    "name:sr": "Румунија",
    "name:sv": "Rumänien",
    "name:sw": "Romania",
    "name:ta": "ருமேனியா",
    "name:te": "రోమానియా",
    "name:tg": "Руминия",
    "name:th": "ประเทศโรมาเนีย",
    "name:ti": "ሮሜኒያ",
    "name:to": "Lomēnia",
    "name:tok": "ma Lomani",
    "name:tr": "Romanya",
    "name:tzl": "Romania",
    "name:uk": "Румунія",
    "name:ur": "رومانیا",
    "name:uz": "Ruminiya",
    "name:vi": "Romania",
    "name:vo": "Rumän",
    "name:yo": "Orílẹ́ède Romaniya",
    "name:zh": "罗马尼亚",
    "name:zh_pinyin": "Luómăníyà",
    "name:zu": "i-Romania",
    "place": "country",
    "population": "21498616",
    "source:population": "http://www.insse.ro/cms/rw/resource/populatia%20stabila%20la%201%20ianuarie%202009%20si%2018.xls?download=true 2009-01-01",
    "source:sqkm": "CIA World Factbook",
    "sqkm": "238391",
    "wikidata": "Q218",
    "wikipedia": "ro:România"
  }
},
{
  "type": "node",
  "id": 432425079,
  "lat": 48.7411522,
  "lon": 19.4528646,
  "tags": {
    "alt_name:eo": "Slovakujo",
    "capital_city": "Bratislava",
    "country_code_fips": "LO",
    "country_code_iso3166_1_alpha_2": "SK",
    "int_name": "Slovak Republic",
    "is_in": "Europe",
    "is_in:continent": "Europe",
    "name": "Slovensko",
    "name:af": "Slowakye",
    "name:ak": "Slovakia",
    "name:am": "ስሎቫኪያ",
    "name:ar": "سلوفاكيا",
    "name:ast": "Eslovaquia",
    "name:az": "Slovakiya",
    "name:be": "Славакія",
    "name:bg": "Словакия",
    "name:bm": "Slowaki",
    "name:bn": "শ্লোভাকিয়া",
    "name:bo": "ས་ལཽ་ཝཀྱ།",
    "name:br": "Slovakia",
    "name:bs": "Slovačka",
    "name:ca": "Eslovàquia",
    "name:chr": "ᏍᎶᏩᎩᎠ",
    "name:cs": "Slovensko",
    "name:cy": "Slofacia",
    "name:da": "Slovakiet",
    "name:de": "Slowakei",
    "name:dz": "སུ་ལོ་བཱ་ཀི་ཡ",
    "name:ee": "Slovakia nutome",
    "name:el": "Σλοβακία",
    "name:en": "Slovakia",
    "name:eo": "Slovakio",
    "name:es": "Eslovaquia",
    "name:et": "Slovakkia",
    "name:eu": "Eslovakia",
    "name:fa": "اسلواکی",
    "name:ff": "Slowakii",
    "name:fi": "Slovakia",
    "name:fo": "Slovakia",
    "name:fr": "Slovaquie",
    "name:fur": "Slovachie",
    "name:fy": "Slowakije",
    "name:ga": "An tSlóvaic",
    "name:gd": "An t-Slòbhac",
    "name:gl": "Eslovaquia",
    "name:gu": "સ્લોવેકિયા",
    "name:gv": "Yn Clovack",
    "name:ha": "Sulobakiya",
    "name:haw": "Solowakia",
    "name:he": "סלובקיה",
    "name:hi": "स्लोवाकिया",
    "name:hr": "Slovačka",
    "name:hu": "Szlovákia",
    "name:hy": "Սլովակիա",
    "name:ia": "Slovachia",
    "name:id": "Slowakia",
    "name:io": "Slovakia",
    "name:is": "Slóvakía",
    "name:it": "Slovacchia",
    "name:ja": "スロバキア",
    "name:jbo": "slovensk",
    "name:ka": "სლოვაკეთი",
    "name:kab": "Sluvakya",
    "name:ki": "Slovakia",
    "name:kl": "Slovakia",
    "name:km": "ស្លូវ៉ាគី",
    "name:kn": "ಸ್ಲೋವಾಕಿಯಾ",
    "name:ko": "슬로바키아",
    "name:ks": "سَلوواکِیا",
    "name:ksh": "de ẞlowakei",
    "name:ku": "Slovakya",
    "name:la": "Slovacia",
    "name:lb": "Slowakei",
    "name:lfn": "Slovensco",
    "name:lg": "Sirovakya",
    "name:li": "Slowakieë",
    "name:ln": "Silovaki",
    "name:lo": "ສະໂລວາເກຍ",
    "name:lt": "Slovakija",
    "name:lv": "Slovākija",
    "name:mg": "Slovakia",
    "name:mk": "Словачка",
    "name:ml": "സ്ലോവാക്യ",
    "name:mn": "Словак",
    "name:mr": "स्लोव्हाकिया",
    "name:ms": "Slovakia",
    "name:mt": "Slovakkja",
    "name:my": "စလိုဗေးကီးယား",
    "name:nds": "Slowakei",
    "name:ne": "स्लोभाकिया",
    "name:nl": "Slowakije",
    "name:nn": "Slovakia",
    "name:no": "Slovakia",
    "name:oc": "Eslovaquia",
    "name:or": "ସ୍ଲୋଭାକିଆ",
    "name:pl": "Słowacja",
    "name:pt": "Eslováquia",
    "name:rm": "Slovachia",
    "name:rn": "Silovakiya",
    "name:ro": "Slovacia",
    "name:ru": "Словакия",
    "name:se": "Slovákia",
    "name:sg": "Solovakïi",
    "name:si": "ස්ලෝවැකියාව",
    "name:sk": "Slovensko",
    "name:sl": "Slovaška",
    "name:sn": "Slovakia",
    "name:so": "Slovakia",
    "name:sq": "Sllovaki",
    "name:sr": "Словачка",
    "name:sv": "Slovakien",
    "name:sw": "Slovakia",
    "name:ta": "ஸ்லோவாகியா",
    "name:te": "స్లోవేకియా",
    "name:tg": "Словакия",
    "name:th": "ประเทศสโลวาเกีย",
    "name:ti": "ስሎቫኪያ",
    "name:to": "Silōvakia",
    "name:tok": "ma Lowenki",
    "name:tr": "Slovakya",
    "name:tzl": "Slovacja",
    "name:uk": "Словаччина",
    "name:ur": "سلوواکیہ",
    "name:uz": "Slovakiya",
    "name:vi": "Slovakia",
    "name:vo": "Slovakiyän",
    "name:yo": "Orílẹ́ède Silofakia",
    "name:zh": "斯洛伐克",
    "name:zh_pinyin": "Sīluòfákè",
    "name:zu": "i-Slovakia",
    "nat_name": "Slovenská republika",
    "official_name:be": "Славацкая рэспубліка",
    "official_name:cs": "Slovenská republika",
    "official_name:el": "Δημοκρατία της Σλοβακίας",
    "official_name:en": "Slovak Republic",
    "official_name:eo": "Slovaka Respubliko",
    "official_name:et": "Slovaki Vabariik",
    "official_name:fr": "République slovaque",
    "official_name:id": "Republik Slowakia",
    "official_name:ku": "Komara Slovakyayê",
    "official_name:lt": "Slovakijos Respublika",
    "official_name:pt": "República Eslovaca",
    "official_name:ro": "Republica Slovacă",
    "official_name:ru": "Словацкая Республика",
    "official_name:sk": "Slovenská republika",
    "official_name:sr": "Словачка Република",
    "official_name:uz": "Slovakiya Respublikasi",
    "official_name:vi": "Cộng Hòa Slovakia",
    "place": "country",
    "population": "5404322",
    "reg_name": "Slovensko",
    "source:sqkm": "CIA World Factbook",
    "sqkm": "49035",
    "wikidata": "Q214",
    "wikipedia": "sk:Slovensko"
  }
},
{
  "type": "node",
  "id": 433483540,
  "lat": 49.2214561,
  "lon": -2.1358386,
  "tags": {
    "alt_name:el": "Ζέρσεϊ;Υερσέη;Τζέρσι;Τζέρζι;Τζέρσεϋ;Ζέρσεϋ;Ιερσέη;Τζέρσυ;Τζέρζυ",
    "country_code_iso3166_1_alpha_2": "JE",
    "is_in:continent": "Europe",
    "name": "Jersey",
    "name:am": "ጀርሲ",
    "name:ar": "جيرسي",
    "name:ast": "Xerséi",
    "name:az": "Cörsi",
    "name:be": "Джэрсі",
    "name:bg": "о. Джързи",
    "name:bn": "জার্সি",
    "name:br": "Jerzenez",
    "name:bs": "Džersi",
    "name:ca": "Jersey",
    "name:chr": "ᏨᎵᏏ",
    "name:de": "Jersey",
    "name:dz": "ཇེར་སི",
    "name:ee": "Dzɛse nutome",
    "name:el": "Τζέρσεϊ",
    "name:en": "Jersey",
    "name:eo": "Ĵerzejo",
    "name:es": "Jersey",
    "name:fa": "جرزی",
    "name:fi": "Jersey",
    "name:fr": "Jersey",
    "name:fra-jer": "Jèrri",
    "name:ga": "Geirsí",
    "name:gd": "Deàrsaidh",
    "name:gu": "જર્સી",
    "name:gv": "Jersee",
    "name:he": "ג׳רסי",
    "name:hi": "जर्सी",
    "name:hu": "Jersey",
    "name:is": "Jersey",
    "name:it": "Jersey",
    "name:ja": "ジャージー",
    "name:ka": "ჯერსი",
    "name:km": "ជឺស៊ី",
    "name:kn": "ಜೆರ್ಸಿ",
    "name:ko": "저지",
    "name:ks": "جٔرسی",
    "name:ksh": "Jööseh",
    "name:la": "Andium",
    "name:lfn": "Jersi",
    "name:lo": "ເຈີຊີ",
    "name:lt": "Džersis",
    "name:lv": "Džērsija",
    "name:mk": "Џерси",
    "name:ml": "ജേഴ്സി",
    "name:mn": "Жерси",
    "name:mr": "जर्सी",
    "name:my": "ဂျာစီ",
    "name:nds": "Jersey",
    "name:ne": "जर्सी",
    "name:no": "Jersey",
    "name:or": "ଜର୍ସି",
    "name:pl": "Jersey",
    "name:ru": "Джерси",
    "name:si": "ජර්සි",
    "name:sk": "Jersey",
    "name:sr": "Џерзи",
    "name:sv": "Jersey",
    "name:ta": "ஜெர்சி",
    "name:te": "జర్సి",
    "name:th": "เจอร์ซีย์",
    "name:to": "Selusī",
    "name:tt": "Җерси",
    "name:uk": "Джерсі",
    "name:ur": "جرسی",
    "name:vi": "Jersey",
    "name:zh": "泽西岛",
    "name:zh_pinyin": "Zéxī Dǎo",
    "name:zu": "isi-Jersey",
    "note": "Jersey is ruled by the Queen, but it is not a part of the Commonwealth.",
    "official_name": "Bailiwick of Jersey",
    "official_name:fr": "Baillage de Jersey",
    "official_name:pl": "Baliwat Jersey",
    "place": "country",
    "population": "97857",
    "source:sqkm": "CIA World Factbook",
    "sqkm": "116",
    "wikidata": "Q785",
    "wikipedia": "en:Jersey"
  }
},
{
  "type": "node",
  "id": 445970763,
  "lat": 42.9868853,
  "lon": 19.5180992,
  "tags": {
    "ISO3166-1": "ME",
    "alt_name:lfn": "Montenegro",
    "capital_city": "Podgorica",
    "country_code_fips": "MJ",
    "country_code_iso3166_1_alpha_2": "ME",
    "is_in:continent": "Europe",
    "name": "Crna Gora / Црна Гора",
    "name:ace": "Monténègrô",
    "name:af": "Montenegro",
    "name:als": "Montenegro",
    "name:am": "ሞንቴኔግሮ",
    "name:an": "Montenegro",
    "name:ang": "Sweartbeorg",
    "name:ar": "الجبل الأسود",
    "name:arc": "ܛܘܪܐ ܐܘܟܡܐ",
    "name:arz": "مونتينيجرو",
    "name:ast": "Montenegru",
    "name:av": "Чеэраб Меэр",
    "name:az": "Çernoqoriya",
    "name:ba": "Черногория",
    "name:bar": "Montenegro",
    "name:bat-smg": "Joudkalnėjė",
    "name:bcl": "Montenegro",
    "name:be": "Чарнагорыя",
    "name:be-tarask": "Чарнагорыя",
    "name:bg": "Черна гора",
    "name:bi": "Montenegro",
    "name:bn": "মন্টিনিগ্রো",
    "name:bo": "མོན་ཊེནིག་རོ།",
    "name:bpy": "মন্টিনিগ্রো",
    "name:br": "Montenegro",
    "name:bs": "Crna Gora",
    "name:bxr": "Монтенегро",
    "name:ca": "Montenegro",
    "name:ce": "Черногори",
    "name:ceb": "Montenegro",
    "name:chr": "ᎼᏂᏔᏁᎦᎶ",
    "name:ckb": "مۆنتینیگرۆ",
    "name:crh": "Montenegro",
    "name:cs": "Černá Hora",
    "name:csb": "Czôrnogóra",
    "name:cu": "Чрьна́ Гора́",
    "name:cv": "Черногори",
    "name:cy": "Montenegro",
    "name:da": "Montenegro",
    "name:de": "Montenegro",
    "name:diq": "Montenegro",
    "name:dsb": "Carnogórska",
    "name:dv": "މޮންޓެނީގުރޯ",
    "name:dz": "མོན་ཊི་ནེག་རོ",
    "name:ee": "Montenegro",
    "name:el": "Μαυροβούνιο",
    "name:en": "Montenegro",
    "name:eo": "Montenegro",
    "name:es": "Montenegro",
    "name:et": "Montenegro",
    "name:eu": "Montenegro",
    "name:ext": "Montenegru",
    "name:fa": "مونته‌نگرو",
    "name:fi": "Montenegro",
    "name:fiu-vro": "Montõnegro",
    "name:fo": "Montenegro",
    "name:fr": "Monténégro",
    "name:frp": "Montènègro",
    "name:frr": "Montenegro",
    "name:fur": "Montenegro",
    "name:fy": "Montenegro",
    "name:ga": "Montainéagró",
    "name:gag": "Çernogoriya",
    "name:gd": "Am Monadh Neagrach",
    "name:gl": "Montenegro",
    "name:gu": "મૉન્ટેંનેગ્રો",
    "name:gv": "Montenegro",
    "name:hak": "Mùng-thi̍t-nui-kô-lò",
    "name:haw": "Montenegero",
    "name:he": "מונטנגרו",
    "name:hi": "मोंटेनेग्रो",
    "name:hif": "Montenegro",
    "name:hr": "Crna Gora",
    "name:hsb": "Čorna Hora",
    "name:ht": "Montenegwo",
    "name:hu": "Montenegró",
    "name:hy": "Չեռնոգորիա",
    "name:ia": "Montenegro",
    "name:id": "Montenegro",
    "name:ie": "Montenegro",
    "name:ilo": "Montenegro",
    "name:io": "Montenegro",
    "name:is": "Svartfjallaland",
    "name:it": "Montenegro",
    "name:ja": "モンテネグロ",
    "name:jbo": "tsrnagoras",
    "name:jv": "Montenégro",
    "name:ka": "მონტენეგრო",
    "name:kaa": "Shernogoriya",
    "name:kbd": "КъущхьэфӀыцӀэ",
    "name:kg": "Monte Negro",
    "name:kk": "Черногория",
    "name:kl": "Montenegro",
    "name:km": "ម៉ុងតេណេហ្គ្រោ",
    "name:kn": "ಮಾಂಟೆನೆಗ್ರೊ",
    "name:ko": "몬테네그로",
    "name:koi": "Цӧрнагора",
    "name:krc": "Черногория",
    "name:ks": "موٹونیٛگِریو",
    "name:ksh": "et Monteneejro",
    "name:ku": "Montenegro",
    "name:kv": "Черногория",
    "name:kw": "Montenegro",
    "name:ky": "Черногория",
    "name:la": "Mons Niger",
    "name:lad": "Montenegro",
    "name:lb": "Montenegro",
    "name:lfn": "Tsernagora",
    "name:li": "Montenegro",
    "name:lij": "Monteneigro",
    "name:lmo": "Muntnegher",
    "name:ln": "Montenegro",
    "name:lo": "ມອນເຕເນໂກຣ",
    "name:lt": "Juodkalnija",
    "name:ltg": "Malnkalneja",
    "name:lv": "Melnkalne",
    "name:mhr": "Шемкурык Эл",
    "name:mi": "Monotenīkoro",
    "name:mk": "Црна Гора",
    "name:ml": "മോണ്ടെനെഗ്രൊ",
    "name:mn": "Монтенегро",
    "name:mr": "माँटेनिग्रो",
    "name:ms": "Montenegro",
    "name:mt": "Montenegro",
    "name:my": "မွန်တီနိဂရိုး",
    "name:na": "Montenegro",
    "name:nah": "Tlīltepēc",
    "name:nan": "O͘-soaⁿ Kiōng-hô-kok",
    "name:nap": "Montenegro",
    "name:nds": "Montenegro",
    "name:nds-nl": "Montenegro",
    "name:ne": "मोन्टेनेग्रो",
    "name:nl": "Montenegro",
    "name:nn": "Montenegro",
    "name:no": "Montenegro",
    "name:nov": "Montenegro",
    "name:nrm": "Crna Gora",
    "name:nv": "Dziłizhin Bikéyah",
    "name:oc": "Montenegro",
    "name:or": "ମଣ୍ଟେଗ୍ରୋ",
    "name:os": "Черногори",
    "name:pa": "ਮੋਂਟੇਨੇਗਰੋ",
    "name:pap": "Montenegro",
    "name:pcd": "Noérmont",
    "name:pih": "Montiniegrow",
    "name:pl": "Czarnogóra",
    "name:pms": "Montnèigr",
    "name:pnb": "مونٹی نیگرو",
    "name:pnt": "Μαυροβούνιον",
    "name:ps": "مانټېنېګرو",
    "name:pt": "Montenegro",
    "name:qu": "Yanaurqu",
    "name:rm": "Montenegro",
    "name:ro": "Muntenegru",
    "name:roa-rup": "Montenegro",
    "name:roa-tara": "Mondegnure",
    "name:ru": "Черногория",
    "name:rw": "Montenegoro",
    "name:sah": "Монтенегро",
    "name:sc": "Montenegro",
    "name:scn": "Montenegru",
    "name:sco": "Montenegro",
    "name:se": "Montenegro",
    "name:sh": "Crna Gora",
    "name:si": "මොන්ඩිනීග්‍රෝ",
    "name:sk": "Čierna Hora",
    "name:sl": "Črna gora",
    "name:sm": "Montenegro",
    "name:so": "Montenegro",
    "name:sq": "Mali i Zi",
    "name:sr": "Црна Гора",
    "name:ss": "IMonthenekho",
    "name:stq": "Montenegro",
    "name:su": "Monténégro",
    "name:sv": "Montenegro",
    "name:sw": "Montenegro",
    "name:szl": "Czorno Gůra",
    "name:ta": "மொண்டெனேகுரோ",
    "name:te": "మోంటేనేగ్రో",
    "name:tg": "Монтенегро",
    "name:th": "ประเทศมอนเตเนโกร",
    "name:tk": "Çernogoriýa",
    "name:tl": "Montenegro",
    "name:to": "Monitenikalo",
    "name:tr": "Karadağ",
    "name:tt": "Монтенегро",
    "name:ug": "Chérnogoriye",
    "name:uk": "Чорногорія",
    "name:ur": "مونٹینیگرو",
    "name:uz": "Chernogoriya",
    "name:vec": "Montenégro",
    "name:vep": "Mustmägi",
    "name:vi": "Montenegro",
    "name:vls": "Montenegro",
    "name:vo": "Montenegrän",
    "name:war": "Montenegro",
    "name:wo": "Montenegro",
    "name:wuu": "黑山共和国",
    "name:xal": "Хар Уулин Орн",
    "name:xmf": "ჩერნოგორია",
    "name:yi": "מאנטענעגרא",
    "name:yo": "Montenẹ́grò",
    "name:yue": "黑山",
    "name:zea": "Montenehro",
    "name:zh": "黑山",
    "name:zu": "i-Montenegro",
    "place": "country",
    "population": "678177",
    "source:sqkm": "CIA World Factbook",
    "sqkm": "13812",
    "wikidata": "Q236"
  }
},
{
  "type": "node",
  "id": 838090640,
  "lat": 54.7023545,
  "lon": -3.2765753,
  "tags": {
    "alt_name:eo": "Britujo",
    "alt_name:sr": "УК;У.К.",
    "alt_name:vi": "Vương quốc Liên hiệp Anh",
    "country_code_iso3166_1_alpha_2": "GB",
    "driving_side": "left",
    "is_in": "Europe",
    "is_in:continent": "Europe",
    "name": "United Kingdom",
    "name:abbreviation": "UK",
    "name:af": "Groot-Brittanje",
    "name:ak": "Ahendiman Nkabom",
    "name:am": "እንግሊዝ",
    "name:ar": "المملكة المتحدة",
    "name:ast": "Reinu Xuníu",
    "name:az": "Birləşmiş Krallıq",
    "name:ba": "Бөйөк Британия",
    "name:be": "Вялікабрытанія",
    "name:bg": "Обединено кралство",
    "name:bm": "Angilɛtɛri",
    "name:bn": "যুক্তরাজ্য",
    "name:bo": "དབྱིན་ཇི་",
    "name:br": "Rouantelezh-Unanet",
    "name:bs": "Velika Britanija",
    "name:ca": "Regne Unit",
    "name:chr": "ᎩᎵᏏᏲ",
    "name:cs": "Velká Británie",
    "name:cy": "Deyrnas Unedig",
    "name:da": "Storbritannien",
    "name:de": "Vereinigtes Königreich",
    "name:dz": "ཡུ་ནཱའི་ཊེཌ་ ཀིང་ཌམ",
    "name:ee": "United Kingdom nutome",
    "name:el": "Ηνωμένο Βασίλειο",
    "name:en": "United Kingdom",
    "name:eo": "Britio",
    "name:es": "Reino Unido",
    "name:et": "Suurbritannia",
    "name:eu": "Erresuma Batua",
    "name:fa": "بریتانیا",
    "name:ff": "Laamateeri Rentundi",
    "name:fi": "Yhdistynyt kuningaskunta",
    "name:fo": "Stóra Bretland",
    "name:fr": "Royaume-Uni",
    "name:fur": "Ream unît",
    "name:fy": "Feriene Keninkryk",
    "name:ga": "An Ríocht Aontaithe",
    "name:gd": "An Rìoghachd Aonaichte",
    "name:gl": "Reino Unido",
    "name:gu": "યુનાઇટેડ કિંગડમ",
    "name:gv": "Rywvaneth Unys",
    "name:ha": "Birtaniya",
    "name:haw": "Aupuni Mōʻī Hui Pū ʻIa",
    "name:he": "בריטניה",
    "name:hi": "ब्रितन",
    "name:hr": "Ujedinjeno Kraljevstvo Velike Britanije i Sjeverne Irske",
    "name:hsb": "Zjednoćene kralestwo",
    "name:hu": "Egyesült Királyság",
    "name:hy": "Մեծ Բրիտանիա",
    "name:ia": "Regno Unite",
    "name:id": "Inggris",
    "name:ii": "ꑱꇩ",
    "name:io": "Unionita Rejio",
    "name:is": "Bretland",
    "name:it": "Regno Unito",
    "name:ja": "イギリス",
    "name:jbo": "ritygu'e",
    "name:ka": "დიდი ბრიტანეთი",
    "name:kab": "Tagelda Yedduklen",
    "name:ki": "Ngeretha",
    "name:kk": "Ұлыбритания",
    "name:kl": "Tuluit Nunaat",
    "name:km": "ចក្រភព​អង់គ្លេស",
    "name:kn": "ಬ್ರಿಟನ್/ಇಂಗ್ಲೆಂಡ್",
    "name:ko": "영국",
    "name:ks": "یُنایٹِڑ کِنٛگڈَم",
    "name:ksh": "Jruußbrettannije",
    "name:ku": "Keyaniya Yekbûyî",
    "name:kw": "Rywvaneth Unys",
    "name:lb": "Vereenegt Kinnekräich",
    "name:lfn": "Rena Unida",
    "name:lg": "Bungereza",
    "name:ln": "Angɛlɛtɛ́lɛ",
    "name:lo": "ສະຫະລາດຊະອານາຈັກ",
    "name:lt": "Didžioji Britanija",
    "name:lv": "Lielbritānija",
    "name:mg": "Angletera",
    "name:mk": "Велика Британија",
    "name:ml": "ബ്രിട്ടൻ",
    "name:mr": "ब्रिटन",
    "name:mt": "Ingilterra",
    "name:my": "ယူနိုက်တက်ကင်းဒမ်း",
    "name:nds": "Vereenigt Königriek",
    "name:ne": "संयुक्त अधिराज्य",
    "name:nl": "Verenigd Koninkrijk",
    "name:nn": "Storbritannia",
    "name:no": "Storbritannia",
    "name:oc": "Reialme Unit",
    "name:or": "ବ୍ରିଟେନ୍",
    "name:os": "Стыр Британи",
    "name:pl": "Wielka Brytania",
    "name:ps": "برتانیه",
    "name:pt": "Reino Unido",
    "name:rm": "Reginavel Unì",
    "name:rn": "Ubwongereza",
    "name:ro": "Marea Britanie",
    "name:ru": "Великобритания",
    "name:scn": "Regnu Unitu",
    "name:se": "Stuorra-Británnia",
    "name:sg": "Ködörögbïä--Ôko",
    "name:si": "එක්සත් රාජධානිය",
    "name:sk": "Spojené kráľovstvo",
    "name:sl": "Velika Britanija",
    "name:sq": "Mbretëria e Bashkuar",
    "name:sr": "Уједињено Краљевство",
    "name:sv": "Storbritannien",
    "name:sw": "Uingereza",
    "name:ta": "பிரிடிஷ் கூட்டரசு",
    "name:te": "బ్రిటన్",
    "name:th": "สหราชอาณาจักร",
    "name:ti": "እንግሊዝ",
    "name:to": "Pilitānia",
    "name:tok": "ma Juke",
    "name:tr": "Birleşik Krallık",
    "name:tt": "Бөекбритания",
    "name:tzl": "Regipäts Viensiçat",
    "name:uk": "Велика Британія",
    "name:ur": "سلطنت متحدہ",
    "name:uz": "Бирлашган Қироллик",
    "name:vi": "Vương quốc Anh",
    "name:vo": "Regän Pebalöl",
    "name:yo": "Orílẹ́ède Omobabirin",
    "name:zh": "英国",
    "name:zu": "i-United Kingdom",
    "official_name": "United Kingdom of Great Britain and Northern Ireland",
    "official_name:be": "Злучанае Каралеўства Вялікабрытаніі і Паўночнай Ірландыі",
    "official_name:en": "United Kingdom of Great Britain and Northern Ireland",
    "official_name:eo": "Unuiĝinta Reĝlando de Granda Britio kaj Nord-Irlando",
    "official_name:es": "Reino Unido de Gran Bretaña e Irlanda del Norte",
    "official_name:fr": "Royaume-Uni de Grande-Bretagne et d'Irlande du Nord",
    "official_name:it": "Regno Unito di Gran Bretagna e Irlanda del Nord",
    "official_name:ku": "Keyaniya Yekbûyî ya Brîtaniya Mezin û Bakurê Îrlandê",
    "official_name:no": "Det forente kongeriket Storbritannia og Nord-Irland",
    "official_name:pl": "Zjednoczone Królestwo Wielkiej Brytanii i Irlandii Północnej",
    "official_name:ru": "Соединенное Королевство Великобритании и Северной Ирландии",
    "official_name:scn": "Regnu Unitu di Gran Britagna e Irlanna dû Nord",
    "official_name:sr": "Уједињено Краљевство Велике Британије и Северне Ирске",
    "official_name:vi": "Vương quốc Liên hiệp Anh và Bắc Ireland",
    "place": "country",
    "population": "61792000",
    "short_name": "UK",
    "short_name:vo": "Britän",
    "source:population": "http://www.statistics.gov.uk/cci/nugget.asp?id=6 mid 2009",
    "source:sqkm": "CIA World Factbook",
    "sqkm": "243610",
    "wikidata": "Q145",
    "wikipedia": "de:United Kingdom"
  }
},
{
  "type": "node",
  "id": 1420871007,
  "lat": 52.8651960,
  "lon": -7.9794599,
  "tags": {
    "ISO3166-1": "IE",
    "ISO3166-1:alpha2": "IE",
    "ISO3166-1:alpha3": "IRL",
    "ISO3166-1:numeric": "372",
    "alt_name:eo": "Ejro",
    "alt_name:vi": "Ai-len",
    "capital_city": "Dublin",
    "country_code_fips": "EI",
    "country_code_iso3166_1_alpha_2": "IE",
    "geonames:id": "2963597",
    "int_name": "Ireland",
    "is_in:continent": "Europe",
    "is_in:ocean": "Atlantic",
    "name": "Ireland",
    "name:ace": "Irlandia",
    "name:af": "Ierland",
    "name:ak": "Aereland",
    "name:als": "Irland",
    "name:am": "አየርላንድ",
    "name:an": "Irlanda",
    "name:ang": "Īrland Cynewīse",
    "name:ar": "أيرلندا",
    "name:arc": "ܩܘܛܢܝܘܬܐ ܕܐܝܪܠܢܕ",
    "name:arz": "جمهورية ايرلاندا",
    "name:ast": "República d'Irlanda",
    "name:ay": "Irlandiya",
    "name:az": "İrlandiya",
    "name:ba": "Ирландия",
    "name:bar": "Irland",
    "name:bat-smg": "Airėjė",
    "name:be": "Ірландыя",
    "name:be-tarask": "Ірляндыя",
    "name:bg": "Ирландия",
    "name:bi": "Ireland",
    "name:bm": "Irilandi",
    "name:bn": "আয়ার্লণ্ড",
    "name:bo": "ཨ་ཡར་ལནཌ།",
    "name:br": "Iwerzhon",
    "name:bs": "Irska",
    "name:bug": "Irlandia",
    "name:bxr": "Ирланд",
    "name:ca": "Irlanda",
    "name:cdo": "Ái-ī-làng",
    "name:ce": "Ирланди",
    "name:ceb": "Irlanda",
    "name:chr": "ᎠᎢᎴᏂᏗ",
    "name:ckb": "ئیرلەند",
    "name:co": "Irlanda",
    "name:cs": "Irsko",
    "name:csb": "Irlandëjô",
    "name:cu": "Єирь",
    "name:cv": "Ирланди Республики",
    "name:cy": "Iwerddon",
    "name:da": "Irland",
    "name:de": "Irland",
    "name:diq": "Cumhuriyetê İrlanda",
    "name:dsb": "Irska",
    "name:dv": "އަޔަލޭންޑުގެ ޖުމްހޫރިއްޔާ",
    "name:dz": "ཨཱ་ཡ་ལེནཌ",
    "name:ee": "Ireland nutome",
    "name:el": "Ιρλανδία",
    "name:en": "Ireland",
    "name:eo": "Irlando",
    "name:es": "Irlanda",
    "name:et": "Iirimaa",
    "name:eu": "Irlanda",
    "name:ext": "Irlanda",
    "name:fa": "ایرلند",
    "name:ff": "Irlannda",
    "name:fi": "Irlanti",
    "name:fiu-vro": "Iirimaa",
    "name:fo": "Írland",
    "name:fr": "Irlande",
    "name:frp": "Irlande",
    "name:frr": "Irlönj",
    "name:fur": "Irlande",
    "name:fy": "Ierlân",
    "name:ga": "Éire",
    "name:gag": "İrlandiya",
    "name:gan": "愛爾蘭",
    "name:gd": "Èirinn",
    "name:gl": "Irlanda",
    "name:gn": "Ilandia",
    "name:gu": "આયર્લેંડ",
    "name:gv": "Nerin",
    "name:ha": "Ayalan",
    "name:haw": "‘Ilelani",
    "name:he": "אירלנד",
    "name:hi": "आयरलैंड",
    "name:hif": "Republic of Ireland",
    "name:hr": "Irska",
    "name:hsb": "Irska",
    "name:ht": "Ilann",
    "name:hu": "Írország",
    "name:hy": "Իռլանդիա",
    "name:ia": "Irlanda",
    "name:id": "Irlandia",
    "name:ie": "Irland",
    "name:ilo": "Republika iti Irlánda",
    "name:io": "Republiko di Irlando",
    "name:is": "Írland",
    "name:it": "Irlanda",
    "name:ja": "アイルランド",
    "name:jbo": "airland",
    "name:jv": "Republik Irlandia",
    "name:ka": "ირლანდია",
    "name:kaa": "İrlandiya",
    "name:kab": "Lirlund",
    "name:kbd": "Ирлэнд",
    "name:ki": "Ayalandi",
    "name:kk": "Ирландия",
    "name:kl": "Irlandi",
    "name:km": "អៀរឡង់",
    "name:kn": "ಐರ್ಲೆಂಡ್",
    "name:ko": "아일랜드",
    "name:koi": "Ирму",
    "name:krc": "Ирландия",
    "name:ks": "اَیَرلینٛڑ",
    "name:ksh": "Irrland",
    "name:ku": "Îrland",
    "name:kv": "Ирландия",
    "name:kw": "Repoblek Wordhen",
    "name:ky": "Ирландия",
    "name:la": "Hibernia",
    "name:lad": "Irlanda",
    "name:lb": "Irland",
    "name:lez": "Ирландия",
    "name:lfn": "Er",
    "name:lg": "Ayalandi",
    "name:li": "Ierland",
    "name:lij": "Éire",
    "name:lmo": "Irlanda",
    "name:ln": "Irelandɛ",
    "name:lo": "ໄອແລນ",
    "name:lt": "Airija",
    "name:ltg": "Eireja",
    "name:lv": "Īrija",
    "name:mg": "Irlandy",
    "name:mi": "Airangi",
    "name:mk": "Ирска",
    "name:ml": "അയർലാൻഡ്",
    "name:mn": "Ирланд",
    "name:mr": "आयर्लंड",
    "name:ms": "Ireland",
    "name:mt": "Irlanda",
    "name:mwl": "Irlanda",
    "name:my": "အိုင်ယာလန်",
    "name:na": "Ripubrikit Airerand",
    "name:nah": "Irtlālpan",
    "name:nan": "Éire",
    "name:nds": "Irland",
    "name:nds-nl": "Ierlaand",
    "name:ne": "आइरल्याण्ड",
    "name:new": "गणतन्त्र आयरल्यान्द",
    "name:nl": "Ierland",
    "name:nn": "Irland",
    "name:no": "Irland",
    "name:nov": "Republike de Irlande",
    "name:nrm": "Républyique d'Irlande",
    "name:nv": "Bitsiighaʼ Łichííʼí Bikéyah",
    "name:oc": "Republica d'Irlanda",
    "name:or": "ଆୟରଲ୍ୟାଣ୍ଡ",
    "name:os": "Ирланди",
    "name:pag": "Irlanda",
    "name:pam": "Irlanda",
    "name:pap": "Irlandia",
    "name:pcd": "Irlinde",
    "name:pih": "Repablik o' Airiland",
    "name:pl": "Irlandia",
    "name:pms": "Irlanda",
    "name:pnb": "لوکراج آئرلینڈ",
    "name:pnt": "Ιρλανδία",
    "name:ps": "د آيرلېنډ جمهوريت",
    "name:pt": "Irlanda",
    "name:qu": "Ilanda",
    "name:rm": "Irlanda",
    "name:rmy": "Republika Irland",
    "name:rn": "Irilandi",
    "name:ro": "Irlanda",
    "name:roa-rup": "Irlanda",
    "name:roa-tara": "Irlanne",
    "name:ru": "Ирландия",
    "name:rue": "Ірьско",
    "name:rw": "Irilande",
    "name:sah": "Ирландия Республиката",
    "name:sc": "Irlanda",
    "name:scn": "Repubblica d'Irlanda",
    "name:sco": "Republic o Ireland",
    "name:se": "Irlánda",
    "name:sg": "Irlânde",
    "name:sh": "Irska",
    "name:si": "අයර්ලන්තය",
    "name:sk": "Írsko",
    "name:sl": "Irska",
    "name:sn": "Ireland",
    "name:so": "Ayrlaand",
    "name:sq": "Irlandë",
    "name:sr": "Ирска",
    "name:ss": "IYalendi",
    "name:stq": "Irlound",
    "name:sv": "Irland",
    "name:sw": "Ayalandi",
    "name:szl": "Irlandyjo",
    "name:ta": "அயர்லாந்து",
    "name:te": "ఐర్ లాండ్",
    "name:tet": "Irlanda",
    "name:tg": "Ҷумҳурии Ирландия",
    "name:th": "สาธารณรัฐไอร์แลนด์",
    "name:ti": "አየርላንድ",
    "name:tk": "Irlandiýa",
    "name:tl": "Irlanda",
    "name:to": "ʻAealani",
    "name:tok": "ma Alan",
    "name:tpi": "Ripablik bilong Aialan",
    "name:tr": "İrlanda",
    "name:ts": "Ireland",
    "name:tt": "Ирландия",
    "name:tzl": "Oira",
    "name:udm": "Ирландия",
    "name:uk": "Ірландія",
    "name:ur": "آئرلینڈ",
    "name:uz": "Irlandiya",
    "name:vec": "Irlanda",
    "name:vep": "Irlandii",
    "name:vi": "Ai-len",
    "name:vls": "Republiek Ierland",
    "name:vo": "Lireyän",
    "name:wa": "Irlande",
    "name:war": "Republika han Irlanda",
    "name:xal": "Гәәлгүдин Орн",
    "name:xmf": "ირლანდია",
    "name:yi": "אירלאנד",
    "name:yo": "Orílẹ́ède Ailandi",
    "name:yue": "愛爾蘭共和國",
    "name:za": "Aiwjlanz Gunghozgoz",
    "name:zea": "Ierland",
    "name:zh": "爱尔兰",
    "name:zh_pinyin": "Àiěrlán",
    "name:zu": "i-Ireland",
    "note": "official name according to the Irish Constitution is \"Éire\" (in Irish) or \"Ireland\" (in English): \"Republic of Ireland\" is NOT an official name, but termed the \"description\" of the state",
    "official_name": "Ireland",
    "official_name:la": "Hibernia",
    "official_name:scn": "Irlanda",
    "old_name:ku": "Komara Îrlandê",
    "old_name:vi": "Ái Nhĩ Lan",
    "place": "country",
    "population": "4635400",
    "population:date": "2015",
    "source:population": "http://www.cso.ie/en/releasesandpublications/er/pme/populationandmigrationestimatesapril2015/#.U_xczvldWSo",
    "source:sqkm": "CIA World Factbook",
    "sqkm": "70273",
    "wheelchair": "limited",
    "wikidata": "Q27",
    "wikipedia": "en:Republic of Ireland"
  }
},
{
  "type": "node",
  "id": 1504546320,
  "lat": 46.7985624,
  "lon": 8.2319736,
  "tags": {
    "ISO3166-1": "CH",
    "ISO3166-1:alpha2": "CH",
    "ISO3166-1:alpha3": "CHE",
    "ISO3166-1:numeric": "756",
    "alt_name:eo": "Svisio;Svisujo",
    "alt_name:gsw": "Schwiz",
    "capital_city": "Bern",
    "country_code_fips": "SZ",
    "country_code_iso3166_1_alpha_2": "CH",
    "is_in": "Europe",
    "is_in:continent": "Europe",
    "name": "Schweiz/Suisse/Svizzera/Svizra",
    "name:af": "Switserland",
    "name:ak": "Swetzaland",
    "name:als": "Schweiz",
    "name:am": "ስዊዘርላንድ",
    "name:an": "Suiza",
    "name:ang": "Sƿissland",
    "name:ar": "سويسرا",
    "name:arc": "ܣܘܝܣܪܐ",
    "name:arz": "سويسرا",
    "name:ast": "Suiza",
    "name:az": "İsveçrə",
    "name:bar": "Schweiz",
    "name:bat-smg": "Šveicarėjė",
    "name:bcl": "Suisa",
    "name:be": "Швейцарыя",
    "name:be-tarask": "Швейцарыя",
    "name:bg": "Швейцария",
    "name:bm": "Suwisi",
    "name:bn": "সুইজারল্যান্ড",
    "name:bo": "སུད་སི།",
    "name:bpy": "সুইজারল্যান্ড",
    "name:br": "Suis",
    "name:bs": "Švicarska",
    "name:ca": "Suïssa",
    "name:ceb": "Swisa",
    "name:chr": "ᏍᏫᏍ",
    "name:ckb": "سویسرا",
    "name:cs": "Švýcarsko",
    "name:csb": "Szwajcarskô",
    "name:cv": "Швейцари",
    "name:cy": "Y Swistir",
    "name:da": "Schweiz",
    "name:de": "Schweiz",
    "name:diq": "İswiçre",
    "name:dsb": "Šwicarska",
    "name:dv": "ސުވިޒަލޭންޑު",
    "name:dz": "སུའིཊ་ཛར་ལེན་",
    "name:ee": "Switzerland",
    "name:el": "Ελβετία",
    "name:eml": "Svézzra",
    "name:en": "Switzerland",
    "name:eo": "Svislando",
    "name:es": "Suiza",
    "name:et": "Šveits",
    "name:eu": "Suitza",
    "name:fa": "سوئیس",
    "name:ff": "Suwiis",
    "name:fi": "Sveitsi",
    "name:fiu-vro": "Sveits",
    "name:fo": "Sveis",
    "name:fr": "Suisse",
    "name:frp": "Suisse",
    "name:fur": "Svuizare",
    "name:fy": "Switserlân",
    "name:ga": "An Eilbhéis",
    "name:gd": "An Eilbheis",
    "name:gl": "Suíza",
    "name:gsw": "Schwiiz",
    "name:gu": "સ્વિટ્ઝર્લૅન્ડ",
    "name:gv": "Yn Elveeish",
    "name:ha": "Suwizalan",
    "name:haw": "Kuikilani",
    "name:he": "שוויץ",
    "name:hi": "स्विट्ज़रलैंड",
    "name:hif": "Switzerland",
    "name:hr": "Švicarska",
    "name:hsb": "Šwicarska",
    "name:ht": "Swis",
    "name:hu": "Svájc",
    "name:hy": "Շվեյցարիա",
    "name:ia": "Suissa",
    "name:id": "Swiss",
    "name:ie": "Svissia",
    "name:ilo": "Switzerland",
    "name:io": "Suisia",
    "name:is": "Sviss",
    "name:it": "Svizzera",
    "name:ja": "スイス",
    "name:jbo": "elvetias",
    "name:jv": "Swiss",
    "name:ka": "შვეიცარია",
    "name:kab": "Swis",
    "name:kg": "Suisi",
    "name:ki": "Uswisi",
    "name:kk": "Швейцария",
    "name:kl": "Schweizi",
    "name:km": "ស្វីស",
    "name:kn": "ಸ್ವಿಟ್ಜರ್ಲ್ಯಾಂಡ್",
    "name:ko": "스위스",
    "name:ks": "سُوِزَرلینٛڑ",
    "name:ksh": "Shwäĳz",
    "name:ku": "Swîsre",
    "name:kv": "Швейцария",
    "name:kw": "Swistir",
    "name:ky": "Швейцария",
    "name:la": "Helvetia",
    "name:lad": "Suisa",
    "name:lb": "Schwäiz",
    "name:lfn": "Suiz",
    "name:lg": "Switizirandi",
    "name:li": "Zweitserland",
    "name:lij": "Svissëa",
    "name:lmo": "Svìzzera",
    "name:ln": "Swisi",
    "name:lo": "ສະວິດເຊີແລນ",
    "name:lt": "Šveicarija",
    "name:lv": "Šveice",
    "name:lzh": "瑞士",
    "name:mdf": "Швейцария",
    "name:mg": "Soisa",
    "name:mhr": "Швейцарий",
    "name:mk": "Швајцарија",
    "name:ml": "സ്വിറ്റ്സര്‍ലാന്റ്",
    "name:mn": "Швейцари",
    "name:mr": "स्वित्झर्लंड",
    "name:ms": "Switzerland",
    "name:mt": "Svizzera",
    "name:my": "ဆွစ်ဇလန်",
    "name:na": "Switzerland",
    "name:nah": "Suiza",
    "name:nan": "Sūi-se",
    "name:nap": "Sguizzera",
    "name:nds": "Swiez",
    "name:nds-nl": "Zwitserlaand",
    "name:ne": "स्विजरल्याण्ड",
    "name:nl": "Zwitserland",
    "name:nn": "Sveits",
    "name:no": "Sveits",
    "name:nov": "Suisia",
    "name:nrm": "Suisse",
    "name:oc": "Soïssa",
    "name:or": "ସ୍ବିଜରଲ୍ୟାଣ୍ଡ",
    "name:os": "Швейцари",
    "name:pag": "Switzerland",
    "name:pam": "Suiza",
    "name:pdc": "Schweiz",
    "name:pih": "Switsaland",
    "name:pl": "Szwajcaria",
    "name:pms": "Svìssera",
    "name:pnt": "Ελβετία",
    "name:ps": "سویس",
    "name:pt": "Suíça",
    "name:qu": "Suwisa",
    "name:rm": "Svizra",
    "name:rn": "Ubusuwisi",
    "name:ro": "Elveţia",
    "name:ru": "Швейцария",
    "name:sa": "स्विटजरलैंड",
    "name:sah": "Швейцария",
    "name:scn": "Svìzzira",
    "name:sco": "Swisserland",
    "name:se": "Šveica",
    "name:sg": "Sûîsi",
    "name:si": "ස්විස්ටර්ලන්තය",
    "name:sk": "Švajčiarsko",
    "name:sl": "Švica",
    "name:sn": "Switzerland",
    "name:so": "Iswiizerlaan",
    "name:sq": "Zvicra",
    "name:sr": "Швајцарска",
    "name:stq": "Swaits",
    "name:sv": "Schweiz",
    "name:sw": "Uswisi",
    "name:szl": "Szwajcaryjo",
    "name:ta": "சுவிட்சர்லாந்து",
    "name:te": "స్విట్జర్లాండ్",
    "name:tet": "Suisa",
    "name:tg": "Швейтсария",
    "name:th": "ประเทศสวิตเซอร์แลนด์",
    "name:ti": "ስዊዘርላንድ",
    "name:tl": "Suwisa",
    "name:to": "Suisilani",
    "name:tok": "ma Suwasi",
    "name:tr": "İsviçre",
    "name:tzl": "Suiça",
    "name:udm": "Швейцария",
    "name:ug": "Shwétsariye",
    "name:uk": "Швейцарія",
    "name:ur": "سویٹزر لینڈ",
    "name:uz": "Sheysariya",
    "name:vec": "Svìzera",
    "name:vi": "Thụy Sĩ",
    "name:vo": "Jveizän",
    "name:war": "Swiza",
    "name:wo": "Suwis",
    "name:wuu": "瑞士",
    "name:xal": "Свисн Һазр",
    "name:yi": "שווייץ",
    "name:yo": "Orílẹ́ède switiṣilandi",
    "name:yue": "瑞士",
    "name:zea": "Zwitserland",
    "name:zh": "瑞士",
    "name:zh_pinyin": "Ruìshì",
    "name:zu": "i-Switzerland",
    "official_name:be": "Швейцарская Канфедэрацыя",
    "official_name:de": "Schweizerische Eidgenossenschaft",
    "official_name:el": "Ελβετική Συνομοσπονδία",
    "official_name:en": "Swiss Confederation",
    "official_name:eo": "Svisa Konfederacio",
    "official_name:fr": "Confédération suisse",
    "official_name:id": "Konfederasi Swiss",
    "official_name:it": "Confederazione Svizzera",
    "official_name:ja": "スイス連邦",
    "official_name:ku": "Konfedarasyona Swîsreyî",
    "official_name:la": "Confoederatio Helvetica",
    "official_name:lb": "Schwäizeresch Eidgenossenschaft",
    "official_name:lt": "Šveicarijos Konfederacija",
    "official_name:pl": "Konfederacja Szwajcarska",
    "official_name:rm": "Confederaziun svizra",
    "official_name:ru": "Швейцарская Конфедерация",
    "official_name:sk": "Švajčiarska konfederácia",
    "official_name:sv": "Schweiziska edsförbundet",
    "official_name:vi": "Liên bang Thụy Sĩ",
    "place": "country",
    "population": "8183800",
    "source:sqkm": "CIA World Factbook",
    "sqkm": "41277",
    "url": "http://www.ch.ch/",
    "wikidata": "Q39",
    "wikipedia": "de:Schweiz"
  }
},
{
  "type": "node",
  "id": 1602889766,
  "lat": 54.1936805,
  "lon": -4.5591148,
  "tags": {
    "alt_name:vi": "Đảo Mann",
    "country_code_iso3166_1_alpha_2": "IM",
    "is_in:continent": "Europe",
    "name": "Isle of Man",
    "name:ar": "جزيرة مان",
    "name:be": "Востраў Мэн",
    "name:br": "Enez Vanav",
    "name:ca": "Illa de Man",
    "name:cs": "Ostrov Man",
    "name:cy": "Ynys Manaw",
    "name:de": "Insel Man",
    "name:el": "Νήσος Μαν",
    "name:en": "Isle of Man",
    "name:eo": "Manksinsulo",
    "name:es": "Isla de Man",
    "name:et": "Man",
    "name:fi": "Mansaari",
    "name:fr": "Île de Man",
    "name:gd": "Eilean Mhanainn",
    "name:gv": "Vannin",
    "name:he": "האי מאן",
    "name:ia": "Insula de Man",
    "name:io": "Man-Insulo",
    "name:it": "Isola di Man",
    "name:ja": "マン島",
    "name:kn": "ಐಲ್ ಆಫ್ ಮ್ಯಾನ್",
    "name:ku": "Girava Manê",
    "name:lfn": "Isola Man",
    "name:lt": "Meno Sala",
    "name:nl": "het eiland Man",
    "name:no": "Man",
    "name:pl": "Wyspa Man",
    "name:ru": "Остров Мэн",
    "name:sk": "Ostrov Man",
    "name:sr": "Острво Ман",
    "name:sv": "Isle of Man",
    "name:tr": "Man Adası",
    "name:tt": "Мэн утравы",
    "name:uk": "Острів Мен",
    "name:vi": "Đảo Man",
    "name:vo": "Mäneän",
    "name:zh": "马恩岛",
    "place": "country",
    "population": "84497",
    "source:sqkm": "CIA World Factbook",
    "sqkm": "572",
    "wikidata": "Q9676",
    "wikipedia": "en:Isle of Man"
  }
},
{
  "type": "node",
  "id": 1696874354,
  "lat": 35.2245313,
  "lon": 33.6252379,
  "tags": {
    "alt_name:ru": "Северный Кипр",
    "is_in:continent": "Europe",
    "name": "Kuzey Kıbrıs Türk Cumhuriyeti",
    "name:ar": "قبرص الشمالية",
    "name:ba": "Төньяҡ Кипр Төрөк Республикаһы",
    "name:be": "Паўночны Кіпр",
    "name:br": "Kiprenez an Norzh",
    "name:ca": "República Turca de Xipre del Nord",
    "name:cy": "Gogledd Cyprus",
    "name:da": "Nordcypern",
    "name:de": "Nordzypern",
    "name:en": "Turkish Republic Of Northern Cyprus",
    "name:eo": "Norda Kipro",
    "name:es": "República Turca del Norte de Chipre",
    "name:et": "Põhja-Küpros",
    "name:fa": "قبرس شمالی",
    "name:fi": "Pohjois-Kypros",
    "name:fr": "Chypre du Nord",
    "name:he": "הרפובליקה הטורקית של צפון קפריסין",
    "name:ia": "Republica Turc de Cypro Septentrional",
    "name:io": "Turka republiko di Norda Chipro",
    "name:it": "Cipro del Nord",
    "name:kn": "ಉತ್ತರ ಸೈಪ್ರಸ್ನ ಟರ್ಕಿಶ್ ಗಣರಾಜ್ಯ",
    "name:ku": "Komara Tirk a Bakurê Kîprosê",
    "name:lt": "Turkų Kipras",
    "name:nds": "Noordzypern",
    "name:nl": "Noord-Cyprus",
    "name:no": "Nord-Kypros",
    "name:pl": "Cypr Północny",
    "name:ru": "Турецкая Республика Северного Кипра",
    "name:sk": "Severný Cyprus",
    "name:sr": "Северни Кипар",
    "name:sv": "Nordcypern",
    "name:tr": "Kuzey Kıbrıs",
    "name:tt": "Төньяк Кипрның Төрек Җөмһүрияте",
    "name:uk": "Турецька Республіка Північного Кіпру",
    "name:vi": "Bắc Síp",
    "name:vo": "Nolüda-Sipreän",
    "name:zh": "北賽普勒斯土耳其共和國",
    "official_name:be": "Турэцкая Рэспубліка Паўночнага Кіпра",
    "official_name:br": "Republik Turk Kiprenez an Norzh",
    "official_name:de": "Türkische Republik Nordzypern",
    "official_name:el": "Τουρκική Δημοκρατία της Βόρειας Κύπρου",
    "official_name:en": "Turkish Republic of Northern Cyprus",
    "official_name:eo": "Turka Respubliko Norda Kipro",
    "official_name:es": "República Turca del Norte de Chipre",
    "official_name:fa": "جمهوری ترک قبرس شمالی",
    "official_name:fr": "République turque de Chypre du Nord",
    "official_name:no": "Den tyrkiske republikken Nord-Kypros",
    "official_name:sk": "Severocyperská turecká republika",
    "official_name:tr": "Kuzey Kıbrıs Türk Cumhuriyeti",
    "official_name:vi": "Cộng hòa Thổ Nhĩ Kỳ miền Bắc Síp",
    "place": "country",
    "population": "265100",
    "short_name:el": "ΤΔΒΚ",
    "status": "partially_recognized_state",
    "wikidata": "Q23681",
    "wikipedia": "en:Northern Cyprus"
  }
},
{
  "type": "node",
  "id": 2377028247,
  "lat": 40.0332629,
  "lon": -7.8896263,
  "tags": {
    "ISO3166-1:alpha2": "PT",
    "alt_name:eo": "Portugalujo",
    "country_code_iso3166_1_alpha_2": "PT",
    "int_name": "Portugal",
    "is_in:continent": "Europe",
    "name": "Portugal",
    "name:ar": "البرتغال",
    "name:be": "Партугалія",
    "name:ca": "Portugal",
    "name:de": "Portugal",
    "name:el": "Πορτογαλία",
    "name:en": "Portugal",
    "name:eo": "Portugalio",
    "name:es": "Portugal",
    "name:fa": "پرتغال",
    "name:fi": "Portugali",
    "name:fr": "Portugal",
    "name:fy": "Portegal",
    "name:gv": "Yn Phortiugal",
    "name:he": "פורסוגל",
    "name:hsb": "Portugalska",
    "name:hu": "Portugália",
    "name:ia": "Portugal",
    "name:io": "Portugal",
    "name:it": "Portogallo",
    "name:ja": "ポルトガル",
    "name:jbo": "potygu'e",
    "name:kn": "ಪೋರ್ಚುಗಲ್",
    "name:lfn": "Portugal",
    "name:nds": "Portugal",
    "name:nl": "Portugal",
    "name:pl": "Portugalia",
    "name:ru": "Португалия",
    "name:sk": "Portugalsko",
    "name:sr": "Португалија",
    "name:sr-Latn": "Portugalija",
    "name:szl": "Portugalijo",
    "name:tok": "ma Potuke",
    "name:tzl": "Portugal",
    "name:uk": "Португалія",
    "name:vi": "Bồ Đào Nha",
    "name:vo": "Portugän",
    "name:zh": "葡萄牙",
    "official_name:eo": "Portugala Respubliko",
    "place": "country",
    "population": "10562178",
    "source:sqkm": "CIA World Factbook",
    "sqkm": "92090",
    "wikidata": "Q45",
    "wikipedia": "pt:Portugal"
  }
},
{
  "type": "node",
  "id": 3696525426,
  "lat": 47.1416307,
  "lon": 9.5531527,
  "tags": {
    "ISO3166-1": "LI",
    "ISO3166-1:alpha3": "LIE",
    "ISO3166-1:numeric": "438",
    "capital_city": "Vaduz",
    "country_code_iso3166_1_alpha_2": "LI",
    "int_name": "Liechtenstein",
    "is_in": "Europe",
    "is_in:continent": "Europe",
    "name": "Liechtenstein",
    "name:ar": "ليختنشتاين",
    "name:be": "Ліхтэнштэйн",
    "name:ckb": "لیختنشتاین",
    "name:de": "Liechtenstein",
    "name:el": "Λίχτενσταϊν",
    "name:en": "Liechtenstein",
    "name:eo": "Liĥtenŝtejno",
    "name:es": "Liechtenstein",
    "name:fa": "لیختن‌اشتاین",
    "name:fr": "Liechtenstein",
    "name:fy": "Lychtenstein",
    "name:ia": "Liechtenstein",
    "name:io": "Liechtenstein",
    "name:it": "Liechtenstein",
    "name:jbo": "lixtenctain",
    "name:kn": "ಲಿಚ್ಟೆನ್ಸ್ಟೀನ್",
    "name:lfn": "Lictenstain",
    "name:nds": "Liechtensteen",
    "name:nl": "Liechtenstein",
    "name:pl": "Liechtenstein",
    "name:ru": "Лихтенштейн",
    "name:sk": "Lichtenštajnsko",
    "name:tok": "ma Lisensan",
    "name:tr": "Lihtenştayn",
    "name:tzl": "Lic'htenschtain",
    "name:uk": "Ліхтенштейн",
    "name:vo": "Ligtänstän",
    "name:zh": "列支敦士登",
    "nat_name": "Liechtenstein",
    "official_name": "Fürstentum Liechtenstein",
    "official_name:eo": "Princlando Liĥtenŝtejno",
    "official_name:pl": "Księstwo Liechtensteinu",
    "official_name:sk": "Lichtenštajnské kniežatstvo",
    "place": "country",
    "population": "37132",
    "source:sqkm": "CIA World Factbook",
    "sqkm": "160",
    "wikidata": "Q347",
    "wikipedia": "de:Liechtenstein"
  }
},
{
  "type": "node",
  "id": 4076524861,
  "lat": 35.8885993,
  "lon": 14.4476911,
  "tags": {
    "ISO3166-1:alpha2": "MT",
    "country_code_iso3166_1_alpha_2": "MT",
    "is_in": "Europe",
    "is_in:continent": "Europe",
    "name": "Malta",
    "name:ar": "مالطا",
    "name:de": "Malta",
    "name:en": "Malta",
    "name:eo": "Malto",
    "name:es": "Malta",
    "name:fa": "مالت",
    "name:fr": "Malte",
    "name:fy": "Malta",
    "name:hy": "Մալթա",
    "name:ia": "Malta",
    "name:io": "Malta",
    "name:it": "Malta",
    "name:jbo": "maltas",
    "name:ka": "მალტა",
    "name:kn": "ಮಾಲ್ಟ",
    "name:lfn": "Malta",
    "name:mn": "Мальт",
    "name:nds": "Malta",
    "name:nl": "Malta",
    "name:pl": "Malta",
    "name:ru": "Мальта",
    "name:sk": "Malta",
    "name:sr": "Малта",
    "name:sr-Latn": "Malta",
    "name:tr": "Malta",
    "name:uk": "Мальта",
    "name:vo": "Malteän",
    "name:yi": "מאלטא",
    "name:zh": "马耳他",
    "official_name:eo": "Malta Respubliko",
    "place": "country",
    "population": "423282",
    "source:sqkm": "CIA World Factbook",
    "sqkm": "316",
    "wikidata": "Q233",
    "wikipedia": "mt:Malta"
  }
}

  ]
}
